,ip,country,city,lat,lon,network,network_name,os_family,os_version,browser,browser_version,mobile,device_id,login
828,31.173.243.68,Russia,Novosibirsk,55.0415,82.9346,31.173.242.0/23,MF-SF-AS31205-MOB-PLAN,Android,6.0,Chrome Mobile, 55.0.2883,True,5d6a3ca0-bcb9-4c64-a45f-d71e056dc561,d21e16e4f73eee03a4af84277fa2d2c7450842f6
829,31.173.240.37,Russia,Novosibirsk,55.0415,82.9346,31.173.240.0/23,MF-SF-AS31205-MOB-TOL,Android,6.0,Chrome Mobile, 55.0.2883,True,5d6a3ca0-bcb9-4c64-a45f-d71e056dc561,d21e16e4f73eee03a4af84277fa2d2c7450842f6
830,31.173.243.69,Russia,Novosibirsk,55.0415,82.9346,31.173.242.0/23,MF-SF-AS31205-MOB-PLAN,Android,6.0,Chrome Mobile, 55.0.2883,True,5d6a3ca0-bcb9-4c64-a45f-d71e056dc561,d21e16e4f73eee03a4af84277fa2d2c7450842f6
831,31.173.242.231,Russia,Novosibirsk,55.0415,82.9346,31.173.242.0/23,MF-SF-AS31205-MOB-PLAN,Android,6.0,Chrome Mobile, 55.0.2883,True,7b26a66f-1e5b-4191-b29e-0a75408783a8,d21e16e4f73eee03a4af84277fa2d2c7450842f6
832,31.173.242.1,Russia,Novosibirsk,55.0415,82.9346,31.173.242.0/23,MF-SF-AS31205-MOB-PLAN,Android,6.0,Chrome Mobile, 55.0.2883,True,7b26a66f-1e5b-4191-b29e-0a75408783a8,d21e16e4f73eee03a4af84277fa2d2c7450842f6
833,176.59.133.76,Russia,Novosibirsk,55.0415,82.9346,176.59.128.0/19,TELE2RU-SUBSCRIBER-POOL-NET,Android,6.0,Chrome Mobile, 55.0.2883,True,7b26a66f-1e5b-4191-b29e-0a75408783a8,d21e16e4f73eee03a4af84277fa2d2c7450842f6
834,31.173.242.31,Russia,Novosibirsk,55.0415,82.9346,31.173.242.0/23,MF-SF-AS31205-MOB-PLAN,Android,6.0,Chrome Mobile, 55.0.2883,True,7b26a66f-1e5b-4191-b29e-0a75408783a8,d21e16e4f73eee03a4af84277fa2d2c7450842f6
835,31.173.240.44,Russia,Novosibirsk,55.0415,82.9346,31.173.240.0/23,MF-SF-AS31205-MOB-TOL,Android,6.0,Chrome Mobile, 55.0.2883,True,7b26a66f-1e5b-4191-b29e-0a75408783a8,d21e16e4f73eee03a4af84277fa2d2c7450842f6
836,31.173.243.112,Russia,Novosibirsk,55.0415,82.9346,31.173.242.0/23,MF-SF-AS31205-MOB-PLAN,Android,6.0,Chrome Mobile, 55.0.2883,True,7b26a66f-1e5b-4191-b29e-0a75408783a8,d21e16e4f73eee03a4af84277fa2d2c7450842f6
837,31.173.240.47,Russia,Novosibirsk,55.0415,82.9346,31.173.240.0/23,MF-SF-AS31205-MOB-TOL,Android,6.0,Chrome Mobile, 55.0.2883,True,7b26a66f-1e5b-4191-b29e-0a75408783a8,d21e16e4f73eee03a4af84277fa2d2c7450842f6
838,31.173.242.114,Russia,Novosibirsk,55.0415,82.9346,31.173.242.0/23,MF-SF-AS31205-MOB-PLAN,Android,6.0,Chrome Mobile, 55.0.2883,True,7b26a66f-1e5b-4191-b29e-0a75408783a8,d21e16e4f73eee03a4af84277fa2d2c7450842f6
839,31.173.242.11,Russia,Novosibirsk,55.0415,82.9346,31.173.242.0/23,MF-SF-AS31205-MOB-PLAN,Android,6.0,Chrome Mobile, 55.0.2883,True,7b26a66f-1e5b-4191-b29e-0a75408783a8,d21e16e4f73eee03a4af84277fa2d2c7450842f6
840,31.173.242.8,Russia,Novosibirsk,55.0415,82.9346,31.173.242.0/23,MF-SF-AS31205-MOB-PLAN,Android,6.0,Chrome Mobile, 55.0.2883,True,7b26a66f-1e5b-4191-b29e-0a75408783a8,d21e16e4f73eee03a4af84277fa2d2c7450842f6
841,31.173.240.38,Russia,Novosibirsk,55.0415,82.9346,31.173.240.0/23,MF-SF-AS31205-MOB-TOL,Android,6.0,Chrome Mobile, 55.0.2883,True,7b26a66f-1e5b-4191-b29e-0a75408783a8,d21e16e4f73eee03a4af84277fa2d2c7450842f6
842,31.173.240.170,Russia,Novosibirsk,55.0415,82.9346,31.173.240.0/23,MF-SF-AS31205-MOB-TOL,Android,6.0,Chrome Mobile, 55.0.2883,True,7b26a66f-1e5b-4191-b29e-0a75408783a8,d21e16e4f73eee03a4af84277fa2d2c7450842f6
843,31.173.240.20,Russia,Novosibirsk,55.0415,82.9346,31.173.240.0/23,MF-SF-AS31205-MOB-TOL,Android,6.0,Chrome Mobile, 55.0.2883,True,7b26a66f-1e5b-4191-b29e-0a75408783a8,d21e16e4f73eee03a4af84277fa2d2c7450842f6
844,31.173.242.56,Russia,Novosibirsk,55.0415,82.9346,31.173.242.0/23,MF-SF-AS31205-MOB-PLAN,Android,6.0,Chrome Mobile, 55.0.2883,True,7b26a66f-1e5b-4191-b29e-0a75408783a8,d21e16e4f73eee03a4af84277fa2d2c7450842f6
845,31.173.240.60,Russia,Novosibirsk,55.0415,82.9346,31.173.240.0/23,MF-SF-AS31205-MOB-TOL,Android,6.0,Chrome Mobile, 55.0.2883,True,7b26a66f-1e5b-4191-b29e-0a75408783a8,d21e16e4f73eee03a4af84277fa2d2c7450842f6
846,31.173.240.1,Russia,Novosibirsk,55.0415,82.9346,31.173.240.0/23,MF-SF-AS31205-MOB-TOL,Android,6.0,Chrome Mobile, 55.0.2883,True,7b26a66f-1e5b-4191-b29e-0a75408783a8,d21e16e4f73eee03a4af84277fa2d2c7450842f6
847,31.173.240.157,Russia,Novosibirsk,55.0415,82.9346,31.173.240.0/23,MF-SF-AS31205-MOB-TOL,Android,6.0,Chrome Mobile, 55.0.2883,True,7b26a66f-1e5b-4191-b29e-0a75408783a8,d21e16e4f73eee03a4af84277fa2d2c7450842f6
848,31.173.241.34,Russia,Novosibirsk,55.0415,82.9346,31.173.240.0/23,MF-SF-AS31205-MOB-TOL,Android,6.0,Chrome Mobile, 55.0.2883,True,7b26a66f-1e5b-4191-b29e-0a75408783a8,d21e16e4f73eee03a4af84277fa2d2c7450842f6
849,31.173.242.82,Russia,Novosibirsk,55.0415,82.9346,31.173.242.0/23,MF-SF-AS31205-MOB-PLAN,Android,6.0,Chrome Mobile, 55.0.2883,True,7b26a66f-1e5b-4191-b29e-0a75408783a8,d21e16e4f73eee03a4af84277fa2d2c7450842f6
850,31.173.240.46,Russia,Novosibirsk,55.0415,82.9346,31.173.240.0/23,MF-SF-AS31205-MOB-TOL,Android,6.0,Chrome Mobile, 55.0.2883,True,7b26a66f-1e5b-4191-b29e-0a75408783a8,d21e16e4f73eee03a4af84277fa2d2c7450842f6
851,31.173.241.19,Russia,Novosibirsk,55.0415,82.9346,31.173.240.0/23,MF-SF-AS31205-MOB-TOL,Android,6.0,Chrome Mobile, 55.0.2883,True,7b26a66f-1e5b-4191-b29e-0a75408783a8,d21e16e4f73eee03a4af84277fa2d2c7450842f6
852,31.173.242.177,Russia,Novosibirsk,55.0415,82.9346,31.173.242.0/23,MF-SF-AS31205-MOB-PLAN,Android,6.0,Chrome Mobile, 55.0.2883,True,7b26a66f-1e5b-4191-b29e-0a75408783a8,d21e16e4f73eee03a4af84277fa2d2c7450842f6
853,176.59.142.56,Russia,Novosibirsk,55.0415,82.9346,176.59.128.0/19,TELE2RU-SUBSCRIBER-POOL-NET,Android,6.0,Chrome Mobile, 55.0.2883,True,7b26a66f-1e5b-4191-b29e-0a75408783a8,d21e16e4f73eee03a4af84277fa2d2c7450842f6
854,31.173.243.85,Russia,Novosibirsk,55.0415,82.9346,31.173.242.0/23,MF-SF-AS31205-MOB-PLAN,Android,6.0,Chrome Mobile, 55.0.2883,True,7b26a66f-1e5b-4191-b29e-0a75408783a8,d21e16e4f73eee03a4af84277fa2d2c7450842f6
855,176.59.150.78,Russia,Novosibirsk,55.0415,82.9346,176.59.128.0/19,TELE2RU-SUBSCRIBER-POOL-NET,Android,6.0,Chrome Mobile, 55.0.2883,True,7b26a66f-1e5b-4191-b29e-0a75408783a8,d21e16e4f73eee03a4af84277fa2d2c7450842f6
856,176.59.147.125,Russia,Novosibirsk,55.0415,82.9346,176.59.128.0/19,TELE2RU-SUBSCRIBER-POOL-NET,Android,6.0,Chrome Mobile, 55.0.2883,True,7b26a66f-1e5b-4191-b29e-0a75408783a8,d21e16e4f73eee03a4af84277fa2d2c7450842f6
857,31.173.240.216,Russia,Novosibirsk,55.0415,82.9346,31.173.240.0/23,MF-SF-AS31205-MOB-TOL,Android,6.0,Chrome Mobile, 55.0.2883,True,7b26a66f-1e5b-4191-b29e-0a75408783a8,d21e16e4f73eee03a4af84277fa2d2c7450842f6
858,31.173.240.247,Russia,Novosibirsk,55.0415,82.9346,31.173.240.0/23,MF-SF-AS31205-MOB-TOL,Android,6.0,Chrome Mobile, 55.0.2883,True,7b26a66f-1e5b-4191-b29e-0a75408783a8,d21e16e4f73eee03a4af84277fa2d2c7450842f6
859,31.173.241.11,Russia,Novosibirsk,55.0415,82.9346,31.173.240.0/23,MF-SF-AS31205-MOB-TOL,Android,6.0,Chrome Mobile, 55.0.2883,True,7b26a66f-1e5b-4191-b29e-0a75408783a8,d21e16e4f73eee03a4af84277fa2d2c7450842f6
860,31.173.241.80,Russia,Novosibirsk,55.0415,82.9346,31.173.240.0/23,MF-SF-AS31205-MOB-TOL,Android,6.0,Chrome Mobile, 55.0.2883,True,7b26a66f-1e5b-4191-b29e-0a75408783a8,d21e16e4f73eee03a4af84277fa2d2c7450842f6
861,31.173.243.23,Russia,Novosibirsk,55.0415,82.9346,31.173.242.0/23,MF-SF-AS31205-MOB-PLAN,Android,6.0,Chrome Mobile, 55.0.2883,True,7b26a66f-1e5b-4191-b29e-0a75408783a8,d21e16e4f73eee03a4af84277fa2d2c7450842f6
862,31.173.240.115,Russia,Novosibirsk,55.0415,82.9346,31.173.240.0/23,MF-SF-AS31205-MOB-TOL,Android,6.0,Chrome Mobile, 55.0.2883,True,7b26a66f-1e5b-4191-b29e-0a75408783a8,d21e16e4f73eee03a4af84277fa2d2c7450842f6
863,176.59.144.216,Russia,Novosibirsk,55.0415,82.9346,176.59.128.0/19,TELE2RU-SUBSCRIBER-POOL-NET,Android,6.0,Chrome Mobile, 55.0.2883,True,7b26a66f-1e5b-4191-b29e-0a75408783a8,d21e16e4f73eee03a4af84277fa2d2c7450842f6
864,176.59.138.165,Russia,Novosibirsk,55.0415,82.9346,176.59.128.0/19,TELE2RU-SUBSCRIBER-POOL-NET,Android,6.0,Chrome Mobile, 55.0.2883,True,7b26a66f-1e5b-4191-b29e-0a75408783a8,d21e16e4f73eee03a4af84277fa2d2c7450842f6
865,31.173.240.180,Russia,Novosibirsk,55.0415,82.9346,31.173.240.0/23,MF-SF-AS31205-MOB-TOL,Android,6.0,Chrome Mobile, 55.0.2883,True,7b26a66f-1e5b-4191-b29e-0a75408783a8,d21e16e4f73eee03a4af84277fa2d2c7450842f6
866,176.59.135.201,Russia,Novosibirsk,55.0415,82.9346,176.59.128.0/19,TELE2RU-SUBSCRIBER-POOL-NET,Android,6.0,Chrome Mobile, 55.0.2883,True,7b26a66f-1e5b-4191-b29e-0a75408783a8,d21e16e4f73eee03a4af84277fa2d2c7450842f6
867,176.59.128.169,Russia,Novosibirsk,55.0415,82.9346,176.59.128.0/19,TELE2RU-SUBSCRIBER-POOL-NET,Android,6.0,Chrome Mobile, 55.0.2883,True,7b26a66f-1e5b-4191-b29e-0a75408783a8,d21e16e4f73eee03a4af84277fa2d2c7450842f6
883,176.59.142.22,Russia,Novosibirsk,55.0415,82.9346,176.59.128.0/19,TELE2RU-SUBSCRIBER-POOL-NET,Android,5.1,Chrome Mobile, 39.0.0,True,643c42c3-c9c6-4fe7-963a-2ef06a008bd5,41040c11d12fdc348460f09cc7f63a54a0afddcb
884,176.212.20.64,Russia,Irkutsk,52.29778,104.29639,176.212.16.0/21,ERTH-IRKUTSK-PPPOE-23-NET,Android,5.1,Chrome Mobile, 39.0.0,True,643c42c3-c9c6-4fe7-963a-2ef06a008bd5,41040c11d12fdc348460f09cc7f63a54a0afddcb
885,80.83.237.47,Russia,Vladivostok,43.10562,131.87353,80.83.236.0/22,MTSNET-DV-GPRS-3G,Android,5.1,Chrome Mobile, 39.0.0,True,643c42c3-c9c6-4fe7-963a-2ef06a008bd5,41040c11d12fdc348460f09cc7f63a54a0afddcb
886,80.83.237.6,Russia,Vladivostok,43.10562,131.87353,80.83.236.0/22,MTSNET-DV-GPRS-3G,Android,5.1,Chrome Mobile, 39.0.0,True,643c42c3-c9c6-4fe7-963a-2ef06a008bd5,41040c11d12fdc348460f09cc7f63a54a0afddcb
887,176.212.20.97,Russia,Irkutsk,52.29778,104.29639,176.212.16.0/21,ERTH-IRKUTSK-PPPOE-23-NET,Android,5.1,Chrome Mobile, 39.0.0,True,643c42c3-c9c6-4fe7-963a-2ef06a008bd5,41040c11d12fdc348460f09cc7f63a54a0afddcb
888,176.215.240.120,Russia,Irkutsk,52.29778,104.29639,176.215.240.0/21,ERTH-IRKUTSK-PPPOE-2-NET,Android,5.1,Chrome Mobile, 39.0.0,True,643c42c3-c9c6-4fe7-963a-2ef06a008bd5,41040c11d12fdc348460f09cc7f63a54a0afddcb
889,176.215.240.184,Russia,Irkutsk,52.29778,104.29639,176.215.240.0/21,ERTH-IRKUTSK-PPPOE-2-NET,Android,5.1,Chrome Mobile, 39.0.0,True,643c42c3-c9c6-4fe7-963a-2ef06a008bd5,41040c11d12fdc348460f09cc7f63a54a0afddcb
890,176.215.244.79,Russia,Irkutsk,52.29778,104.29639,176.215.240.0/21,ERTH-IRKUTSK-PPPOE-2-NET,Android,5.1,Chrome Mobile, 39.0.0,True,643c42c3-c9c6-4fe7-963a-2ef06a008bd5,41040c11d12fdc348460f09cc7f63a54a0afddcb
891,176.212.24.88,Russia,Irkutsk,52.29778,104.29639,176.212.24.0/21,ERTH-IRKUTSK-PPPOE-24-NET,Android,5.1,Chrome Mobile, 39.0.0,True,643c42c3-c9c6-4fe7-963a-2ef06a008bd5,41040c11d12fdc348460f09cc7f63a54a0afddcb
892,176.59.141.79,Russia,Novosibirsk,55.0415,82.9346,176.59.128.0/19,TELE2RU-SUBSCRIBER-POOL-NET,Android,5.1,Chrome Mobile, 39.0.0,True,643c42c3-c9c6-4fe7-963a-2ef06a008bd5,41040c11d12fdc348460f09cc7f63a54a0afddcb
893,176.212.24.136,Russia,Irkutsk,52.29778,104.29639,176.212.24.0/21,ERTH-IRKUTSK-PPPOE-24-NET,Android,5.1,Chrome Mobile, 39.0.0,True,643c42c3-c9c6-4fe7-963a-2ef06a008bd5,41040c11d12fdc348460f09cc7f63a54a0afddcb
894,176.215.248.53,Russia,Irkutsk,52.29778,104.29639,176.215.248.0/21,ERTH-IRKUTSK-PPPOE-5-NET,Android,5.1,Chrome Mobile, 60.0.3112,True,643c42c3-c9c6-4fe7-963a-2ef06a008bd5,41040c11d12fdc348460f09cc7f63a54a0afddcb
895,176.215.244.134,Russia,Irkutsk,52.29778,104.29639,176.215.240.0/21,ERTH-IRKUTSK-PPPOE-2-NET,Android,5.1,Chrome Mobile, 60.0.3112,True,643c42c3-c9c6-4fe7-963a-2ef06a008bd5,41040c11d12fdc348460f09cc7f63a54a0afddcb
1134,178.64.230.116,Russia,Vologda,59.2239,39.88398,178.64.128.0/17,RU-AVANGARD-DSL,Android,6.0,YandexSearch, 7.21,True,550c45e9-558e-40a1-aae8-cfe217cd9e72,6faa93ad8196d38f165287e2da28c59984548d8c
1135,178.64.230.116,Russia,Vologda,59.2239,39.88398,178.64.128.0/17,RU-AVANGARD-DSL,Android,6.0,Chrome Mobile, 63.0.3239,True,11859c88-4f4c-425a-a3a5-85d34cf844f2,6faa93ad8196d38f165287e2da28c59984548d8c
1136,188.170.72.96,Russia,Saint Petersburg,59.93863,30.31413,188.170.64.0/19,MF-NWGSM-188-170-92,Android,6.0,YandexSearch, 7.21,True,550c45e9-558e-40a1-aae8-cfe217cd9e72,6faa93ad8196d38f165287e2da28c59984548d8c
1137,188.170.72.96,Russia,Saint Petersburg,59.93863,30.31413,188.170.64.0/19,MF-NWGSM-188-170-92,Android,6.0,Chrome Mobile, 63.0.3239,True,11859c88-4f4c-425a-a3a5-85d34cf844f2,6faa93ad8196d38f165287e2da28c59984548d8c
1138,188.162.132.222,Russia,Sochi,43.59917,39.72569,188.162.128.0/21,SCARTEL,Android,8.0.0,Samsung Internet, 7.0,True,f8d90ec7-e763-4662-9021-20001a9e09ee,8c42adc02ead49d10b3f5e1761b0fbfafac2083d
1139,188.162.132.226,Russia,Sochi,43.59917,39.72569,188.162.128.0/21,SCARTEL,Android,8.0.0,Samsung Internet, 7.0,True,f8d90ec7-e763-4662-9021-20001a9e09ee,8c42adc02ead49d10b3f5e1761b0fbfafac2083d
1140,213.87.130.241,Russia,Moscow,55.75222,37.61556,213.87.128.0/19,MTSGPRS-3,Android,5.1,Chrome Mobile, 44.0.2403,True,c6680b54-a6d2-4534-8141-c6fc062a3a12,ed9b3e652da241191a4d2f52d6c89d84295a49d3
1141,185.79.102.12,Russia,Moscow,55.75222,37.61556,185.79.102.0/24,RU_MAXMNT_NAT_POOL_2,Android,5.1,Chrome Mobile, 44.0.2403,True,c6680b54-a6d2-4534-8141-c6fc062a3a12,ed9b3e652da241191a4d2f52d6c89d84295a49d3
1142,213.87.160.40,Russia,Moscow,55.75222,37.61556,213.87.160.0/22,MTSGPRS-4,Android,5.1,Chrome Mobile, 44.0.2403,True,c6680b54-a6d2-4534-8141-c6fc062a3a12,ed9b3e652da241191a4d2f52d6c89d84295a49d3
1143,213.87.160.88,Russia,Moscow,55.75222,37.61556,213.87.160.0/22,MTSGPRS-4,Android,5.1,Chrome Mobile, 44.0.2403,True,c6680b54-a6d2-4534-8141-c6fc062a3a12,ed9b3e652da241191a4d2f52d6c89d84295a49d3
1144,213.87.160.121,Russia,Moscow,55.75222,37.61556,213.87.160.0/22,MTSGPRS-4,Android,5.1,Chrome Mobile, 44.0.2403,True,c6680b54-a6d2-4534-8141-c6fc062a3a12,ed9b3e652da241191a4d2f52d6c89d84295a49d3
1145,213.87.156.155,Russia,Moscow,55.75222,37.61556,213.87.128.0/19,MTSGPRS-3,Android,5.1,Chrome Mobile, 44.0.2403,True,c6680b54-a6d2-4534-8141-c6fc062a3a12,ed9b3e652da241191a4d2f52d6c89d84295a49d3
1146,213.87.132.85,Russia,Moscow,55.75222,37.61556,213.87.128.0/19,MTSGPRS-3,Android,5.1,Chrome Mobile, 44.0.2403,True,c6680b54-a6d2-4534-8141-c6fc062a3a12,ed9b3e652da241191a4d2f52d6c89d84295a49d3
1147,213.87.149.144,Russia,Moscow,55.75222,37.61556,213.87.128.0/19,MTSGPRS-3,Android,5.1,Chrome Mobile, 44.0.2403,True,c6680b54-a6d2-4534-8141-c6fc062a3a12,ed9b3e652da241191a4d2f52d6c89d84295a49d3
1148,213.87.130.67,Russia,Moscow,55.75222,37.61556,213.87.128.0/19,MTSGPRS-3,Android,5.1,Chrome Mobile, 44.0.2403,True,c6680b54-a6d2-4534-8141-c6fc062a3a12,ed9b3e652da241191a4d2f52d6c89d84295a49d3
1149,213.87.136.118,Russia,Moscow,55.75222,37.61556,213.87.128.0/19,MTSGPRS-3,Android,5.1,Chrome Mobile, 44.0.2403,True,c6680b54-a6d2-4534-8141-c6fc062a3a12,ed9b3e652da241191a4d2f52d6c89d84295a49d3
1150,213.87.145.91,Russia,Moscow,55.75222,37.61556,213.87.128.0/19,MTSGPRS-3,Android,5.1,Chrome Mobile, 44.0.2403,True,c6680b54-a6d2-4534-8141-c6fc062a3a12,ed9b3e652da241191a4d2f52d6c89d84295a49d3
1151,213.87.149.70,Russia,Moscow,55.75222,37.61556,213.87.128.0/19,MTSGPRS-3,Android,5.1,Chrome Mobile, 44.0.2403,True,c6680b54-a6d2-4534-8141-c6fc062a3a12,ed9b3e652da241191a4d2f52d6c89d84295a49d3
1152,213.87.150.8,Russia,Moscow,55.75222,37.61556,213.87.128.0/19,MTSGPRS-3,Android,5.1,Chrome Mobile, 44.0.2403,True,c6680b54-a6d2-4534-8141-c6fc062a3a12,ed9b3e652da241191a4d2f52d6c89d84295a49d3
1153,213.87.129.87,Russia,Moscow,55.75222,37.61556,213.87.128.0/19,MTSGPRS-3,Android,5.1,Chrome Mobile, 44.0.2403,True,c6680b54-a6d2-4534-8141-c6fc062a3a12,ed9b3e652da241191a4d2f52d6c89d84295a49d3
1154,95.131.147.12,Russia,Moscow,55.75222,37.61556,95.131.146.0/23,LEALTA-BB,Android,5.1,Chrome Mobile, 44.0.2403,True,c6680b54-a6d2-4534-8141-c6fc062a3a12,ed9b3e652da241191a4d2f52d6c89d84295a49d3
1155,95.131.147.11,Russia,Moscow,55.75222,37.61556,95.131.146.0/23,LEALTA-BB,Android,5.1,Chrome Mobile, 44.0.2403,True,c6680b54-a6d2-4534-8141-c6fc062a3a12,ed9b3e652da241191a4d2f52d6c89d84295a49d3
1156,95.131.147.8,Russia,Moscow,55.75222,37.61556,95.131.146.0/23,LEALTA-BB,Android,5.1,Chrome Mobile, 44.0.2403,True,c6680b54-a6d2-4534-8141-c6fc062a3a12,ed9b3e652da241191a4d2f52d6c89d84295a49d3
1157,95.131.147.1,Russia,Moscow,55.75222,37.61556,95.131.146.0/23,LEALTA-BB,Android,5.1,Chrome Mobile, 44.0.2403,True,c6680b54-a6d2-4534-8141-c6fc062a3a12,ed9b3e652da241191a4d2f52d6c89d84295a49d3
1158,95.131.147.7,Russia,Moscow,55.75222,37.61556,95.131.146.0/23,LEALTA-BB,Android,5.1,Chrome Mobile, 44.0.2403,True,c6680b54-a6d2-4534-8141-c6fc062a3a12,ed9b3e652da241191a4d2f52d6c89d84295a49d3
1159,95.131.147.3,Russia,Moscow,55.75222,37.61556,95.131.146.0/23,LEALTA-BB,Android,5.1,Chrome Mobile, 44.0.2403,True,c6680b54-a6d2-4534-8141-c6fc062a3a12,ed9b3e652da241191a4d2f52d6c89d84295a49d3
1160,195.175.107.222,Turkey,Antalya,36.90812,30.69556,195.174.0.0/15,TR-TELEKOM-960902,Android,5.1,Chrome Mobile, 44.0.2403,True,c6680b54-a6d2-4534-8141-c6fc062a3a12,ed9b3e652da241191a4d2f52d6c89d84295a49d3
1161,213.87.157.5,Russia,Moscow,55.75222,37.61556,213.87.128.0/19,MTSGPRS-3,Android,5.1,Chrome Mobile, 44.0.2403,True,c6680b54-a6d2-4534-8141-c6fc062a3a12,ed9b3e652da241191a4d2f52d6c89d84295a49d3
1162,213.87.158.44,Russia,Moscow,55.75222,37.61556,213.87.128.0/19,MTSGPRS-3,Android,5.1,Chrome Mobile, 44.0.2403,True,c6680b54-a6d2-4534-8141-c6fc062a3a12,ed9b3e652da241191a4d2f52d6c89d84295a49d3
1163,213.87.147.91,Russia,Moscow,55.75222,37.61556,213.87.128.0/19,MTSGPRS-3,Android,5.1,Chrome Mobile, 44.0.2403,True,c6680b54-a6d2-4534-8141-c6fc062a3a12,ed9b3e652da241191a4d2f52d6c89d84295a49d3
1164,213.87.135.43,Russia,Moscow,55.75222,37.61556,213.87.128.0/19,MTSGPRS-3,Android,5.1,Chrome Mobile, 44.0.2403,True,c6680b54-a6d2-4534-8141-c6fc062a3a12,ed9b3e652da241191a4d2f52d6c89d84295a49d3
1165,213.87.128.26,Russia,Moscow,55.75222,37.61556,213.87.128.0/19,MTSGPRS-3,Android,5.1,Chrome Mobile, 44.0.2403,True,c6680b54-a6d2-4534-8141-c6fc062a3a12,ed9b3e652da241191a4d2f52d6c89d84295a49d3
1166,213.87.152.89,Russia,Moscow,55.75222,37.61556,213.87.128.0/19,MTSGPRS-3,Android,5.1,Chrome Mobile, 44.0.2403,True,c6680b54-a6d2-4534-8141-c6fc062a3a12,ed9b3e652da241191a4d2f52d6c89d84295a49d3
1167,95.131.147.16,Russia,Moscow,55.75222,37.61556,95.131.146.0/23,LEALTA-BB,Android,5.1,Chrome Mobile, 44.0.2403,True,c6680b54-a6d2-4534-8141-c6fc062a3a12,ed9b3e652da241191a4d2f52d6c89d84295a49d3
1168,213.87.162.155,Russia,Moscow,55.75222,37.61556,213.87.160.0/22,MTSGPRS-4,Android,5.1,Chrome Mobile, 44.0.2403,True,c6680b54-a6d2-4534-8141-c6fc062a3a12,ed9b3e652da241191a4d2f52d6c89d84295a49d3
1169,213.87.139.148,Russia,Moscow,55.75222,37.61556,213.87.128.0/19,MTSGPRS-3,Android,5.1,Chrome Mobile, 44.0.2403,True,c6680b54-a6d2-4534-8141-c6fc062a3a12,ed9b3e652da241191a4d2f52d6c89d84295a49d3
1170,213.87.148.141,Russia,Moscow,55.75222,37.61556,213.87.128.0/19,MTSGPRS-3,Android,5.1,Chrome Mobile, 44.0.2403,True,c6680b54-a6d2-4534-8141-c6fc062a3a12,ed9b3e652da241191a4d2f52d6c89d84295a49d3
1171,213.87.139.191,Russia,Moscow,55.75222,37.61556,213.87.128.0/19,MTSGPRS-3,Android,5.1,Chrome Mobile, 44.0.2403,True,c6680b54-a6d2-4534-8141-c6fc062a3a12,ed9b3e652da241191a4d2f52d6c89d84295a49d3
1172,95.131.147.17,Russia,Moscow,55.75222,37.61556,95.131.146.0/23,LEALTA-BB,Android,5.1,Chrome Mobile, 44.0.2403,True,c6680b54-a6d2-4534-8141-c6fc062a3a12,ed9b3e652da241191a4d2f52d6c89d84295a49d3
1173,213.87.148.16,Russia,Moscow,55.75222,37.61556,213.87.128.0/19,MTSGPRS-3,Android,5.1,Chrome Mobile, 44.0.2403,True,c6680b54-a6d2-4534-8141-c6fc062a3a12,ed9b3e652da241191a4d2f52d6c89d84295a49d3
1174,213.87.146.208,Russia,Moscow,55.75222,37.61556,213.87.128.0/19,MTSGPRS-3,Android,5.1,Chrome Mobile, 44.0.2403,True,c6680b54-a6d2-4534-8141-c6fc062a3a12,ed9b3e652da241191a4d2f52d6c89d84295a49d3
1175,95.131.147.10,Russia,Moscow,55.75222,37.61556,95.131.146.0/23,LEALTA-BB,Android,5.1,Chrome Mobile, 44.0.2403,True,c6680b54-a6d2-4534-8141-c6fc062a3a12,ed9b3e652da241191a4d2f52d6c89d84295a49d3
1176,213.87.146.143,Russia,Moscow,55.75222,37.61556,213.87.128.0/19,MTSGPRS-3,Android,5.1,Chrome Mobile, 44.0.2403,True,c6680b54-a6d2-4534-8141-c6fc062a3a12,ed9b3e652da241191a4d2f52d6c89d84295a49d3
1177,213.87.147.248,Russia,Moscow,55.75222,37.61556,213.87.128.0/19,MTSGPRS-3,Android,5.1,Chrome Mobile, 44.0.2403,True,c6680b54-a6d2-4534-8141-c6fc062a3a12,ed9b3e652da241191a4d2f52d6c89d84295a49d3
1178,213.87.157.48,Russia,Moscow,55.75222,37.61556,213.87.128.0/19,MTSGPRS-3,Android,5.1,Chrome Mobile, 44.0.2403,True,c6680b54-a6d2-4534-8141-c6fc062a3a12,ed9b3e652da241191a4d2f52d6c89d84295a49d3
1179,213.87.145.158,Russia,Moscow,55.75222,37.61556,213.87.128.0/19,MTSGPRS-3,Android,5.1,Chrome Mobile, 44.0.2403,True,c6680b54-a6d2-4534-8141-c6fc062a3a12,ed9b3e652da241191a4d2f52d6c89d84295a49d3
1180,185.79.102.119,Russia,Moscow,55.75222,37.61556,185.79.102.0/24,RU_MAXMNT_NAT_POOL_2,Android,5.1,Chrome Mobile, 44.0.2403,True,c6680b54-a6d2-4534-8141-c6fc062a3a12,ed9b3e652da241191a4d2f52d6c89d84295a49d3
1181,185.79.102.27,Russia,Moscow,55.75222,37.61556,185.79.102.0/24,RU_MAXMNT_NAT_POOL_2,Android,5.1,Chrome Mobile, 44.0.2403,True,c6680b54-a6d2-4534-8141-c6fc062a3a12,ed9b3e652da241191a4d2f52d6c89d84295a49d3
1182,213.87.139.85,Russia,Moscow,55.75222,37.61556,213.87.128.0/19,MTSGPRS-3,Android,5.1,Chrome Mobile, 44.0.2403,True,c6680b54-a6d2-4534-8141-c6fc062a3a12,ed9b3e652da241191a4d2f52d6c89d84295a49d3
1183,213.87.158.152,Russia,Moscow,55.75222,37.61556,213.87.128.0/19,MTSGPRS-3,Android,5.1,Chrome Mobile, 44.0.2403,True,c6680b54-a6d2-4534-8141-c6fc062a3a12,ed9b3e652da241191a4d2f52d6c89d84295a49d3
1184,95.131.147.15,Russia,Moscow,55.75222,37.61556,95.131.146.0/23,LEALTA-BB,Android,5.1,Chrome Mobile, 44.0.2403,True,c6680b54-a6d2-4534-8141-c6fc062a3a12,ed9b3e652da241191a4d2f52d6c89d84295a49d3
1185,213.87.152.250,Russia,Moscow,55.75222,37.61556,213.87.128.0/19,MTSGPRS-3,Android,5.1,Chrome Mobile, 44.0.2403,True,c6680b54-a6d2-4534-8141-c6fc062a3a12,ed9b3e652da241191a4d2f52d6c89d84295a49d3
1186,185.79.102.6,Russia,Moscow,55.75222,37.61556,185.79.102.0/24,RU_MAXMNT_NAT_POOL_2,Android,5.1,Chrome Mobile, 44.0.2403,True,c6680b54-a6d2-4534-8141-c6fc062a3a12,ed9b3e652da241191a4d2f52d6c89d84295a49d3
1187,213.87.162.156,Russia,Moscow,55.75222,37.61556,213.87.160.0/22,MTSGPRS-4,Android,5.1,Chrome Mobile, 44.0.2403,True,c6680b54-a6d2-4534-8141-c6fc062a3a12,ed9b3e652da241191a4d2f52d6c89d84295a49d3
1188,95.131.147.4,Russia,Moscow,55.75222,37.61556,95.131.146.0/23,LEALTA-BB,Android,5.1,Chrome Mobile, 44.0.2403,True,c6680b54-a6d2-4534-8141-c6fc062a3a12,ed9b3e652da241191a4d2f52d6c89d84295a49d3
1191,213.87.129.151,Russia,Moscow,55.75222,37.61556,213.87.128.0/19,MTSGPRS-3,Android,5.1,Chrome Mobile, 44.0.2403,True,c6680b54-a6d2-4534-8141-c6fc062a3a12,ed9b3e652da241191a4d2f52d6c89d84295a49d3
1192,213.87.157.152,Russia,Moscow,55.75222,37.61556,213.87.128.0/19,MTSGPRS-3,Android,5.1,Chrome Mobile, 44.0.2403,True,c6680b54-a6d2-4534-8141-c6fc062a3a12,ed9b3e652da241191a4d2f52d6c89d84295a49d3
1193,213.87.128.146,Russia,Moscow,55.75222,37.61556,213.87.128.0/19,MTSGPRS-3,Android,5.1,Chrome Mobile, 44.0.2403,True,c6680b54-a6d2-4534-8141-c6fc062a3a12,ed9b3e652da241191a4d2f52d6c89d84295a49d3
1194,213.87.150.64,Russia,Moscow,55.75222,37.61556,213.87.128.0/19,MTSGPRS-3,Android,5.1,Chrome Mobile, 44.0.2403,True,c6680b54-a6d2-4534-8141-c6fc062a3a12,ed9b3e652da241191a4d2f52d6c89d84295a49d3
1195,185.79.102.127,Russia,Moscow,55.75222,37.61556,185.79.102.0/24,RU_MAXMNT_NAT_POOL_2,Android,5.1,Chrome Mobile, 44.0.2403,True,c6680b54-a6d2-4534-8141-c6fc062a3a12,ed9b3e652da241191a4d2f52d6c89d84295a49d3
1196,213.87.163.209,Russia,Moscow,55.75222,37.61556,213.87.160.0/22,MTSGPRS-4,Android,5.1,Chrome Mobile, 44.0.2403,True,c6680b54-a6d2-4534-8141-c6fc062a3a12,ed9b3e652da241191a4d2f52d6c89d84295a49d3
1197,95.131.147.2,Russia,Moscow,55.75222,37.61556,95.131.146.0/23,LEALTA-BB,Android,5.1,Chrome Mobile, 44.0.2403,True,c6680b54-a6d2-4534-8141-c6fc062a3a12,ed9b3e652da241191a4d2f52d6c89d84295a49d3
1199,213.87.156.251,Russia,Moscow,55.75222,37.61556,213.87.128.0/19,MTSGPRS-3,Android,5.1,Chrome Mobile, 44.0.2403,True,c6680b54-a6d2-4534-8141-c6fc062a3a12,ed9b3e652da241191a4d2f52d6c89d84295a49d3
1200,185.79.102.50,Russia,Moscow,55.75222,37.61556,185.79.102.0/24,RU_MAXMNT_NAT_POOL_2,Android,5.1,Chrome Mobile, 44.0.2403,True,c6680b54-a6d2-4534-8141-c6fc062a3a12,ed9b3e652da241191a4d2f52d6c89d84295a49d3
1201,213.87.129.138,Russia,Moscow,55.75222,37.61556,213.87.128.0/19,MTSGPRS-3,Android,5.1,Chrome Mobile, 44.0.2403,True,c6680b54-a6d2-4534-8141-c6fc062a3a12,ed9b3e652da241191a4d2f52d6c89d84295a49d3
1202,185.79.102.49,Russia,Moscow,55.75222,37.61556,185.79.102.0/24,RU_MAXMNT_NAT_POOL_2,Android,5.1,Chrome Mobile, 44.0.2403,True,c6680b54-a6d2-4534-8141-c6fc062a3a12,ed9b3e652da241191a4d2f52d6c89d84295a49d3
1203,213.87.148.55,Russia,Moscow,55.75222,37.61556,213.87.128.0/19,MTSGPRS-3,Android,5.1,Chrome Mobile, 44.0.2403,True,c6680b54-a6d2-4534-8141-c6fc062a3a12,ed9b3e652da241191a4d2f52d6c89d84295a49d3
1204,213.87.159.219,Russia,Moscow,55.75222,37.61556,213.87.128.0/19,MTSGPRS-3,Android,5.1,Chrome Mobile, 44.0.2403,True,c6680b54-a6d2-4534-8141-c6fc062a3a12,ed9b3e652da241191a4d2f52d6c89d84295a49d3
1205,95.131.147.9,Russia,Moscow,55.75222,37.61556,95.131.146.0/23,LEALTA-BB,Android,5.1,Chrome Mobile, 44.0.2403,True,c6680b54-a6d2-4534-8141-c6fc062a3a12,ed9b3e652da241191a4d2f52d6c89d84295a49d3
1206,213.87.152.174,Russia,Moscow,55.75222,37.61556,213.87.128.0/19,MTSGPRS-3,Android,5.1,Chrome Mobile, 44.0.2403,True,c6680b54-a6d2-4534-8141-c6fc062a3a12,ed9b3e652da241191a4d2f52d6c89d84295a49d3
1207,185.79.102.75,Russia,Moscow,55.75222,37.61556,185.79.102.0/24,RU_MAXMNT_NAT_POOL_2,Android,5.1,Chrome Mobile, 44.0.2403,True,c6680b54-a6d2-4534-8141-c6fc062a3a12,ed9b3e652da241191a4d2f52d6c89d84295a49d3
1208,213.87.157.130,Russia,Moscow,55.75222,37.61556,213.87.128.0/19,MTSGPRS-3,Android,5.1,Chrome Mobile, 44.0.2403,True,c6680b54-a6d2-4534-8141-c6fc062a3a12,ed9b3e652da241191a4d2f52d6c89d84295a49d3
1209,213.87.130.157,Russia,Moscow,55.75222,37.61556,213.87.128.0/19,MTSGPRS-3,Android,5.1,Chrome Mobile, 44.0.2403,True,c6680b54-a6d2-4534-8141-c6fc062a3a12,ed9b3e652da241191a4d2f52d6c89d84295a49d3
1210,185.79.102.38,Russia,Moscow,55.75222,37.61556,185.79.102.0/24,RU_MAXMNT_NAT_POOL_2,Android,5.1,Chrome Mobile, 44.0.2403,True,c6680b54-a6d2-4534-8141-c6fc062a3a12,ed9b3e652da241191a4d2f52d6c89d84295a49d3
1211,213.87.139.166,Russia,Moscow,55.75222,37.61556,213.87.128.0/19,MTSGPRS-3,Android,5.1,Chrome Mobile, 44.0.2403,True,c6680b54-a6d2-4534-8141-c6fc062a3a12,ed9b3e652da241191a4d2f52d6c89d84295a49d3
1212,213.87.131.254,Russia,Moscow,55.75222,37.61556,213.87.128.0/19,MTSGPRS-3,Android,5.1,Chrome Mobile, 44.0.2403,True,c6680b54-a6d2-4534-8141-c6fc062a3a12,ed9b3e652da241191a4d2f52d6c89d84295a49d3
1213,213.87.149.212,Russia,Moscow,55.75222,37.61556,213.87.128.0/19,MTSGPRS-3,Android,5.1,Chrome Mobile, 44.0.2403,True,c6680b54-a6d2-4534-8141-c6fc062a3a12,ed9b3e652da241191a4d2f52d6c89d84295a49d3
1214,185.79.102.170,Russia,Moscow,55.75222,37.61556,185.79.102.0/24,RU_MAXMNT_NAT_POOL_2,Android,5.1,Chrome Mobile, 44.0.2403,True,c6680b54-a6d2-4534-8141-c6fc062a3a12,ed9b3e652da241191a4d2f52d6c89d84295a49d3
1215,95.131.147.5,Russia,Moscow,55.75222,37.61556,95.131.146.0/23,LEALTA-BB,Android,5.1,Chrome Mobile, 44.0.2403,True,c6680b54-a6d2-4534-8141-c6fc062a3a12,ed9b3e652da241191a4d2f52d6c89d84295a49d3
1216,213.87.163.218,Russia,Moscow,55.75222,37.61556,213.87.160.0/22,MTSGPRS-4,Android,5.1,Chrome Mobile, 44.0.2403,True,c6680b54-a6d2-4534-8141-c6fc062a3a12,ed9b3e652da241191a4d2f52d6c89d84295a49d3
1217,213.87.130.255,Russia,Moscow,55.75222,37.61556,213.87.128.0/19,MTSGPRS-3,Android,5.1,Chrome Mobile, 44.0.2403,True,c6680b54-a6d2-4534-8141-c6fc062a3a12,ed9b3e652da241191a4d2f52d6c89d84295a49d3
1218,213.87.163.112,Russia,Moscow,55.75222,37.61556,213.87.160.0/22,MTSGPRS-4,Android,5.1,Chrome Mobile, 44.0.2403,True,c6680b54-a6d2-4534-8141-c6fc062a3a12,ed9b3e652da241191a4d2f52d6c89d84295a49d3
1219,213.87.136.88,Russia,Moscow,55.75222,37.61556,213.87.128.0/19,MTSGPRS-3,Android,5.1,Chrome Mobile, 44.0.2403,True,c6680b54-a6d2-4534-8141-c6fc062a3a12,ed9b3e652da241191a4d2f52d6c89d84295a49d3
1220,213.87.161.125,Russia,Moscow,55.75222,37.61556,213.87.160.0/22,MTSGPRS-4,Android,5.1,Chrome Mobile, 44.0.2403,True,c6680b54-a6d2-4534-8141-c6fc062a3a12,ed9b3e652da241191a4d2f52d6c89d84295a49d3
1221,213.87.162.4,Russia,Moscow,55.75222,37.61556,213.87.160.0/22,MTSGPRS-4,Android,5.1,Chrome Mobile, 44.0.2403,True,c6680b54-a6d2-4534-8141-c6fc062a3a12,ed9b3e652da241191a4d2f52d6c89d84295a49d3
1222,95.131.147.13,Russia,Moscow,55.75222,37.61556,95.131.146.0/23,LEALTA-BB,Android,5.1,Chrome Mobile, 44.0.2403,True,c6680b54-a6d2-4534-8141-c6fc062a3a12,ed9b3e652da241191a4d2f52d6c89d84295a49d3
1223,213.87.161.189,Russia,Moscow,55.75222,37.61556,213.87.160.0/22,MTSGPRS-4,Android,5.1,Chrome Mobile, 44.0.2403,True,c6680b54-a6d2-4534-8141-c6fc062a3a12,ed9b3e652da241191a4d2f52d6c89d84295a49d3
1224,188.254.60.29,Russia,Moscow,55.75222,37.61556,188.254.48.0/20,BROADBAND_INTERNET_ACCESS,Android,5.1,Chrome Mobile, 44.0.2403,True,c6680b54-a6d2-4534-8141-c6fc062a3a12,ed9b3e652da241191a4d2f52d6c89d84295a49d3
1225,213.87.158.47,Russia,Moscow,55.75222,37.61556,213.87.128.0/19,MTSGPRS-3,Android,5.1,Chrome Mobile, 44.0.2403,True,c6680b54-a6d2-4534-8141-c6fc062a3a12,ed9b3e652da241191a4d2f52d6c89d84295a49d3
1226,213.87.162.248,Russia,Moscow,55.75222,37.61556,213.87.160.0/22,MTSGPRS-4,Android,5.1,Chrome Mobile, 44.0.2403,True,c6680b54-a6d2-4534-8141-c6fc062a3a12,ed9b3e652da241191a4d2f52d6c89d84295a49d3
1227,95.131.147.0,Russia,Moscow,55.75222,37.61556,95.131.146.0/23,LEALTA-BB,Android,5.1,Chrome Mobile, 44.0.2403,True,c6680b54-a6d2-4534-8141-c6fc062a3a12,ed9b3e652da241191a4d2f52d6c89d84295a49d3
1228,213.87.133.3,Russia,Moscow,55.75222,37.61556,213.87.128.0/19,MTSGPRS-3,Android,5.1,Chrome Mobile, 44.0.2403,True,c6680b54-a6d2-4534-8141-c6fc062a3a12,ed9b3e652da241191a4d2f52d6c89d84295a49d3
1229,213.87.156.100,Russia,Moscow,55.75222,37.61556,213.87.128.0/19,MTSGPRS-3,Android,5.1,Chrome Mobile, 44.0.2403,True,c6680b54-a6d2-4534-8141-c6fc062a3a12,ed9b3e652da241191a4d2f52d6c89d84295a49d3
1230,213.87.139.6,Russia,Moscow,55.75222,37.61556,213.87.128.0/19,MTSGPRS-3,Android,5.1,Chrome Mobile, 44.0.2403,True,c6680b54-a6d2-4534-8141-c6fc062a3a12,ed9b3e652da241191a4d2f52d6c89d84295a49d3
1231,213.87.150.124,Russia,Moscow,55.75222,37.61556,213.87.128.0/19,MTSGPRS-3,Android,5.1,Chrome Mobile, 44.0.2403,True,c6680b54-a6d2-4534-8141-c6fc062a3a12,ed9b3e652da241191a4d2f52d6c89d84295a49d3
1232,213.87.150.146,Russia,Moscow,55.75222,37.61556,213.87.128.0/19,MTSGPRS-3,Android,5.1,Chrome Mobile, 44.0.2403,True,c6680b54-a6d2-4534-8141-c6fc062a3a12,ed9b3e652da241191a4d2f52d6c89d84295a49d3
1233,213.87.160.122,Russia,Moscow,55.75222,37.61556,213.87.160.0/22,MTSGPRS-4,Android,5.1,Chrome Mobile, 44.0.2403,True,c6680b54-a6d2-4534-8141-c6fc062a3a12,ed9b3e652da241191a4d2f52d6c89d84295a49d3
1234,213.87.131.213,Russia,Moscow,55.75222,37.61556,213.87.128.0/19,MTSGPRS-3,Android,5.1,Chrome Mobile, 44.0.2403,True,c6680b54-a6d2-4534-8141-c6fc062a3a12,ed9b3e652da241191a4d2f52d6c89d84295a49d3
1235,213.87.135.41,Russia,Moscow,55.75222,37.61556,213.87.128.0/19,MTSGPRS-3,Android,5.1,Chrome Mobile, 44.0.2403,True,c6680b54-a6d2-4534-8141-c6fc062a3a12,ed9b3e652da241191a4d2f52d6c89d84295a49d3
1236,213.87.159.24,Russia,Moscow,55.75222,37.61556,213.87.128.0/19,MTSGPRS-3,Android,5.1,Chrome Mobile, 44.0.2403,True,c6680b54-a6d2-4534-8141-c6fc062a3a12,ed9b3e652da241191a4d2f52d6c89d84295a49d3
1237,213.87.134.3,Russia,Moscow,55.75222,37.61556,213.87.128.0/19,MTSGPRS-3,Android,5.1,Chrome Mobile, 44.0.2403,True,c6680b54-a6d2-4534-8141-c6fc062a3a12,ed9b3e652da241191a4d2f52d6c89d84295a49d3
1238,213.87.160.26,Russia,Moscow,55.75222,37.61556,213.87.160.0/22,MTSGPRS-4,Android,5.1,Chrome Mobile, 44.0.2403,True,c6680b54-a6d2-4534-8141-c6fc062a3a12,ed9b3e652da241191a4d2f52d6c89d84295a49d3
1239,185.79.102.130,Russia,Moscow,55.75222,37.61556,185.79.102.0/24,RU_MAXMNT_NAT_POOL_2,Android,5.1,Chrome Mobile, 44.0.2403,True,c6680b54-a6d2-4534-8141-c6fc062a3a12,ed9b3e652da241191a4d2f52d6c89d84295a49d3
1240,185.79.102.60,Russia,Moscow,55.75222,37.61556,185.79.102.0/24,RU_MAXMNT_NAT_POOL_2,Android,5.1,Chrome Mobile, 44.0.2403,True,c6680b54-a6d2-4534-8141-c6fc062a3a12,ed9b3e652da241191a4d2f52d6c89d84295a49d3
1241,213.87.128.169,Russia,Moscow,55.75222,37.61556,213.87.128.0/19,MTSGPRS-3,Android,5.1,Chrome Mobile, 44.0.2403,True,c6680b54-a6d2-4534-8141-c6fc062a3a12,ed9b3e652da241191a4d2f52d6c89d84295a49d3
1242,213.87.129.95,Russia,Moscow,55.75222,37.61556,213.87.128.0/19,MTSGPRS-3,Android,5.1,Chrome Mobile, 44.0.2403,True,c6680b54-a6d2-4534-8141-c6fc062a3a12,ed9b3e652da241191a4d2f52d6c89d84295a49d3
1243,213.87.160.201,Russia,Moscow,55.75222,37.61556,213.87.160.0/22,MTSGPRS-4,Android,5.1,Chrome Mobile, 44.0.2403,True,c6680b54-a6d2-4534-8141-c6fc062a3a12,ed9b3e652da241191a4d2f52d6c89d84295a49d3
1244,213.87.147.73,Russia,Moscow,55.75222,37.61556,213.87.128.0/19,MTSGPRS-3,Android,5.1,Chrome Mobile, 44.0.2403,True,c6680b54-a6d2-4534-8141-c6fc062a3a12,ed9b3e652da241191a4d2f52d6c89d84295a49d3
1245,213.87.137.49,Russia,Moscow,55.75222,37.61556,213.87.128.0/19,MTSGPRS-3,Android,5.1,Chrome Mobile, 44.0.2403,True,c6680b54-a6d2-4534-8141-c6fc062a3a12,ed9b3e652da241191a4d2f52d6c89d84295a49d3
1246,213.87.147.122,Russia,Moscow,55.75222,37.61556,213.87.128.0/19,MTSGPRS-3,Android,5.1,Chrome Mobile, 44.0.2403,True,c6680b54-a6d2-4534-8141-c6fc062a3a12,ed9b3e652da241191a4d2f52d6c89d84295a49d3
1247,95.131.147.6,Russia,Moscow,55.75222,37.61556,95.131.146.0/23,LEALTA-BB,Android,5.1,Chrome Mobile, 44.0.2403,True,c6680b54-a6d2-4534-8141-c6fc062a3a12,ed9b3e652da241191a4d2f52d6c89d84295a49d3
1248,213.87.161.99,Russia,Moscow,55.75222,37.61556,213.87.160.0/22,MTSGPRS-4,Android,5.1,Chrome Mobile, 44.0.2403,True,c6680b54-a6d2-4534-8141-c6fc062a3a12,ed9b3e652da241191a4d2f52d6c89d84295a49d3
1249,213.87.149.118,Russia,Moscow,55.75222,37.61556,213.87.128.0/19,MTSGPRS-3,Android,5.1,Chrome Mobile, 44.0.2403,True,c6680b54-a6d2-4534-8141-c6fc062a3a12,ed9b3e652da241191a4d2f52d6c89d84295a49d3
1250,213.87.156.96,Russia,Moscow,55.75222,37.61556,213.87.128.0/19,MTSGPRS-3,Android,5.1,Chrome Mobile, 44.0.2403,True,c6680b54-a6d2-4534-8141-c6fc062a3a12,ed9b3e652da241191a4d2f52d6c89d84295a49d3
1251,213.87.132.174,Russia,Moscow,55.75222,37.61556,213.87.128.0/19,MTSGPRS-3,Android,5.1,Chrome Mobile, 44.0.2403,True,c6680b54-a6d2-4534-8141-c6fc062a3a12,ed9b3e652da241191a4d2f52d6c89d84295a49d3
1252,213.87.136.199,Russia,Moscow,55.75222,37.61556,213.87.128.0/19,MTSGPRS-3,Android,5.1,Chrome Mobile, 44.0.2403,True,c6680b54-a6d2-4534-8141-c6fc062a3a12,ed9b3e652da241191a4d2f52d6c89d84295a49d3
1253,185.79.102.83,Russia,Moscow,55.75222,37.61556,185.79.102.0/24,RU_MAXMNT_NAT_POOL_2,Android,5.1,Chrome Mobile, 44.0.2403,True,c6680b54-a6d2-4534-8141-c6fc062a3a12,ed9b3e652da241191a4d2f52d6c89d84295a49d3
1254,213.87.135.38,Russia,Moscow,55.75222,37.61556,213.87.128.0/19,MTSGPRS-3,Android,5.1,Chrome Mobile, 44.0.2403,True,c6680b54-a6d2-4534-8141-c6fc062a3a12,ed9b3e652da241191a4d2f52d6c89d84295a49d3
1255,217.118.83.166,Russia,Perm,58.01046,56.25017,217.118.80.0/22,BEEWLAN1,Android,7.1.2,Chrome Mobile, 68.0.3440,True,1813703f-2ad1-4051-910c-ce08b871522b,5071432df9016a009c99246a0c818d40615ef9e6
1256,217.118.83.235,Russia,Perm,58.01046,56.25017,217.118.80.0/22,BEEWLAN1,Android,7.1.2,Chrome Mobile, 68.0.3440,True,1813703f-2ad1-4051-910c-ce08b871522b,5071432df9016a009c99246a0c818d40615ef9e6
1257,217.118.83.209,Russia,Perm,58.01046,56.25017,217.118.80.0/22,BEEWLAN1,Android,7.1.2,Chrome Mobile, 68.0.3440,True,1813703f-2ad1-4051-910c-ce08b871522b,5071432df9016a009c99246a0c818d40615ef9e6
1258,217.118.83.161,Russia,Perm,58.01046,56.25017,217.118.80.0/22,BEEWLAN1,Android,7.1.2,Chrome Mobile, 68.0.3440,True,1813703f-2ad1-4051-910c-ce08b871522b,5071432df9016a009c99246a0c818d40615ef9e6
1259,217.118.83.252,Russia,Perm,58.01046,56.25017,217.118.80.0/22,BEEWLAN1,Android,7.1.2,Chrome Mobile, 68.0.3440,True,1813703f-2ad1-4051-910c-ce08b871522b,5071432df9016a009c99246a0c818d40615ef9e6
1260,217.118.83.179,Russia,Perm,58.01046,56.25017,217.118.80.0/22,BEEWLAN1,Android,7.1.2,Chrome Mobile, 68.0.3440,True,1813703f-2ad1-4051-910c-ce08b871522b,5071432df9016a009c99246a0c818d40615ef9e6
1261,217.118.83.192,Russia,Perm,58.01046,56.25017,217.118.80.0/22,BEEWLAN1,Android,7.1.2,Chrome Mobile, 67.0.3396,True,1813703f-2ad1-4051-910c-ce08b871522b,5071432df9016a009c99246a0c818d40615ef9e6
1262,37.208.120.59,Russia,Magnitogorsk,53.41861,59.04722,37.208.120.0/22,MGN-COMSTAR,Android,7.1.2,Chrome Mobile, 67.0.3396,True,1813703f-2ad1-4051-910c-ce08b871522b,5071432df9016a009c99246a0c818d40615ef9e6
1263,217.118.83.169,Russia,Perm,58.01046,56.25017,217.118.80.0/22,BEEWLAN1,Android,7.1.2,Chrome Mobile, 67.0.3396,True,1813703f-2ad1-4051-910c-ce08b871522b,5071432df9016a009c99246a0c818d40615ef9e6
1264,217.118.83.221,Russia,Perm,58.01046,56.25017,217.118.80.0/22,BEEWLAN1,Android,7.1.2,Chrome Mobile, 67.0.3396,True,1813703f-2ad1-4051-910c-ce08b871522b,5071432df9016a009c99246a0c818d40615ef9e6
1265,217.118.83.140,Russia,Perm,58.01046,56.25017,217.118.80.0/22,BEEWLAN1,Android,7.1.2,Chrome Mobile, 67.0.3396,True,1813703f-2ad1-4051-910c-ce08b871522b,5071432df9016a009c99246a0c818d40615ef9e6
1266,217.118.83.211,Russia,Perm,58.01046,56.25017,217.118.80.0/22,BEEWLAN1,Android,7.1.2,Chrome Mobile, 67.0.3396,True,1813703f-2ad1-4051-910c-ce08b871522b,5071432df9016a009c99246a0c818d40615ef9e6
1267,176.226.214.126,Russia,Kurgan,55.45,65.33333,176.226.192.0/18,INTERSV-NET-37,Android,7.1.2,Chrome Mobile, 67.0.3396,True,1813703f-2ad1-4051-910c-ce08b871522b,5071432df9016a009c99246a0c818d40615ef9e6
1268,217.118.83.183,Russia,Perm,58.01046,56.25017,217.118.80.0/22,BEEWLAN1,Android,7.1.2,Chrome Mobile, 67.0.3396,True,1813703f-2ad1-4051-910c-ce08b871522b,5071432df9016a009c99246a0c818d40615ef9e6
1269,217.118.83.217,Russia,Perm,58.01046,56.25017,217.118.80.0/22,BEEWLAN1,Android,7.1.2,Chrome Mobile, 67.0.3396,True,1813703f-2ad1-4051-910c-ce08b871522b,5071432df9016a009c99246a0c818d40615ef9e6
1270,217.118.83.193,Russia,Perm,58.01046,56.25017,217.118.80.0/22,BEEWLAN1,Android,7.1.2,Chrome Mobile, 67.0.3396,True,1813703f-2ad1-4051-910c-ce08b871522b,5071432df9016a009c99246a0c818d40615ef9e6
1271,217.118.83.229,Russia,Perm,58.01046,56.25017,217.118.80.0/22,BEEWLAN1,Android,7.1.2,Chrome Mobile, 67.0.3396,True,1813703f-2ad1-4051-910c-ce08b871522b,5071432df9016a009c99246a0c818d40615ef9e6
1272,217.118.83.240,Russia,Perm,58.01046,56.25017,217.118.80.0/22,BEEWLAN1,Android,7.1.2,Chrome Mobile, 67.0.3396,True,1813703f-2ad1-4051-910c-ce08b871522b,5071432df9016a009c99246a0c818d40615ef9e6
1273,217.118.83.141,Russia,Perm,58.01046,56.25017,217.118.80.0/22,BEEWLAN1,Android,7.1.2,Chrome Mobile, 67.0.3396,True,1813703f-2ad1-4051-910c-ce08b871522b,5071432df9016a009c99246a0c818d40615ef9e6
1274,31.162.228.190,Russia,Chelyabinsk,55.15402,61.42915,31.162.224.0/19,USI_ADSL_USERS,Android,7.1.2,Chrome Mobile, 67.0.3396,True,1813703f-2ad1-4051-910c-ce08b871522b,5071432df9016a009c99246a0c818d40615ef9e6
1275,188.18.229.43,Russia,Miass,55.045,60.10833,188.18.224.0/20,USI_ADSL_USERS,Android,7.1.2,Chrome Mobile, 67.0.3396,True,1813703f-2ad1-4051-910c-ce08b871522b,5071432df9016a009c99246a0c818d40615ef9e6
1276,94.51.12.190,Russia,Chelyabinsk,55.15402,61.42915,94.51.0.0/19,USI_ADSL_USERS,Android,7.1.2,Chrome Mobile, 67.0.3396,True,1813703f-2ad1-4051-910c-ce08b871522b,5071432df9016a009c99246a0c818d40615ef9e6
1277,217.118.83.186,Russia,Perm,58.01046,56.25017,217.118.80.0/22,BEEWLAN1,Android,7.1.2,Chrome Mobile, 67.0.3396,True,1813703f-2ad1-4051-910c-ce08b871522b,5071432df9016a009c99246a0c818d40615ef9e6
1278,217.118.83.174,Russia,Perm,58.01046,56.25017,217.118.80.0/22,BEEWLAN1,Android,7.1.2,Chrome Mobile, 67.0.3396,True,1813703f-2ad1-4051-910c-ce08b871522b,5071432df9016a009c99246a0c818d40615ef9e6
1279,31.163.21.50,Russia,Yemanzhelinsk,54.75472,61.32083,31.163.0.0/19,USI_ADSL_USERS,Android,7.1.2,Chrome Mobile, 66.0.3359,True,1813703f-2ad1-4051-910c-ce08b871522b,5071432df9016a009c99246a0c818d40615ef9e6
1280,188.19.41.129,Russia,Chelyabinsk,55.15402,61.42915,188.19.32.0/20,USI_ADSL_USERS,Android,7.1.2,Chrome Mobile, 66.0.3359,True,1813703f-2ad1-4051-910c-ce08b871522b,5071432df9016a009c99246a0c818d40615ef9e6
1281,217.118.83.154,Russia,Perm,58.01046,56.25017,217.118.80.0/22,BEEWLAN1,Android,7.1.2,Chrome Mobile, 66.0.3359,True,1813703f-2ad1-4051-910c-ce08b871522b,5071432df9016a009c99246a0c818d40615ef9e6
1282,217.118.83.250,Russia,Perm,58.01046,56.25017,217.118.80.0/22,BEEWLAN1,Android,7.1.2,Chrome Mobile, 66.0.3359,True,1813703f-2ad1-4051-910c-ce08b871522b,5071432df9016a009c99246a0c818d40615ef9e6
1283,5.141.150.204,Russia,Chelyabinsk,55.15402,61.42915,5.141.0.0/16,USI_ADSL_USERS,Android,7.1.2,Chrome Mobile, 66.0.3359,True,1813703f-2ad1-4051-910c-ce08b871522b,5071432df9016a009c99246a0c818d40615ef9e6
1284,94.51.60.76,Russia,Chelyabinsk,55.15402,61.42915,94.51.32.0/19,USI_ADSL_USERS,Android,7.1.2,Chrome Mobile, 66.0.3359,True,1813703f-2ad1-4051-910c-ce08b871522b,5071432df9016a009c99246a0c818d40615ef9e6
1285,92.43.188.58,Russia,Chelyabinsk,55.15402,61.42915,92.43.188.0/23,MKS-CHEL-CUSTOMERS-NET,Android,7.1.2,Chrome Mobile, 66.0.3359,True,1813703f-2ad1-4051-910c-ce08b871522b,5071432df9016a009c99246a0c818d40615ef9e6
1286,217.118.83.151,Russia,Perm,58.01046,56.25017,217.118.80.0/22,BEEWLAN1,Android,7.1.2,Chrome Mobile, 65.0.3325,True,1813703f-2ad1-4051-910c-ce08b871522b,5071432df9016a009c99246a0c818d40615ef9e6
1287,94.51.55.2,Russia,Chelyabinsk,55.15402,61.42915,94.51.32.0/19,USI_ADSL_USERS,Android,7.1.2,Chrome Mobile, 65.0.3325,True,1813703f-2ad1-4051-910c-ce08b871522b,5071432df9016a009c99246a0c818d40615ef9e6
1288,188.19.45.129,Russia,Chelyabinsk,55.15402,61.42915,188.19.32.0/20,USI_ADSL_USERS,Android,7.1.2,Chrome Mobile, 65.0.3325,True,1813703f-2ad1-4051-910c-ce08b871522b,5071432df9016a009c99246a0c818d40615ef9e6
1289,5.77.28.203,Russia,Ulan-Ude,51.82721,107.60627,5.77.24.0/21,RU-BICNET,Android,6.0.1,Chrome Mobile, 68.0.3440,True,621ecc4a-5b45-42b7-9a16-d15baf67a78e,2d3471dcd49bb9964344200ad733b995aecac0aa
1290,5.77.29.13,Russia,Ulan-Ude,51.82721,107.60627,5.77.24.0/21,RU-BICNET,Android,6.0.1,Chrome Mobile, 68.0.3440,True,621ecc4a-5b45-42b7-9a16-d15baf67a78e,2d3471dcd49bb9964344200ad733b995aecac0aa
1291,95.188.138.29,Russia,Ulan-Ude,51.82721,107.60627,95.188.128.0/18,WEBSTREAM,Android,6.0.1,Chrome Mobile, 68.0.3440,True,621ecc4a-5b45-42b7-9a16-d15baf67a78e,2d3471dcd49bb9964344200ad733b995aecac0aa
1292,5.77.28.32,Russia,Ulan-Ude,51.82721,107.60627,5.77.24.0/21,RU-BICNET,Android,6.0.1,Chrome Mobile, 68.0.3440,True,621ecc4a-5b45-42b7-9a16-d15baf67a78e,2d3471dcd49bb9964344200ad733b995aecac0aa
1293,95.188.209.255,Russia,Ulan-Ude,51.82721,107.60627,95.188.208.0/20,WEBSTREAM,Android,6.0.1,Chrome Mobile, 67.0.3396,True,621ecc4a-5b45-42b7-9a16-d15baf67a78e,2d3471dcd49bb9964344200ad733b995aecac0aa
1294,5.77.29.46,Russia,Ulan-Ude,51.82721,107.60627,5.77.24.0/21,RU-BICNET,Android,6.0.1,Chrome Mobile, 67.0.3396,True,621ecc4a-5b45-42b7-9a16-d15baf67a78e,2d3471dcd49bb9964344200ad733b995aecac0aa
1295,5.77.29.43,Russia,Ulan-Ude,51.82721,107.60627,5.77.24.0/21,RU-BICNET,Android,6.0.1,Chrome Mobile, 67.0.3396,True,621ecc4a-5b45-42b7-9a16-d15baf67a78e,2d3471dcd49bb9964344200ad733b995aecac0aa
1296,5.77.28.230,Russia,Ulan-Ude,51.82721,107.60627,5.77.24.0/21,RU-BICNET,Android,6.0.1,Chrome Mobile, 66.0.3359,True,621ecc4a-5b45-42b7-9a16-d15baf67a78e,2d3471dcd49bb9964344200ad733b995aecac0aa
1297,95.188.214.202,Russia,,60.0,100.0,95.188.208.0/20,WEBSTREAM,Android,6.0.1,Chrome Mobile, 66.0.3359,True,621ecc4a-5b45-42b7-9a16-d15baf67a78e,2d3471dcd49bb9964344200ad733b995aecac0aa
1298,5.77.29.71,Russia,Ulan-Ude,51.82721,107.60627,5.77.24.0/21,RU-BICNET,Android,6.0.1,Chrome Mobile, 66.0.3359,True,621ecc4a-5b45-42b7-9a16-d15baf67a78e,2d3471dcd49bb9964344200ad733b995aecac0aa
1299,5.77.28.183,Russia,Ulan-Ude,51.82721,107.60627,5.77.24.0/21,RU-BICNET,Android,6.0.1,Chrome Mobile, 66.0.3359,True,621ecc4a-5b45-42b7-9a16-d15baf67a78e,2d3471dcd49bb9964344200ad733b995aecac0aa
1300,5.77.28.140,Russia,Ulan-Ude,51.82721,107.60627,5.77.24.0/21,RU-BICNET,Android,6.0.1,Chrome Mobile, 66.0.3359,True,621ecc4a-5b45-42b7-9a16-d15baf67a78e,2d3471dcd49bb9964344200ad733b995aecac0aa
1301,5.77.28.164,Russia,Ulan-Ude,51.82721,107.60627,5.77.24.0/21,RU-BICNET,Android,6.0.1,Chrome Mobile, 66.0.3359,True,621ecc4a-5b45-42b7-9a16-d15baf67a78e,2d3471dcd49bb9964344200ad733b995aecac0aa
1302,5.77.29.30,Russia,Ulan-Ude,51.82721,107.60627,5.77.24.0/21,RU-BICNET,Android,6.0.1,Chrome Mobile, 66.0.3359,True,621ecc4a-5b45-42b7-9a16-d15baf67a78e,2d3471dcd49bb9964344200ad733b995aecac0aa
1303,5.77.28.72,Russia,Ulan-Ude,51.82721,107.60627,5.77.24.0/21,RU-BICNET,Android,6.0.1,Chrome Mobile, 66.0.3359,True,621ecc4a-5b45-42b7-9a16-d15baf67a78e,2d3471dcd49bb9964344200ad733b995aecac0aa
1304,37.29.41.150,Russia,Yakutsk,62.03389,129.73306,37.29.41.0/24,MF-DV-37-29-41-0,Android,6.0.1,Chrome Mobile, 66.0.3359,True,621ecc4a-5b45-42b7-9a16-d15baf67a78e,2d3471dcd49bb9964344200ad733b995aecac0aa
1305,5.77.28.170,Russia,Ulan-Ude,51.82721,107.60627,5.77.24.0/21,RU-BICNET,Android,6.0.1,Chrome Mobile, 66.0.3359,True,621ecc4a-5b45-42b7-9a16-d15baf67a78e,2d3471dcd49bb9964344200ad733b995aecac0aa
1306,85.26.241.203,Russia,Khabarovsk,48.48272,135.08379,85.26.240.0/22,MF-DV,Android,6.0.1,Chrome Mobile, 66.0.3359,True,621ecc4a-5b45-42b7-9a16-d15baf67a78e,2d3471dcd49bb9964344200ad733b995aecac0aa
1307,5.77.29.92,Russia,Ulan-Ude,51.82721,107.60627,5.77.24.0/21,RU-BICNET,Android,6.0.1,Chrome Mobile, 66.0.3359,True,621ecc4a-5b45-42b7-9a16-d15baf67a78e,2d3471dcd49bb9964344200ad733b995aecac0aa
1308,5.77.28.33,Russia,Ulan-Ude,51.82721,107.60627,5.77.24.0/21,RU-BICNET,Android,6.0.1,Chrome Mobile, 66.0.3359,True,621ecc4a-5b45-42b7-9a16-d15baf67a78e,2d3471dcd49bb9964344200ad733b995aecac0aa
1309,5.77.29.7,Russia,Ulan-Ude,51.82721,107.60627,5.77.24.0/21,RU-BICNET,Android,6.0.1,Chrome Mobile, 65.0.3325,True,621ecc4a-5b45-42b7-9a16-d15baf67a78e,2d3471dcd49bb9964344200ad733b995aecac0aa
1310,5.77.28.254,Russia,Ulan-Ude,51.82721,107.60627,5.77.24.0/21,RU-BICNET,Android,6.0.1,Chrome Mobile, 65.0.3325,True,621ecc4a-5b45-42b7-9a16-d15baf67a78e,2d3471dcd49bb9964344200ad733b995aecac0aa
1311,5.77.29.51,Russia,Ulan-Ude,51.82721,107.60627,5.77.24.0/21,RU-BICNET,Android,6.0.1,Chrome Mobile, 65.0.3325,True,621ecc4a-5b45-42b7-9a16-d15baf67a78e,2d3471dcd49bb9964344200ad733b995aecac0aa
1312,37.29.40.140,Russia,Yakutsk,62.03389,129.73306,37.29.40.0/24,MF-DV-37-29-40-0,Android,6.0.1,Chrome Mobile, 65.0.3325,True,621ecc4a-5b45-42b7-9a16-d15baf67a78e,2d3471dcd49bb9964344200ad733b995aecac0aa
1313,95.188.215.59,Russia,,60.0,100.0,95.188.208.0/20,WEBSTREAM,Android,6.0.1,Chrome Mobile, 65.0.3325,True,621ecc4a-5b45-42b7-9a16-d15baf67a78e,2d3471dcd49bb9964344200ad733b995aecac0aa
1393,176.59.23.84,Russia,Saint Petersburg,59.93863,30.31413,176.59.0.0/19,TELE2RU-SUBSCRIBER-POOL-NET,Android,7.0,Chrome Mobile, 67.0.3396,True,a5a4890e-fe5a-48df-a98f-8981d6deaf98,5571e3dfdde062a5ff1e375e695a268ee61900b1
1394,176.59.20.65,Russia,Saint Petersburg,59.93863,30.31413,176.59.0.0/19,TELE2RU-SUBSCRIBER-POOL-NET,Android,7.0,Chrome Mobile, 67.0.3396,True,a5a4890e-fe5a-48df-a98f-8981d6deaf98,5571e3dfdde062a5ff1e375e695a268ee61900b1
1395,176.59.2.176,Russia,Saint Petersburg,59.93863,30.31413,176.59.0.0/19,TELE2RU-SUBSCRIBER-POOL-NET,Android,7.0,Chrome Mobile, 67.0.3396,True,a5a4890e-fe5a-48df-a98f-8981d6deaf98,5571e3dfdde062a5ff1e375e695a268ee61900b1
1396,176.59.7.59,Russia,Saint Petersburg,59.93863,30.31413,176.59.0.0/19,TELE2RU-SUBSCRIBER-POOL-NET,Android,7.0,Chrome Mobile, 67.0.3396,True,a5a4890e-fe5a-48df-a98f-8981d6deaf98,5571e3dfdde062a5ff1e375e695a268ee61900b1
1397,95.53.48.115,Russia,Arkhangelsk,64.5401,40.5433,95.53.0.0/18,RU-AVANGARD-DSL,Android,7.0,Chrome Mobile, 66.0.3359,True,a5a4890e-fe5a-48df-a98f-8981d6deaf98,5571e3dfdde062a5ff1e375e695a268ee61900b1
1398,176.59.22.202,Russia,Saint Petersburg,59.93863,30.31413,176.59.0.0/19,TELE2RU-SUBSCRIBER-POOL-NET,Android,7.0,Chrome Mobile, 66.0.3359,True,a5a4890e-fe5a-48df-a98f-8981d6deaf98,5571e3dfdde062a5ff1e375e695a268ee61900b1
1399,195.175.42.214,Turkey,,39.0,35.0,195.174.0.0/15,TR-TELEKOM-960902,Android,7.0,Chrome Mobile, 66.0.3359,True,a5a4890e-fe5a-48df-a98f-8981d6deaf98,5571e3dfdde062a5ff1e375e695a268ee61900b1
1400,178.71.234.125,Russia,Saint Petersburg,59.93863,30.31413,178.71.0.0/16,RU-AVANGARD-DSL,Android,8.0.0,Chrome Mobile, 67.0.3396,True,75884c81-0995-4e3b-a57a-b6b7886aea70,e5e6073e1d434bc49bec0bbbaf93ca0305c48ba6
1401,185.202.212.43,Russia,Saint Petersburg,59.93863,30.31413,185.202.212.0/22,RU-ORG-WCSP1-RIPE-20170510,Android,8.0.0,Chrome Mobile, 67.0.3396,True,75884c81-0995-4e3b-a57a-b6b7886aea70,e5e6073e1d434bc49bec0bbbaf93ca0305c48ba6
1402,185.202.212.43,Russia,Saint Petersburg,59.93863,30.31413,185.202.212.0/22,RU-ORG-WCSP1-RIPE-20170510,Android,8.0.0,Chrome Mobile, 65.0.3325,True,75884c81-0995-4e3b-a57a-b6b7886aea70,e5e6073e1d434bc49bec0bbbaf93ca0305c48ba6
1403,217.66.152.191,Russia,Saint Petersburg,59.93863,30.31413,217.66.152.0/21,SPBMTS,Android,8.0.0,Chrome Mobile, 67.0.3396,True,75884c81-0995-4e3b-a57a-b6b7886aea70,e5e6073e1d434bc49bec0bbbaf93ca0305c48ba6
1404,178.71.78.220,Russia,Saint Petersburg,59.93863,30.31413,178.71.0.0/16,RU-AVANGARD-DSL,Android,8.0.0,Chrome Mobile, 67.0.3396,True,75884c81-0995-4e3b-a57a-b6b7886aea70,e5e6073e1d434bc49bec0bbbaf93ca0305c48ba6
1405,95.55.15.32,Russia,Saint Petersburg,59.93863,30.31413,95.55.0.0/18,RU-AVANGARD-DSL,Android,8.0.0,Chrome Mobile, 67.0.3396,True,75884c81-0995-4e3b-a57a-b6b7886aea70,e5e6073e1d434bc49bec0bbbaf93ca0305c48ba6
1406,178.71.73.7,Russia,Saint Petersburg,59.93863,30.31413,178.71.0.0/16,RU-AVANGARD-DSL,Android,8.0.0,Chrome Mobile, 67.0.3396,True,75884c81-0995-4e3b-a57a-b6b7886aea70,e5e6073e1d434bc49bec0bbbaf93ca0305c48ba6
1407,178.71.228.84,Russia,Saint Petersburg,59.93863,30.31413,178.71.0.0/16,RU-AVANGARD-DSL,Android,8.0.0,Chrome Mobile, 67.0.3396,True,75884c81-0995-4e3b-a57a-b6b7886aea70,e5e6073e1d434bc49bec0bbbaf93ca0305c48ba6
1408,217.66.152.162,Russia,Saint Petersburg,59.93863,30.31413,217.66.152.0/21,SPBMTS,Android,8.0.0,Chrome Mobile, 67.0.3396,True,75884c81-0995-4e3b-a57a-b6b7886aea70,e5e6073e1d434bc49bec0bbbaf93ca0305c48ba6
1409,178.67.253.80,Russia,Saint Petersburg,59.93863,30.31413,178.67.192.0/18,RU-AVANGARD-DSL,Android,8.0.0,Chrome Mobile, 67.0.3396,True,75884c81-0995-4e3b-a57a-b6b7886aea70,e5e6073e1d434bc49bec0bbbaf93ca0305c48ba6
1410,178.71.232.242,Russia,Saint Petersburg,59.93863,30.31413,178.71.0.0/16,RU-AVANGARD-DSL,Android,8.0.0,Chrome Mobile, 67.0.3396,True,75884c81-0995-4e3b-a57a-b6b7886aea70,e5e6073e1d434bc49bec0bbbaf93ca0305c48ba6
1411,95.55.13.68,Russia,Saint Petersburg,59.93863,30.31413,95.55.0.0/18,RU-AVANGARD-DSL,Android,8.0.0,Chrome Mobile, 67.0.3396,True,75884c81-0995-4e3b-a57a-b6b7886aea70,e5e6073e1d434bc49bec0bbbaf93ca0305c48ba6
1412,217.66.158.146,Russia,Saint Petersburg,59.93863,30.31413,217.66.152.0/21,SPBMTS,Android,8.0.0,Chrome Mobile, 66.0.3359,True,75884c81-0995-4e3b-a57a-b6b7886aea70,e5e6073e1d434bc49bec0bbbaf93ca0305c48ba6
1413,78.37.150.142,Russia,Saint Petersburg,59.93863,30.31413,78.37.128.0/18,RU-AVANGARD-DSL,Android,8.0.0,Chrome Mobile, 66.0.3359,True,75884c81-0995-4e3b-a57a-b6b7886aea70,e5e6073e1d434bc49bec0bbbaf93ca0305c48ba6
1414,92.100.242.40,Russia,Saint Petersburg,59.93863,30.31413,92.100.128.0/17,RU-AVANGARD-DSL,Android,8.0.0,Chrome Mobile, 66.0.3359,True,75884c81-0995-4e3b-a57a-b6b7886aea70,e5e6073e1d434bc49bec0bbbaf93ca0305c48ba6
1415,78.37.141.208,Russia,Saint Petersburg,59.93863,30.31413,78.37.128.0/18,RU-AVANGARD-DSL,Android,8.0.0,Chrome Mobile, 66.0.3359,True,75884c81-0995-4e3b-a57a-b6b7886aea70,e5e6073e1d434bc49bec0bbbaf93ca0305c48ba6
1416,178.71.77.47,Russia,Saint Petersburg,59.93863,30.31413,178.71.0.0/16,RU-AVANGARD-DSL,Android,8.0.0,Chrome Mobile, 66.0.3359,True,75884c81-0995-4e3b-a57a-b6b7886aea70,e5e6073e1d434bc49bec0bbbaf93ca0305c48ba6
1417,217.66.154.59,Russia,Saint Petersburg,59.93863,30.31413,217.66.152.0/21,SPBMTS,Android,8.0.0,Chrome Mobile, 65.0.3325,True,75884c81-0995-4e3b-a57a-b6b7886aea70,e5e6073e1d434bc49bec0bbbaf93ca0305c48ba6
1418,95.153.130.80,Russia,Krasnodar,45.04484,38.97603,95.153.128.0/20,RU-KUBGSM-20030923,Android,6.0.1,Chrome Mobile, 66.0.3359,True,aed4708b-6a61-4b77-8011-93b01f6702e8,42d7eb866e39ee159a03b34a59d9758663f33c12
1419,95.153.130.80,Russia,Krasnodar,45.04484,38.97603,95.153.128.0/20,RU-KUBGSM-20030923,Android,6.0.1,Chrome Mobile, 66.0.3359,True,341ac6ce-78f0-40c6-8670-280cccca9f13,42d7eb866e39ee159a03b34a59d9758663f33c12
1420,95.153.129.115,Russia,Krasnodar,45.04484,38.97603,95.153.128.0/20,RU-KUBGSM-20030923,Android,6.0.1,Chrome Mobile, 66.0.3359,True,341ac6ce-78f0-40c6-8670-280cccca9f13,42d7eb866e39ee159a03b34a59d9758663f33c12
1421,95.153.133.133,Russia,Krasnodar,45.04484,38.97603,95.153.128.0/20,RU-KUBGSM-20030923,Android,6.0.1,Chrome Mobile, 66.0.3359,True,341ac6ce-78f0-40c6-8670-280cccca9f13,42d7eb866e39ee159a03b34a59d9758663f33c12
1422,95.153.135.198,Russia,Krasnodar,45.04484,38.97603,95.153.128.0/20,RU-KUBGSM-20030923,Android,6.0.1,Chrome Mobile, 66.0.3359,True,341ac6ce-78f0-40c6-8670-280cccca9f13,42d7eb866e39ee159a03b34a59d9758663f33c12
1423,95.153.133.164,Russia,Krasnodar,45.04484,38.97603,95.153.128.0/20,RU-KUBGSM-20030923,Android,6.0.1,Chrome Mobile, 66.0.3359,True,341ac6ce-78f0-40c6-8670-280cccca9f13,42d7eb866e39ee159a03b34a59d9758663f33c12
1424,95.153.135.103,Russia,Krasnodar,45.04484,38.97603,95.153.128.0/20,RU-KUBGSM-20030923,Android,6.0.1,Chrome Mobile, 66.0.3359,True,341ac6ce-78f0-40c6-8670-280cccca9f13,42d7eb866e39ee159a03b34a59d9758663f33c12
1425,95.153.135.42,Russia,Krasnodar,45.04484,38.97603,95.153.128.0/20,RU-KUBGSM-20030923,Android,6.0.1,Chrome Mobile, 66.0.3359,True,341ac6ce-78f0-40c6-8670-280cccca9f13,42d7eb866e39ee159a03b34a59d9758663f33c12
1426,188.162.145.208,Russia,Sochi,43.59917,39.72569,188.162.144.0/20,SCARTEL,Android,6.0.1,Chrome Mobile, 66.0.3359,True,aed4708b-6a61-4b77-8011-93b01f6702e8,42d7eb866e39ee159a03b34a59d9758663f33c12
1427,188.162.145.208,Russia,Sochi,43.59917,39.72569,188.162.144.0/20,SCARTEL,Android,6.0.1,Chrome Mobile, 66.0.3359,True,341ac6ce-78f0-40c6-8670-280cccca9f13,42d7eb866e39ee159a03b34a59d9758663f33c12
1428,188.162.145.160,Russia,Sochi,43.59917,39.72569,188.162.144.0/20,SCARTEL,Android,6.0.1,Chrome Mobile, 66.0.3359,True,341ac6ce-78f0-40c6-8670-280cccca9f13,42d7eb866e39ee159a03b34a59d9758663f33c12
1429,95.153.132.18,Russia,Krasnodar,45.04484,38.97603,95.153.128.0/20,RU-KUBGSM-20030923,Android,6.0.1,Chrome Mobile, 66.0.3359,True,341ac6ce-78f0-40c6-8670-280cccca9f13,42d7eb866e39ee159a03b34a59d9758663f33c12
1430,95.153.131.127,Russia,Rostov-on-Don,47.23135,39.72328,95.153.128.0/20,RU-KUBGSM-20030923,Android,6.0.1,Chrome Mobile, 66.0.3359,True,341ac6ce-78f0-40c6-8670-280cccca9f13,42d7eb866e39ee159a03b34a59d9758663f33c12
1431,95.153.133.237,Russia,Krasnodar,45.04484,38.97603,95.153.128.0/20,RU-KUBGSM-20030923,Android,6.0.1,Chrome Mobile, 66.0.3359,True,341ac6ce-78f0-40c6-8670-280cccca9f13,42d7eb866e39ee159a03b34a59d9758663f33c12
1432,95.153.133.85,Russia,Krasnodar,45.04484,38.97603,95.153.128.0/20,RU-KUBGSM-20030923,Android,6.0.1,Chrome Mobile, 66.0.3359,True,341ac6ce-78f0-40c6-8670-280cccca9f13,42d7eb866e39ee159a03b34a59d9758663f33c12
1433,95.153.131.101,Russia,Rostov-on-Don,47.23135,39.72328,95.153.128.0/20,RU-KUBGSM-20030923,Android,6.0.1,Chrome Mobile, 66.0.3359,True,341ac6ce-78f0-40c6-8670-280cccca9f13,42d7eb866e39ee159a03b34a59d9758663f33c12
1434,95.153.128.136,Russia,Krasnodar,45.04484,38.97603,95.153.128.0/20,RU-KUBGSM-20030923,Android,6.0.1,Chrome Mobile, 66.0.3359,True,341ac6ce-78f0-40c6-8670-280cccca9f13,42d7eb866e39ee159a03b34a59d9758663f33c12
1435,95.153.134.47,Russia,Krasnodar,45.04484,38.97603,95.153.128.0/20,RU-KUBGSM-20030923,Android,6.0.1,Chrome Mobile, 66.0.3359,True,341ac6ce-78f0-40c6-8670-280cccca9f13,42d7eb866e39ee159a03b34a59d9758663f33c12
1436,188.162.132.52,Russia,Sochi,43.59917,39.72569,188.162.128.0/21,SCARTEL,Android,6.0.1,Chrome Mobile, 66.0.3359,True,341ac6ce-78f0-40c6-8670-280cccca9f13,42d7eb866e39ee159a03b34a59d9758663f33c12
1437,188.162.132.66,Russia,Sochi,43.59917,39.72569,188.162.128.0/21,SCARTEL,Android,6.0.1,Chrome Mobile, 66.0.3359,True,341ac6ce-78f0-40c6-8670-280cccca9f13,42d7eb866e39ee159a03b34a59d9758663f33c12
1438,188.162.132.16,Russia,Sochi,43.59917,39.72569,188.162.128.0/21,SCARTEL,Android,8.0.0,Chrome Mobile, 65.0.3325,True,854a1d51-ca04-46b0-ad13-b3c6f4562906,42d7eb866e39ee159a03b34a59d9758663f33c12
1439,188.162.132.13,Russia,Sochi,43.59917,39.72569,188.162.128.0/21,SCARTEL,Android,8.0.0,Chrome Mobile, 65.0.3325,True,854a1d51-ca04-46b0-ad13-b3c6f4562906,42d7eb866e39ee159a03b34a59d9758663f33c12
1440,188.162.132.15,Russia,Sochi,43.59917,39.72569,188.162.128.0/21,SCARTEL,Android,8.0.0,Chrome Mobile, 65.0.3325,True,854a1d51-ca04-46b0-ad13-b3c6f4562906,42d7eb866e39ee159a03b34a59d9758663f33c12
1441,188.162.132.8,Russia,Sochi,43.59917,39.72569,188.162.128.0/21,SCARTEL,Android,8.0.0,Chrome Mobile, 65.0.3325,True,854a1d51-ca04-46b0-ad13-b3c6f4562906,42d7eb866e39ee159a03b34a59d9758663f33c12
1442,188.162.132.18,Russia,Sochi,43.59917,39.72569,188.162.128.0/21,SCARTEL,Android,8.0.0,Chrome Mobile, 65.0.3325,True,854a1d51-ca04-46b0-ad13-b3c6f4562906,42d7eb866e39ee159a03b34a59d9758663f33c12
1443,188.162.132.6,Russia,Sochi,43.59917,39.72569,188.162.128.0/21,SCARTEL,Android,8.0.0,Chrome Mobile, 65.0.3325,True,854a1d51-ca04-46b0-ad13-b3c6f4562906,42d7eb866e39ee159a03b34a59d9758663f33c12
1444,188.162.132.5,Russia,Sochi,43.59917,39.72569,188.162.128.0/21,SCARTEL,Android,8.0.0,Chrome Mobile, 65.0.3325,True,854a1d51-ca04-46b0-ad13-b3c6f4562906,42d7eb866e39ee159a03b34a59d9758663f33c12
1445,188.162.132.21,Russia,Sochi,43.59917,39.72569,188.162.128.0/21,SCARTEL,Android,8.0.0,Chrome Mobile, 65.0.3325,True,854a1d51-ca04-46b0-ad13-b3c6f4562906,42d7eb866e39ee159a03b34a59d9758663f33c12
1446,188.162.132.3,Russia,Sochi,43.59917,39.72569,188.162.128.0/21,SCARTEL,Android,8.0.0,Chrome Mobile, 65.0.3325,True,854a1d51-ca04-46b0-ad13-b3c6f4562906,42d7eb866e39ee159a03b34a59d9758663f33c12
1447,188.162.132.3,Russia,Sochi,43.59917,39.72569,188.162.128.0/21,SCARTEL,Android,8.0.0,Chrome Mobile, 65.0.3325,True,62f457ff-d549-46a2-a8c8-e3c7f380ed66,42d7eb866e39ee159a03b34a59d9758663f33c12
1448,188.162.132.7,Russia,Sochi,43.59917,39.72569,188.162.128.0/21,SCARTEL,Android,8.0.0,Chrome Mobile, 65.0.3325,True,854a1d51-ca04-46b0-ad13-b3c6f4562906,42d7eb866e39ee159a03b34a59d9758663f33c12
1449,188.162.132.11,Russia,Sochi,43.59917,39.72569,188.162.128.0/21,SCARTEL,Android,8.0.0,Chrome Mobile, 65.0.3325,True,854a1d51-ca04-46b0-ad13-b3c6f4562906,42d7eb866e39ee159a03b34a59d9758663f33c12
1450,188.162.132.20,Russia,Sochi,43.59917,39.72569,188.162.128.0/21,SCARTEL,Android,8.0.0,Chrome Mobile, 65.0.3325,True,854a1d51-ca04-46b0-ad13-b3c6f4562906,42d7eb866e39ee159a03b34a59d9758663f33c12
1451,188.162.132.0,Russia,Sochi,43.59917,39.72569,188.162.128.0/21,SCARTEL,Android,8.0.0,Chrome Mobile, 65.0.3325,True,854a1d51-ca04-46b0-ad13-b3c6f4562906,42d7eb866e39ee159a03b34a59d9758663f33c12
1452,188.162.132.10,Russia,Sochi,43.59917,39.72569,188.162.128.0/21,SCARTEL,Android,8.0.0,Chrome Mobile, 65.0.3325,True,854a1d51-ca04-46b0-ad13-b3c6f4562906,42d7eb866e39ee159a03b34a59d9758663f33c12
1453,188.162.132.1,Russia,Sochi,43.59917,39.72569,188.162.128.0/21,SCARTEL,Android,8.0.0,Chrome Mobile, 65.0.3325,True,854a1d51-ca04-46b0-ad13-b3c6f4562906,42d7eb866e39ee159a03b34a59d9758663f33c12
1454,188.162.132.2,Russia,Sochi,43.59917,39.72569,188.162.128.0/21,SCARTEL,Android,8.0.0,Chrome Mobile, 65.0.3325,True,854a1d51-ca04-46b0-ad13-b3c6f4562906,42d7eb866e39ee159a03b34a59d9758663f33c12
1455,188.162.132.9,Russia,Sochi,43.59917,39.72569,188.162.128.0/21,SCARTEL,Android,8.0.0,Chrome Mobile, 65.0.3325,True,854a1d51-ca04-46b0-ad13-b3c6f4562906,42d7eb866e39ee159a03b34a59d9758663f33c12
1456,188.162.132.4,Russia,Sochi,43.59917,39.72569,188.162.128.0/21,SCARTEL,Android,8.0.0,Chrome Mobile, 65.0.3325,True,854a1d51-ca04-46b0-ad13-b3c6f4562906,42d7eb866e39ee159a03b34a59d9758663f33c12
1457,188.162.132.17,Russia,Sochi,43.59917,39.72569,188.162.128.0/21,SCARTEL,Android,8.0.0,Chrome Mobile, 65.0.3325,True,854a1d51-ca04-46b0-ad13-b3c6f4562906,42d7eb866e39ee159a03b34a59d9758663f33c12
1458,188.162.132.19,Russia,Sochi,43.59917,39.72569,188.162.128.0/21,SCARTEL,Android,8.0.0,Chrome Mobile, 65.0.3325,True,854a1d51-ca04-46b0-ad13-b3c6f4562906,42d7eb866e39ee159a03b34a59d9758663f33c12
1459,188.162.132.88,Russia,Sochi,43.59917,39.72569,188.162.128.0/21,SCARTEL,Android,8.0.0,Chrome Mobile, 65.0.3325,True,62f457ff-d549-46a2-a8c8-e3c7f380ed66,42d7eb866e39ee159a03b34a59d9758663f33c12
1460,188.162.132.61,Russia,Sochi,43.59917,39.72569,188.162.128.0/21,SCARTEL,Android,8.0.0,Chrome Mobile, 65.0.3325,True,62f457ff-d549-46a2-a8c8-e3c7f380ed66,42d7eb866e39ee159a03b34a59d9758663f33c12
1461,188.162.132.43,Russia,Sochi,43.59917,39.72569,188.162.128.0/21,SCARTEL,Android,8.0.0,Chrome Mobile, 65.0.3325,True,62f457ff-d549-46a2-a8c8-e3c7f380ed66,42d7eb866e39ee159a03b34a59d9758663f33c12
1462,178.64.137.43,Russia,Cherepovets,59.13333,37.9,178.64.128.0/17,RU-AVANGARD-DSL,Android,6.0,Chrome Mobile, 63.0.3239,True,11859c88-4f4c-425a-a3a5-85d34cf844f2,6faa93ad8196d38f165287e2da28c59984548d8c
1463,188.170.72.131,Russia,Saint Petersburg,59.93863,30.31413,188.170.64.0/19,MF-NWGSM-188-170-92,Android,6.0,Chrome Mobile, 63.0.3239,True,11859c88-4f4c-425a-a3a5-85d34cf844f2,6faa93ad8196d38f165287e2da28c59984548d8c
1464,188.170.80.118,Russia,Saint Petersburg,59.93863,30.31413,188.170.80.0/20,MF-NW-188-170-80,Android,6.0,Chrome Mobile, 63.0.3239,True,11859c88-4f4c-425a-a3a5-85d34cf844f2,6faa93ad8196d38f165287e2da28c59984548d8c
1465,95.53.217.80,Russia,Vologda,59.2239,39.88398,95.53.192.0/19,RU-AVANGARD-DSL,Android,6.0,Chrome Mobile, 63.0.3239,True,11859c88-4f4c-425a-a3a5-85d34cf844f2,6faa93ad8196d38f165287e2da28c59984548d8c
1466,77.106.33.73,Russia,Vologda,59.2239,39.88398,77.106.32.0/20,RU-AVANGARD-DSL,Android,6.0,Chrome Mobile, 63.0.3239,True,11859c88-4f4c-425a-a3a5-85d34cf844f2,6faa93ad8196d38f165287e2da28c59984548d8c
1467,188.170.73.135,Russia,Saint Petersburg,59.93863,30.31413,188.170.64.0/19,MF-NWGSM-188-170-92,Android,6.0,Chrome Mobile, 63.0.3239,True,11859c88-4f4c-425a-a3a5-85d34cf844f2,6faa93ad8196d38f165287e2da28c59984548d8c
1468,188.170.74.234,Russia,Saint Petersburg,59.93863,30.31413,188.170.64.0/19,MF-NWGSM-188-170-92,Android,6.0,Chrome Mobile, 63.0.3239,True,11859c88-4f4c-425a-a3a5-85d34cf844f2,6faa93ad8196d38f165287e2da28c59984548d8c
1469,188.170.83.237,Russia,Saint Petersburg,59.93863,30.31413,188.170.80.0/20,MF-NW-188-170-80,Android,6.0,Chrome Mobile, 63.0.3239,True,11859c88-4f4c-425a-a3a5-85d34cf844f2,6faa93ad8196d38f165287e2da28c59984548d8c
1470,178.69.123.202,Russia,Cherepovets,59.13333,37.9,178.69.96.0/19,RU-AVANGARD-DSL,Android,6.0,Chrome Mobile, 63.0.3239,True,11859c88-4f4c-425a-a3a5-85d34cf844f2,6faa93ad8196d38f165287e2da28c59984548d8c
1471,178.64.136.168,Russia,Cherepovets,59.13333,37.9,178.64.128.0/17,RU-AVANGARD-DSL,Android,6.0,Chrome Mobile, 63.0.3239,True,11859c88-4f4c-425a-a3a5-85d34cf844f2,6faa93ad8196d38f165287e2da28c59984548d8c
1472,188.170.75.18,Russia,Saint Petersburg,59.93863,30.31413,188.170.64.0/19,MF-NWGSM-188-170-92,Android,6.0,Chrome Mobile, 63.0.3239,True,11859c88-4f4c-425a-a3a5-85d34cf844f2,6faa93ad8196d38f165287e2da28c59984548d8c
1473,178.69.216.15,Russia,Cherepovets,59.13333,37.9,178.69.128.0/17,RU-AVANGARD-DSL,Android,6.0,Chrome Mobile, 63.0.3239,True,11859c88-4f4c-425a-a3a5-85d34cf844f2,6faa93ad8196d38f165287e2da28c59984548d8c
1474,188.170.81.60,Russia,Saint Petersburg,59.93863,30.31413,188.170.80.0/20,MF-NW-188-170-80,Android,6.0,Chrome Mobile, 63.0.3239,True,11859c88-4f4c-425a-a3a5-85d34cf844f2,6faa93ad8196d38f165287e2da28c59984548d8c
1475,92.101.132.232,Russia,Vologda,59.2239,39.88398,92.101.128.0/19,RU-AVANGARD-DSL,Android,6.0,Chrome Mobile, 63.0.3239,True,11859c88-4f4c-425a-a3a5-85d34cf844f2,6faa93ad8196d38f165287e2da28c59984548d8c
1476,92.101.128.65,Russia,Cherepovets,59.13333,37.9,92.101.128.0/19,RU-AVANGARD-DSL,Android,6.0,Chrome Mobile, 63.0.3239,True,11859c88-4f4c-425a-a3a5-85d34cf844f2,6faa93ad8196d38f165287e2da28c59984548d8c
1477,92.101.160.200,Russia,Vologda,59.2239,39.88398,92.101.160.0/20,RU-AVANGARD-DSL,Android,6.0,Chrome Mobile, 63.0.3239,True,11859c88-4f4c-425a-a3a5-85d34cf844f2,6faa93ad8196d38f165287e2da28c59984548d8c
1478,188.170.81.64,Russia,Saint Petersburg,59.93863,30.31413,188.170.80.0/20,MF-NW-188-170-80,Android,6.0,Chrome Mobile, 63.0.3239,True,11859c88-4f4c-425a-a3a5-85d34cf844f2,6faa93ad8196d38f165287e2da28c59984548d8c
1479,188.170.81.62,Russia,Saint Petersburg,59.93863,30.31413,188.170.80.0/20,MF-NW-188-170-80,Android,6.0,Chrome Mobile, 63.0.3239,True,11859c88-4f4c-425a-a3a5-85d34cf844f2,6faa93ad8196d38f165287e2da28c59984548d8c
1480,92.101.150.45,Russia,Cherepovets,59.13333,37.9,92.101.128.0/19,RU-AVANGARD-DSL,Android,6.0,Chrome Mobile, 63.0.3239,True,11859c88-4f4c-425a-a3a5-85d34cf844f2,6faa93ad8196d38f165287e2da28c59984548d8c
1481,92.101.141.167,Russia,Cherepovets,59.13333,37.9,92.101.128.0/19,RU-AVANGARD-DSL,Android,6.0,Chrome Mobile, 63.0.3239,True,11859c88-4f4c-425a-a3a5-85d34cf844f2,6faa93ad8196d38f165287e2da28c59984548d8c
1482,89.179.64.234,Russia,Astrakhan',46.34968,48.04076,89.178.0.0/15,RU-CORBINA-20060322,Android,8.0.0,Chrome Mobile, 67.0.3396,True,5380d8ee-ead6-4b4e-be71-8d3d264f3833,1266e8c3449c3094088ac300bf975c0d48c4d5f3
1483,188.162.41.85,Russia,Astrakhan',46.34968,48.04076,188.162.40.0/21,SCARTEL,Android,8.0.0,Chrome Mobile, 64.0.3282,True,5380d8ee-ead6-4b4e-be71-8d3d264f3833,1266e8c3449c3094088ac300bf975c0d48c4d5f3
1484,188.162.197.153,Russia,Astrakhan',46.34968,48.04076,188.162.192.0/21,SCARTEL,Android,8.0.0,Chrome Mobile, 64.0.3282,True,5380d8ee-ead6-4b4e-be71-8d3d264f3833,1266e8c3449c3094088ac300bf975c0d48c4d5f3
1485,188.162.197.81,Russia,Astrakhan',46.34968,48.04076,188.162.192.0/21,SCARTEL,Android,8.0.0,Chrome Mobile, 64.0.3282,True,5380d8ee-ead6-4b4e-be71-8d3d264f3833,1266e8c3449c3094088ac300bf975c0d48c4d5f3
1486,85.26.164.153,Russia,Samara,53.20006,50.15,85.26.164.0/22,MF-MGSM,Android,8.0.0,Chrome Mobile, 64.0.3282,True,5380d8ee-ead6-4b4e-be71-8d3d264f3833,1266e8c3449c3094088ac300bf975c0d48c4d5f3
1487,85.26.232.9,Russia,Samara,53.20006,50.15,85.26.232.0/22,CUSTOMERS-GPRS-LAN,Android,8.0.0,Chrome Mobile, 64.0.3282,True,5380d8ee-ead6-4b4e-be71-8d3d264f3833,1266e8c3449c3094088ac300bf975c0d48c4d5f3
1488,83.149.21.105,Russia,,60.0,100.0,83.149.20.0/22,MF-MGSM,Android,8.0.0,Chrome Mobile, 64.0.3282,True,5380d8ee-ead6-4b4e-be71-8d3d264f3833,1266e8c3449c3094088ac300bf975c0d48c4d5f3
1489,85.26.164.195,Russia,Samara,53.20006,50.15,85.26.164.0/22,MF-MGSM,iOS,11.2.5,Mobile Safari UI/WKWebView,,True,b97258b7-7e70-44b9-988e-9dee8373f75f,b2f7856c142ff03faaff31f4ba7d26e369ee898f
1490,85.26.234.57,Russia,Samara,53.20006,50.15,85.26.232.0/22,CUSTOMERS-GPRS-LAN,iOS,11.2.5,Mobile Safari UI/WKWebView,,True,b97258b7-7e70-44b9-988e-9dee8373f75f,b2f7856c142ff03faaff31f4ba7d26e369ee898f
1491,83.149.21.145,Russia,Samara,53.20006,50.15,83.149.20.0/22,MF-MGSM,iOS,11.2.5,Mobile Safari UI/WKWebView,,True,b97258b7-7e70-44b9-988e-9dee8373f75f,b2f7856c142ff03faaff31f4ba7d26e369ee898f
1492,85.26.234.191,Russia,Samara,53.20006,50.15,85.26.232.0/22,CUSTOMERS-GPRS-LAN,iOS,11.2.5,Mobile Safari UI/WKWebView,,True,b97258b7-7e70-44b9-988e-9dee8373f75f,b2f7856c142ff03faaff31f4ba7d26e369ee898f
1493,85.26.234.20,Russia,Samara,53.20006,50.15,85.26.232.0/22,CUSTOMERS-GPRS-LAN,iOS,11.2.5,Mobile Safari UI/WKWebView,,True,b97258b7-7e70-44b9-988e-9dee8373f75f,b2f7856c142ff03faaff31f4ba7d26e369ee898f
1494,85.26.164.88,Russia,Samara,53.20006,50.15,85.26.164.0/22,MF-MGSM,iOS,11.2.5,Mobile Safari UI/WKWebView,,True,b97258b7-7e70-44b9-988e-9dee8373f75f,b2f7856c142ff03faaff31f4ba7d26e369ee898f
1495,85.26.165.72,Russia,Samara,53.20006,50.15,85.26.164.0/22,MF-MGSM,iOS,11.2.5,Mobile Safari UI/WKWebView,,True,b97258b7-7e70-44b9-988e-9dee8373f75f,b2f7856c142ff03faaff31f4ba7d26e369ee898f
1496,85.26.164.42,Russia,Samara,53.20006,50.15,85.26.164.0/22,MF-MGSM,iOS,11.2.5,Mobile Safari UI/WKWebView,,True,b97258b7-7e70-44b9-988e-9dee8373f75f,b2f7856c142ff03faaff31f4ba7d26e369ee898f
1497,85.26.165.229,Russia,Samara,53.20006,50.15,85.26.164.0/22,MF-MGSM,iOS,11.2.5,Mobile Safari UI/WKWebView,,True,b97258b7-7e70-44b9-988e-9dee8373f75f,b2f7856c142ff03faaff31f4ba7d26e369ee898f
1498,85.26.232.246,Russia,Samara,53.20006,50.15,85.26.232.0/22,CUSTOMERS-GPRS-LAN,iOS,11.2.5,Mobile Safari UI/WKWebView,,True,b97258b7-7e70-44b9-988e-9dee8373f75f,b2f7856c142ff03faaff31f4ba7d26e369ee898f
1499,85.26.233.12,Russia,Samara,53.20006,50.15,85.26.232.0/22,CUSTOMERS-GPRS-LAN,iOS,11.2.5,Mobile Safari UI/WKWebView,,True,b97258b7-7e70-44b9-988e-9dee8373f75f,b2f7856c142ff03faaff31f4ba7d26e369ee898f
1500,85.26.235.205,Russia,Samara,53.20006,50.15,85.26.232.0/22,CUSTOMERS-GPRS-LAN,iOS,11.2.5,Mobile Safari UI/WKWebView,,True,b97258b7-7e70-44b9-988e-9dee8373f75f,b2f7856c142ff03faaff31f4ba7d26e369ee898f
1501,85.26.235.108,Russia,Samara,53.20006,50.15,85.26.232.0/22,CUSTOMERS-GPRS-LAN,iOS,11.2.5,Mobile Safari UI/WKWebView,,True,b97258b7-7e70-44b9-988e-9dee8373f75f,b2f7856c142ff03faaff31f4ba7d26e369ee898f
1502,85.26.232.87,Russia,Samara,53.20006,50.15,85.26.232.0/22,CUSTOMERS-GPRS-LAN,iOS,11.2.5,Mobile Safari UI/WKWebView,,True,b97258b7-7e70-44b9-988e-9dee8373f75f,b2f7856c142ff03faaff31f4ba7d26e369ee898f
1503,83.149.21.70,Russia,,60.0,100.0,83.149.20.0/22,MF-MGSM,iOS,11.2.5,Mobile Safari UI/WKWebView,,True,b97258b7-7e70-44b9-988e-9dee8373f75f,b2f7856c142ff03faaff31f4ba7d26e369ee898f
1504,83.149.21.212,Russia,Samara,53.20006,50.15,83.149.20.0/22,MF-MGSM,iOS,11.2.5,Mobile Safari UI/WKWebView,,True,b97258b7-7e70-44b9-988e-9dee8373f75f,b2f7856c142ff03faaff31f4ba7d26e369ee898f
1505,85.26.232.171,Russia,Samara,53.20006,50.15,85.26.232.0/22,CUSTOMERS-GPRS-LAN,iOS,11.2.5,Mobile Safari UI/WKWebView,,True,b97258b7-7e70-44b9-988e-9dee8373f75f,b2f7856c142ff03faaff31f4ba7d26e369ee898f
1506,85.26.232.253,Russia,Samara,53.20006,50.15,85.26.232.0/22,CUSTOMERS-GPRS-LAN,iOS,11.2.5,Mobile Safari UI/WKWebView,,True,b97258b7-7e70-44b9-988e-9dee8373f75f,b2f7856c142ff03faaff31f4ba7d26e369ee898f
1507,85.26.233.26,Russia,Samara,53.20006,50.15,85.26.232.0/22,CUSTOMERS-GPRS-LAN,iOS,11.2.5,Mobile Safari UI/WKWebView,,True,b97258b7-7e70-44b9-988e-9dee8373f75f,b2f7856c142ff03faaff31f4ba7d26e369ee898f
1508,85.26.235.165,Russia,Samara,53.20006,50.15,85.26.232.0/22,CUSTOMERS-GPRS-LAN,iOS,11.2.5,Mobile Safari UI/WKWebView,,True,b97258b7-7e70-44b9-988e-9dee8373f75f,b2f7856c142ff03faaff31f4ba7d26e369ee898f
1509,85.173.128.6,Russia,Astrakhan',46.34968,48.04076,85.173.128.0/20,Macroregional_South,Android,8.0.0,Chrome Mobile, 67.0.3396,True,ff5be60e-b8c9-4158-8d02-24b4075002bb,0215ba87c2e630e69a7abc5efcafc3cd3ede9aec
1510,85.173.128.112,Russia,Astrakhan',46.34968,48.04076,85.173.128.0/20,Macroregional_South,Android,8.0.0,Chrome Mobile, 67.0.3396,True,ff5be60e-b8c9-4158-8d02-24b4075002bb,0215ba87c2e630e69a7abc5efcafc3cd3ede9aec
1511,95.153.128.209,Russia,Krasnodar,45.04484,38.97603,95.153.128.0/20,RU-KUBGSM-20030923,iOS,11.2.6,Mobile Safari UI/WKWebView,,True,9d31760b-33db-4f19-88a5-872f9dc3bcc4,0215ba87c2e630e69a7abc5efcafc3cd3ede9aec
1512,95.153.128.239,Russia,Krasnodar,45.04484,38.97603,95.153.128.0/20,RU-KUBGSM-20030923,iOS,11.2.6,Mobile Safari UI/WKWebView,,True,9d31760b-33db-4f19-88a5-872f9dc3bcc4,0215ba87c2e630e69a7abc5efcafc3cd3ede9aec
1513,95.153.134.191,Russia,Krasnodar,45.04484,38.97603,95.153.128.0/20,RU-KUBGSM-20030923,iOS,11.2.6,Mobile Safari UI/WKWebView,,True,9d31760b-33db-4f19-88a5-872f9dc3bcc4,0215ba87c2e630e69a7abc5efcafc3cd3ede9aec
1514,95.153.133.71,Russia,Krasnodar,45.04484,38.97603,95.153.128.0/20,RU-KUBGSM-20030923,iOS,11.2.6,Mobile Safari UI/WKWebView,,True,9d31760b-33db-4f19-88a5-872f9dc3bcc4,0215ba87c2e630e69a7abc5efcafc3cd3ede9aec
1515,95.153.132.15,Russia,Krasnodar,45.04484,38.97603,95.153.128.0/20,RU-KUBGSM-20030923,iOS,11.2.6,Mobile Safari UI/WKWebView,,True,9d31760b-33db-4f19-88a5-872f9dc3bcc4,0215ba87c2e630e69a7abc5efcafc3cd3ede9aec
1516,31.162.12.74,Russia,Perm,58.01046,56.25017,31.162.0.0/18,USI_ADSL_USERS,Android,6.0.1,Chrome Mobile, 68.0.3440,True,646fb976-ac27-4835-938a-30d7182a048d,3a0cdc9cab8cdee8982ec5a3b5dbcb375205cede
1517,85.140.23.103,Russia,Yekaterinburg,56.8519,60.6122,85.140.0.0/15,RU-MTU-20041213,Android,6.0.1,Chrome Mobile, 67.0.3396,True,646fb976-ac27-4835-938a-30d7182a048d,3a0cdc9cab8cdee8982ec5a3b5dbcb375205cede
1518,85.140.19.29,Russia,Yekaterinburg,56.8519,60.6122,85.140.0.0/15,RU-MTU-20041213,Android,6.0.1,Chrome Mobile, 67.0.3396,True,646fb976-ac27-4835-938a-30d7182a048d,3a0cdc9cab8cdee8982ec5a3b5dbcb375205cede
1519,213.87.240.145,Russia,Yekaterinburg,56.8519,60.6122,213.87.240.0/22,MTSGPRS-5,Android,6.0.1,Chrome Mobile, 66.0.3359,True,646fb976-ac27-4835-938a-30d7182a048d,3a0cdc9cab8cdee8982ec5a3b5dbcb375205cede
1520,85.140.18.236,Russia,Yekaterinburg,56.8519,60.6122,85.140.0.0/15,RU-MTU-20041213,Android,6.0.1,Chrome Mobile, 65.0.3325,True,92cb7bbd-08bd-42b4-999e-8e9ea1a924eb,3a0cdc9cab8cdee8982ec5a3b5dbcb375205cede
1521,85.140.19.108,Russia,Yekaterinburg,56.8519,60.6122,85.140.0.0/15,RU-MTU-20041213,Android,6.0.1,Chrome Mobile, 65.0.3325,True,646fb976-ac27-4835-938a-30d7182a048d,3a0cdc9cab8cdee8982ec5a3b5dbcb375205cede
1523,85.140.18.75,Russia,Yekaterinburg,56.8519,60.6122,85.140.0.0/15,RU-MTU-20041213,Android,6.0.1,Chrome Mobile, 65.0.3325,True,646fb976-ac27-4835-938a-30d7182a048d,3a0cdc9cab8cdee8982ec5a3b5dbcb375205cede
1524,85.140.18.75,Russia,Yekaterinburg,56.8519,60.6122,85.140.0.0/15,RU-MTU-20041213,Android,6.0.1,Chrome Mobile, 65.0.3325,True,8bf12030-e5df-471a-9037-1426bc1be1c3,3a0cdc9cab8cdee8982ec5a3b5dbcb375205cede
1525,85.140.18.231,Russia,Yekaterinburg,56.8519,60.6122,85.140.0.0/15,RU-MTU-20041213,Android,8.0.0,Chrome Mobile, 68.0.3440,True,351aabed-43b5-461c-923e-ce35dd4f8b0e,ca4a85f660dcec25bfca6685e815f3d4056f5e90
1526,188.19.59.135,Russia,Surgut,61.25,73.41667,188.19.48.0/20,USI_ADSL_USERS,Android,8.0.0,Chrome Mobile, 68.0.3440,True,351aabed-43b5-461c-923e-ce35dd4f8b0e,ca4a85f660dcec25bfca6685e815f3d4056f5e90
1527,85.140.19.231,Russia,Yekaterinburg,56.8519,60.6122,85.140.0.0/15,RU-MTU-20041213,Android,8.0.0,Chrome Mobile, 68.0.3440,True,351aabed-43b5-461c-923e-ce35dd4f8b0e,ca4a85f660dcec25bfca6685e815f3d4056f5e90
1531,178.46.177.150,Russia,Surgut,61.25,73.41667,178.46.176.0/23,USI_ADSL_USERS,Android,7.1.1,Chrome Mobile, 65.0.3325,True,7fc9b524-e5a2-4a9b-a32f-4f0086210ddd,ca4a85f660dcec25bfca6685e815f3d4056f5e90
1532,213.87.240.112,Russia,Yekaterinburg,56.8519,60.6122,213.87.240.0/22,MTSGPRS-5,Android,8.0.0,Chrome Mobile, 68.0.3440,True,351aabed-43b5-461c-923e-ce35dd4f8b0e,ca4a85f660dcec25bfca6685e815f3d4056f5e90
1533,213.87.249.92,Russia,Perm,58.01046,56.25017,213.87.248.0/22,MTSNET-URAL-NAT,Android,8.0.0,Chrome Mobile, 67.0.3396,True,351aabed-43b5-461c-923e-ce35dd4f8b0e,ca4a85f660dcec25bfca6685e815f3d4056f5e90
1534,213.87.242.243,Russia,Yekaterinburg,56.8519,60.6122,213.87.240.0/22,MTSGPRS-5,Android,8.0.0,Chrome Mobile, 67.0.3396,True,351aabed-43b5-461c-923e-ce35dd4f8b0e,ca4a85f660dcec25bfca6685e815f3d4056f5e90
1535,213.87.242.83,Russia,Yekaterinburg,56.8519,60.6122,213.87.240.0/22,MTSGPRS-5,Android,8.0.0,Chrome Mobile, 67.0.3396,True,351aabed-43b5-461c-923e-ce35dd4f8b0e,ca4a85f660dcec25bfca6685e815f3d4056f5e90
1536,213.87.242.147,Russia,Yekaterinburg,56.8519,60.6122,213.87.240.0/22,MTSGPRS-5,Android,8.0.0,Chrome Mobile, 67.0.3396,True,351aabed-43b5-461c-923e-ce35dd4f8b0e,ca4a85f660dcec25bfca6685e815f3d4056f5e90
1537,213.87.242.19,Russia,Perm,58.01046,56.25017,213.87.240.0/22,MTSGPRS-5,Android,8.0.0,Chrome Mobile, 67.0.3396,True,351aabed-43b5-461c-923e-ce35dd4f8b0e,ca4a85f660dcec25bfca6685e815f3d4056f5e90
1538,31.162.149.163,Russia,Kogalym,62.26537,74.47906,31.162.128.0/18,USI_ADSL_USERS,Android,8.0.0,Chrome Mobile, 67.0.3396,True,351aabed-43b5-461c-923e-ce35dd4f8b0e,ca4a85f660dcec25bfca6685e815f3d4056f5e90
1541,85.140.76.70,Russia,Perm,58.01046,56.25017,85.140.76.0/22,MTSGPRS-8,Android,7.1.1,Chrome Mobile, 66.0.3359,True,7fc9b524-e5a2-4a9b-a32f-4f0086210ddd,ca4a85f660dcec25bfca6685e815f3d4056f5e90
1542,85.140.19.131,Russia,Yekaterinburg,56.8519,60.6122,85.140.0.0/15,RU-MTU-20041213,Android,7.1.1,Chrome Mobile, 66.0.3359,True,7fc9b524-e5a2-4a9b-a32f-4f0086210ddd,ca4a85f660dcec25bfca6685e815f3d4056f5e90
1543,178.47.120.33,Russia,Surgut,61.25,73.41667,178.47.96.0/19,USI_ADSL_USERS,Android,7.1.1,Chrome Mobile, 66.0.3359,True,7fc9b524-e5a2-4a9b-a32f-4f0086210ddd,ca4a85f660dcec25bfca6685e815f3d4056f5e90
1544,213.87.241.220,Russia,Yekaterinburg,56.8519,60.6122,213.87.240.0/22,MTSGPRS-5,Android,7.1.1,Chrome Mobile, 66.0.3359,True,7fc9b524-e5a2-4a9b-a32f-4f0086210ddd,ca4a85f660dcec25bfca6685e815f3d4056f5e90
1545,213.87.241.92,Russia,Yekaterinburg,56.8519,60.6122,213.87.240.0/22,MTSGPRS-5,Android,7.1.1,Chrome Mobile, 65.0.3325,True,7fc9b524-e5a2-4a9b-a32f-4f0086210ddd,ca4a85f660dcec25bfca6685e815f3d4056f5e90
1546,85.140.77.63,Russia,Yekaterinburg,56.8519,60.6122,85.140.76.0/22,MTSGPRS-8,Android,7.1.1,Chrome Mobile, 65.0.3325,True,7fc9b524-e5a2-4a9b-a32f-4f0086210ddd,ca4a85f660dcec25bfca6685e815f3d4056f5e90
1547,92.253.179.24,Russia,Surgut,61.25,73.41667,92.253.160.0/19,METRO-SET-NET,Android,7.1.1,Chrome Mobile, 65.0.3325,True,7fc9b524-e5a2-4a9b-a32f-4f0086210ddd,ca4a85f660dcec25bfca6685e815f3d4056f5e90
1548,85.140.77.255,Russia,Yekaterinburg,56.8519,60.6122,85.140.76.0/22,MTSGPRS-8,Android,7.1.1,Chrome Mobile, 65.0.3325,True,7fc9b524-e5a2-4a9b-a32f-4f0086210ddd,ca4a85f660dcec25bfca6685e815f3d4056f5e90
1549,85.140.76.184,Russia,Yekaterinburg,56.8519,60.6122,85.140.76.0/22,MTSGPRS-8,Android,7.1.1,Chrome Mobile, 65.0.3325,True,7fc9b524-e5a2-4a9b-a32f-4f0086210ddd,ca4a85f660dcec25bfca6685e815f3d4056f5e90
1552,95.153.134.34,Russia,Krasnodar,45.04484,38.97603,95.153.128.0/20,RU-KUBGSM-20030923,Android,6.0,Chrome Mobile, 50.0.2661,True,d2b39ba0-b0f5-4515-aba5-871fb4925f40,05bd9b46dcd6593f820ca6b32212652c6e44c8fb
1553,95.153.131.11,Russia,Rostov-on-Don,47.23135,39.72328,95.153.128.0/20,RU-KUBGSM-20030923,Android,6.0,Chrome Mobile, 50.0.2661,True,d2b39ba0-b0f5-4515-aba5-871fb4925f40,05bd9b46dcd6593f820ca6b32212652c6e44c8fb
1554,95.153.130.22,Russia,Krasnodar,45.04484,38.97603,95.153.128.0/20,RU-KUBGSM-20030923,Android,6.0,Chrome Mobile, 50.0.2661,True,d2b39ba0-b0f5-4515-aba5-871fb4925f40,05bd9b46dcd6593f820ca6b32212652c6e44c8fb
1555,95.153.130.27,Russia,Krasnodar,45.04484,38.97603,95.153.128.0/20,RU-KUBGSM-20030923,Android,6.0,Chrome Mobile, 50.0.2661,True,d2b39ba0-b0f5-4515-aba5-871fb4925f40,05bd9b46dcd6593f820ca6b32212652c6e44c8fb
1556,95.153.131.35,Russia,Rostov-on-Don,47.23135,39.72328,95.153.128.0/20,RU-KUBGSM-20030923,Android,6.0,Chrome Mobile, 50.0.2661,True,d2b39ba0-b0f5-4515-aba5-871fb4925f40,05bd9b46dcd6593f820ca6b32212652c6e44c8fb
1557,95.153.130.244,Russia,Krasnodar,45.04484,38.97603,95.153.128.0/20,RU-KUBGSM-20030923,Android,6.0,Chrome Mobile, 50.0.2661,True,d2b39ba0-b0f5-4515-aba5-871fb4925f40,05bd9b46dcd6593f820ca6b32212652c6e44c8fb
1558,85.26.186.112,Russia,Rostov-on-Don,47.23135,39.72328,85.26.184.0/22,MF-KAVKAZ,iOS,12.0,Mobile Safari UI/WKWebView,,True,c94ad03f-a7a2-43cf-9828-7d0a42750463,bd7e9b3793d383a20640095d8aa8f9041cdf81de
1559,185.3.34.49,Russia,Rostov-on-Don,47.23135,39.72328,185.3.34.0/23,MF-KAVKAZ-CGNAT2,iOS,12.0,Mobile Safari UI/WKWebView,,True,c94ad03f-a7a2-43cf-9828-7d0a42750463,bd7e9b3793d383a20640095d8aa8f9041cdf81de
1560,185.3.35.188,Russia,Krasnodar,45.04484,38.97603,185.3.34.0/23,MF-KAVKAZ-CGNAT2,iOS,12.0,Mobile Safari UI/WKWebView,,True,c94ad03f-a7a2-43cf-9828-7d0a42750463,bd7e9b3793d383a20640095d8aa8f9041cdf81de
1561,188.170.193.164,Russia,Krasnodar,45.04484,38.97603,188.170.192.0/23,MF-KAVKAZ-CGNAT,iOS,12.0,Mobile Safari UI/WKWebView,,True,c94ad03f-a7a2-43cf-9828-7d0a42750463,bd7e9b3793d383a20640095d8aa8f9041cdf81de
1562,188.170.193.166,Russia,Krasnodar,45.04484,38.97603,188.170.192.0/23,MF-KAVKAZ-CGNAT,iOS,12.0,Mobile Safari UI/WKWebView,,True,c94ad03f-a7a2-43cf-9828-7d0a42750463,bd7e9b3793d383a20640095d8aa8f9041cdf81de
1563,188.170.192.104,Russia,Krasnodar,45.04484,38.97603,188.170.192.0/23,MF-KAVKAZ-CGNAT,iOS,11.4.1,Mobile Safari UI/WKWebView,,True,c94ad03f-a7a2-43cf-9828-7d0a42750463,bd7e9b3793d383a20640095d8aa8f9041cdf81de
1564,185.3.34.145,Russia,Rostov-on-Don,47.23135,39.72328,185.3.34.0/23,MF-KAVKAZ-CGNAT2,iOS,11.4.1,Mobile Safari UI/WKWebView,,True,c94ad03f-a7a2-43cf-9828-7d0a42750463,bd7e9b3793d383a20640095d8aa8f9041cdf81de
1565,188.170.193.226,Russia,Krasnodar,45.04484,38.97603,188.170.192.0/23,MF-KAVKAZ-CGNAT,iOS,11.4.1,Mobile Safari UI/WKWebView,,True,c94ad03f-a7a2-43cf-9828-7d0a42750463,bd7e9b3793d383a20640095d8aa8f9041cdf81de
1566,188.170.173.224,Russia,Krasnodar,45.04484,38.97603,188.170.168.0/21,MF-KF-2017-04-07,iOS,11.4.1,Mobile Safari UI/WKWebView,,True,c94ad03f-a7a2-43cf-9828-7d0a42750463,bd7e9b3793d383a20640095d8aa8f9041cdf81de
1567,185.3.35.34,Russia,Krasnodar,45.04484,38.97603,185.3.34.0/23,MF-KAVKAZ-CGNAT2,iOS,11.4.1,Mobile Safari UI/WKWebView,,True,c94ad03f-a7a2-43cf-9828-7d0a42750463,bd7e9b3793d383a20640095d8aa8f9041cdf81de
1568,188.170.193.236,Russia,Krasnodar,45.04484,38.97603,188.170.192.0/23,MF-KAVKAZ-CGNAT,iOS,11.4.1,Mobile Safari UI/WKWebView,,True,c94ad03f-a7a2-43cf-9828-7d0a42750463,bd7e9b3793d383a20640095d8aa8f9041cdf81de
1569,188.170.174.61,Russia,Krasnodar,45.04484,38.97603,188.170.168.0/21,MF-KF-2017-04-07,iOS,11.4,Mobile Safari UI/WKWebView,,True,c94ad03f-a7a2-43cf-9828-7d0a42750463,bd7e9b3793d383a20640095d8aa8f9041cdf81de
1570,85.26.186.130,Russia,Krasnodar,45.04484,38.97603,85.26.184.0/22,MF-KAVKAZ,iOS,11.4,Mobile Safari UI/WKWebView,,True,c94ad03f-a7a2-43cf-9828-7d0a42750463,bd7e9b3793d383a20640095d8aa8f9041cdf81de
1571,85.174.201.70,Russia,Krasnodar,45.04484,38.97603,85.174.192.0/19,Macroregional_South,iOS,11.4,Mobile Safari UI/WKWebView,,True,c94ad03f-a7a2-43cf-9828-7d0a42750463,bd7e9b3793d383a20640095d8aa8f9041cdf81de
1572,46.159.26.224,Russia,Krasnodar,45.04484,38.97603,46.159.0.0/16,Macroregional_South,iOS,11.4,Mobile Safari UI/WKWebView,,True,90c41abb-a84a-4905-a6b2-8c4108e78563,bd7e9b3793d383a20640095d8aa8f9041cdf81de
1573,62.183.125.16,Russia,Krasnodar,45.04484,38.97603,62.183.0.0/17,RU-RTK-20021209,iOS,11.4,Mobile Safari UI/WKWebView,,True,90c41abb-a84a-4905-a6b2-8c4108e78563,bd7e9b3793d383a20640095d8aa8f9041cdf81de
1574,46.159.230.189,Russia,Krasnodar,45.04484,38.97603,46.159.0.0/16,Macroregional_South,iOS,11.3,Mobile Safari UI/WKWebView,,True,90c41abb-a84a-4905-a6b2-8c4108e78563,bd7e9b3793d383a20640095d8aa8f9041cdf81de
1575,188.170.196.226,Russia,Samara,53.20006,50.15,188.170.196.0/23,MF-KAVKAZ-CGNAT,iOS,11.3,Mobile Safari UI/WKWebView,,True,90c41abb-a84a-4905-a6b2-8c4108e78563,bd7e9b3793d383a20640095d8aa8f9041cdf81de
1576,185.3.35.178,Russia,Krasnodar,45.04484,38.97603,185.3.34.0/23,MF-KAVKAZ-CGNAT2,iOS,11.3,Mobile Safari UI/WKWebView,,True,90c41abb-a84a-4905-a6b2-8c4108e78563,bd7e9b3793d383a20640095d8aa8f9041cdf81de
1577,188.170.192.21,Russia,Krasnodar,45.04484,38.97603,188.170.192.0/23,MF-KAVKAZ-CGNAT,iOS,11.3,Mobile Safari UI/WKWebView,,True,90c41abb-a84a-4905-a6b2-8c4108e78563,bd7e9b3793d383a20640095d8aa8f9041cdf81de
1578,62.183.127.179,Russia,Krasnodar,45.04484,38.97603,62.183.0.0/17,RU-RTK-20021209,iOS,11.3,Mobile Safari UI/WKWebView,,True,90c41abb-a84a-4905-a6b2-8c4108e78563,bd7e9b3793d383a20640095d8aa8f9041cdf81de
1579,62.183.126.11,Russia,Krasnodar,45.04484,38.97603,62.183.0.0/17,RU-RTK-20021209,iOS,11.3,Mobile Safari UI/WKWebView,,True,90c41abb-a84a-4905-a6b2-8c4108e78563,bd7e9b3793d383a20640095d8aa8f9041cdf81de
1580,85.26.186.227,Russia,Krasnodar,45.04484,38.97603,85.26.184.0/22,MF-KAVKAZ,iOS,11.3,Mobile Safari UI/WKWebView,,True,90c41abb-a84a-4905-a6b2-8c4108e78563,bd7e9b3793d383a20640095d8aa8f9041cdf81de
1581,31.40.135.38,Russia,,60.0,100.0,31.40.128.0/18,ORG-OANP1-RIPE,iOS,11.3,Mobile Safari UI/WKWebView,,True,90c41abb-a84a-4905-a6b2-8c4108e78563,bd7e9b3793d383a20640095d8aa8f9041cdf81de
1582,188.170.192.14,Russia,Krasnodar,45.04484,38.97603,188.170.192.0/23,MF-KAVKAZ-CGNAT,iOS,11.3,Mobile Safari UI/WKWebView,,True,90c41abb-a84a-4905-a6b2-8c4108e78563,bd7e9b3793d383a20640095d8aa8f9041cdf81de
1583,85.26.186.151,Russia,Krasnodar,45.04484,38.97603,85.26.184.0/22,MF-KAVKAZ,iOS,11.3,Mobile Safari UI/WKWebView,,True,90c41abb-a84a-4905-a6b2-8c4108e78563,bd7e9b3793d383a20640095d8aa8f9041cdf81de
1584,185.3.35.123,Russia,Krasnodar,45.04484,38.97603,185.3.34.0/23,MF-KAVKAZ-CGNAT2,iOS,11.3,Mobile Safari UI/WKWebView,,True,90c41abb-a84a-4905-a6b2-8c4108e78563,bd7e9b3793d383a20640095d8aa8f9041cdf81de
1585,185.3.35.93,Russia,Krasnodar,45.04484,38.97603,185.3.34.0/23,MF-KAVKAZ-CGNAT2,iOS,11.3,Mobile Safari UI/WKWebView,,True,90c41abb-a84a-4905-a6b2-8c4108e78563,bd7e9b3793d383a20640095d8aa8f9041cdf81de
1586,195.208.173.201,Russia,Novorossiysk,44.72439,37.76752,195.208.172.0/23,STM-NVR-NET,iOS,11.3,Mobile Safari UI/WKWebView,,True,90c41abb-a84a-4905-a6b2-8c4108e78563,bd7e9b3793d383a20640095d8aa8f9041cdf81de
1587,83.220.238.97,Russia,Moscow,55.75222,37.61556,83.220.236.0/22,BEE-MSK-GPRS-FW,Android,7.1.2,Chrome Mobile, 68.0.3440,True,8659e89d-9765-45db-802a-8480f07240e0,e16edfc7ccd57ea881487fd1f138a2e8c61ab012
1588,37.147.5.69,Russia,Tver,56.85836,35.90057,37.147.0.0/18,BEELINE-BROADBAND,Android,7.1.2,Chrome Mobile, 68.0.3440,True,8659e89d-9765-45db-802a-8480f07240e0,e16edfc7ccd57ea881487fd1f138a2e8c61ab012
1589,37.147.5.69,Russia,Tver,56.85836,35.90057,37.147.0.0/18,BEELINE-BROADBAND,Android,7.1.2,Chrome Mobile, 67.0.3396,True,8659e89d-9765-45db-802a-8480f07240e0,e16edfc7ccd57ea881487fd1f138a2e8c61ab012
1590,83.220.239.134,Russia,Moscow,55.75222,37.61556,83.220.236.0/22,BEE-MSK-GPRS-FW,Android,7.1.2,Chrome Mobile, 67.0.3396,True,8659e89d-9765-45db-802a-8480f07240e0,e16edfc7ccd57ea881487fd1f138a2e8c61ab012
1591,83.220.236.104,Russia,Moscow,55.75222,37.61556,83.220.236.0/22,BEE-MSK-GPRS-FW,Android,7.1.2,Chrome Mobile, 67.0.3396,True,8659e89d-9765-45db-802a-8480f07240e0,e16edfc7ccd57ea881487fd1f138a2e8c61ab012
1592,83.220.236.104,Russia,Moscow,55.75222,37.61556,83.220.236.0/22,BEE-MSK-GPRS-FW,Android,5.1,Chrome Mobile, 44.0.2403,True,f986865e-829f-43ce-b7e8-e3328e57c765,e16edfc7ccd57ea881487fd1f138a2e8c61ab012
1593,83.220.239.105,Russia,Moscow,55.75222,37.61556,83.220.236.0/22,BEE-MSK-GPRS-FW,Android,7.1.2,Chrome Mobile, 67.0.3396,True,8659e89d-9765-45db-802a-8480f07240e0,e16edfc7ccd57ea881487fd1f138a2e8c61ab012
1594,83.220.238.152,Russia,Moscow,55.75222,37.61556,83.220.236.0/22,BEE-MSK-GPRS-FW,Android,7.1.2,Chrome Mobile, 67.0.3396,True,8659e89d-9765-45db-802a-8480f07240e0,e16edfc7ccd57ea881487fd1f138a2e8c61ab012
1595,95.31.164.133,Russia,Tver,56.85836,35.90057,95.31.160.0/19,BEELINE-BROADBAND,Android,7.1.2,Chrome Mobile, 67.0.3396,True,8659e89d-9765-45db-802a-8480f07240e0,e16edfc7ccd57ea881487fd1f138a2e8c61ab012
1596,83.220.236.109,Russia,Moscow,55.75222,37.61556,83.220.236.0/22,BEE-MSK-GPRS-FW,Android,7.1.2,Chrome Mobile, 67.0.3396,True,8659e89d-9765-45db-802a-8480f07240e0,e16edfc7ccd57ea881487fd1f138a2e8c61ab012
1597,83.220.236.109,Russia,Moscow,55.75222,37.61556,83.220.236.0/22,BEE-MSK-GPRS-FW,Android,5.1,Chrome, 67.0.3396,True,de156afc-565e-47b0-a8a1-b9b754b2b981,e34cede14d7469957986c632404885265d595d24
1598,83.220.237.190,Russia,Moscow,55.75222,37.61556,83.220.236.0/22,BEE-MSK-GPRS-FW,Android,7.1.2,Chrome Mobile, 67.0.3396,True,8659e89d-9765-45db-802a-8480f07240e0,e16edfc7ccd57ea881487fd1f138a2e8c61ab012
1599,83.220.237.195,Russia,Moscow,55.75222,37.61556,83.220.236.0/22,BEE-MSK-GPRS-FW,Android,5.1,Chrome Mobile, 44.0.2403,True,f986865e-829f-43ce-b7e8-e3328e57c765,e16edfc7ccd57ea881487fd1f138a2e8c61ab012
1600,83.220.238.115,Russia,Moscow,55.75222,37.61556,83.220.236.0/22,BEE-MSK-GPRS-FW,Android,5.1,Chrome Mobile, 44.0.2403,True,f986865e-829f-43ce-b7e8-e3328e57c765,e16edfc7ccd57ea881487fd1f138a2e8c61ab012
1601,83.220.238.94,Russia,Moscow,55.75222,37.61556,83.220.236.0/22,BEE-MSK-GPRS-FW,Android,5.1,Chrome Mobile, 44.0.2403,True,f986865e-829f-43ce-b7e8-e3328e57c765,e16edfc7ccd57ea881487fd1f138a2e8c61ab012
1602,83.220.239.10,Russia,Moscow,55.75222,37.61556,83.220.236.0/22,BEE-MSK-GPRS-FW,Android,5.1,Chrome Mobile, 44.0.2403,True,f986865e-829f-43ce-b7e8-e3328e57c765,e16edfc7ccd57ea881487fd1f138a2e8c61ab012
1603,83.220.236.138,Russia,Moscow,55.75222,37.61556,83.220.236.0/22,BEE-MSK-GPRS-FW,Android,5.1,Chrome Mobile, 44.0.2403,True,f986865e-829f-43ce-b7e8-e3328e57c765,e16edfc7ccd57ea881487fd1f138a2e8c61ab012
1604,83.220.238.75,Russia,Moscow,55.75222,37.61556,83.220.236.0/22,BEE-MSK-GPRS-FW,Android,5.1,Chrome Mobile, 44.0.2403,True,f986865e-829f-43ce-b7e8-e3328e57c765,e16edfc7ccd57ea881487fd1f138a2e8c61ab012
1605,83.220.239.0,Russia,Moscow,55.75222,37.61556,83.220.236.0/22,BEE-MSK-GPRS-FW,Android,5.1,Chrome Mobile, 44.0.2403,True,f986865e-829f-43ce-b7e8-e3328e57c765,e16edfc7ccd57ea881487fd1f138a2e8c61ab012
1606,83.220.238.55,Russia,Moscow,55.75222,37.61556,83.220.236.0/22,BEE-MSK-GPRS-FW,Android,5.1,Chrome Mobile, 44.0.2403,True,f986865e-829f-43ce-b7e8-e3328e57c765,e16edfc7ccd57ea881487fd1f138a2e8c61ab012
1607,95.31.185.230,Russia,Tver,56.85836,35.90057,95.31.160.0/19,BEELINE-BROADBAND,Android,5.1,Chrome Mobile, 44.0.2403,True,f986865e-829f-43ce-b7e8-e3328e57c765,e16edfc7ccd57ea881487fd1f138a2e8c61ab012
1608,83.220.239.43,Russia,Moscow,55.75222,37.61556,83.220.236.0/22,BEE-MSK-GPRS-FW,Android,5.1,Chrome Mobile, 44.0.2403,True,f986865e-829f-43ce-b7e8-e3328e57c765,e16edfc7ccd57ea881487fd1f138a2e8c61ab012
1609,83.220.236.80,Russia,Moscow,55.75222,37.61556,83.220.236.0/22,BEE-MSK-GPRS-FW,Android,5.1,Chrome Mobile, 44.0.2403,True,f986865e-829f-43ce-b7e8-e3328e57c765,e16edfc7ccd57ea881487fd1f138a2e8c61ab012
1610,83.220.237.60,Russia,Moscow,55.75222,37.61556,83.220.236.0/22,BEE-MSK-GPRS-FW,Android,5.1,Chrome Mobile, 44.0.2403,True,f986865e-829f-43ce-b7e8-e3328e57c765,e16edfc7ccd57ea881487fd1f138a2e8c61ab012
1611,83.220.237.210,Russia,Moscow,55.75222,37.61556,83.220.236.0/22,BEE-MSK-GPRS-FW,Android,5.1,Chrome Mobile, 44.0.2403,True,f986865e-829f-43ce-b7e8-e3328e57c765,e16edfc7ccd57ea881487fd1f138a2e8c61ab012
1612,83.220.239.139,Russia,Moscow,55.75222,37.61556,83.220.236.0/22,BEE-MSK-GPRS-FW,Android,5.1,Chrome Mobile, 44.0.2403,True,f986865e-829f-43ce-b7e8-e3328e57c765,e16edfc7ccd57ea881487fd1f138a2e8c61ab012
1613,83.220.237.168,Russia,Moscow,55.75222,37.61556,83.220.236.0/22,BEE-MSK-GPRS-FW,Android,5.1,Chrome Mobile, 44.0.2403,True,f986865e-829f-43ce-b7e8-e3328e57c765,e16edfc7ccd57ea881487fd1f138a2e8c61ab012
1614,83.220.239.59,Russia,Moscow,55.75222,37.61556,83.220.236.0/22,BEE-MSK-GPRS-FW,Android,5.1,Chrome Mobile, 44.0.2403,True,f986865e-829f-43ce-b7e8-e3328e57c765,e16edfc7ccd57ea881487fd1f138a2e8c61ab012
1615,176.14.147.42,Russia,Tver,56.85836,35.90057,176.14.0.0/16,BEELINE-BROADBAND,Android,5.1,Chrome Mobile, 44.0.2403,True,f986865e-829f-43ce-b7e8-e3328e57c765,e16edfc7ccd57ea881487fd1f138a2e8c61ab012
1616,83.220.239.151,Russia,Moscow,55.75222,37.61556,83.220.236.0/22,BEE-MSK-GPRS-FW,Android,5.1,Chrome Mobile, 44.0.2403,True,f986865e-829f-43ce-b7e8-e3328e57c765,e16edfc7ccd57ea881487fd1f138a2e8c61ab012
1617,83.220.239.151,Russia,Moscow,55.75222,37.61556,83.220.236.0/22,BEE-MSK-GPRS-FW,Android,5.1,Chrome, 67.0.3396,True,de156afc-565e-47b0-a8a1-b9b754b2b981,e34cede14d7469957986c632404885265d595d24
1618,83.220.236.51,Russia,Moscow,55.75222,37.61556,83.220.236.0/22,BEE-MSK-GPRS-FW,Android,5.1,Chrome Mobile, 44.0.2403,True,f986865e-829f-43ce-b7e8-e3328e57c765,e16edfc7ccd57ea881487fd1f138a2e8c61ab012
1619,83.220.239.125,Russia,Moscow,55.75222,37.61556,83.220.236.0/22,BEE-MSK-GPRS-FW,Android,5.1,Chrome Mobile, 44.0.2403,True,f986865e-829f-43ce-b7e8-e3328e57c765,e16edfc7ccd57ea881487fd1f138a2e8c61ab012
1620,83.220.236.92,Russia,Moscow,55.75222,37.61556,83.220.236.0/22,BEE-MSK-GPRS-FW,Android,5.1,Chrome Mobile, 44.0.2403,True,f986865e-829f-43ce-b7e8-e3328e57c765,e16edfc7ccd57ea881487fd1f138a2e8c61ab012
1621,83.220.239.253,Russia,Moscow,55.75222,37.61556,83.220.236.0/22,BEE-MSK-GPRS-FW,Android,5.1,Chrome Mobile, 44.0.2403,True,f986865e-829f-43ce-b7e8-e3328e57c765,e16edfc7ccd57ea881487fd1f138a2e8c61ab012
1622,83.220.238.87,Russia,Moscow,55.75222,37.61556,83.220.236.0/22,BEE-MSK-GPRS-FW,Android,5.1,Chrome Mobile, 44.0.2403,True,f986865e-829f-43ce-b7e8-e3328e57c765,e16edfc7ccd57ea881487fd1f138a2e8c61ab012
1623,83.220.239.76,Russia,Moscow,55.75222,37.61556,83.220.236.0/22,BEE-MSK-GPRS-FW,Android,5.1,Chrome Mobile, 44.0.2403,True,f986865e-829f-43ce-b7e8-e3328e57c765,e16edfc7ccd57ea881487fd1f138a2e8c61ab012
1624,83.220.236.7,Russia,Moscow,55.75222,37.61556,83.220.236.0/22,BEE-MSK-GPRS-FW,Android,5.1,Chrome Mobile, 44.0.2403,True,f986865e-829f-43ce-b7e8-e3328e57c765,e16edfc7ccd57ea881487fd1f138a2e8c61ab012
1625,83.220.237.247,Russia,Moscow,55.75222,37.61556,83.220.236.0/22,BEE-MSK-GPRS-FW,Android,5.1,Chrome Mobile, 44.0.2403,True,f986865e-829f-43ce-b7e8-e3328e57c765,e16edfc7ccd57ea881487fd1f138a2e8c61ab012
1626,83.220.237.1,Russia,Moscow,55.75222,37.61556,83.220.236.0/22,BEE-MSK-GPRS-FW,Android,5.1,Chrome Mobile, 44.0.2403,True,f986865e-829f-43ce-b7e8-e3328e57c765,e16edfc7ccd57ea881487fd1f138a2e8c61ab012
1627,5.167.96.85,Russia,Tver,56.85836,35.90057,5.167.96.0/21,ERTH-TVER-PPPOE-6-NET,Android,5.1,Chrome Mobile, 44.0.2403,True,f986865e-829f-43ce-b7e8-e3328e57c765,e16edfc7ccd57ea881487fd1f138a2e8c61ab012
1628,83.220.239.129,Russia,Moscow,55.75222,37.61556,83.220.236.0/22,BEE-MSK-GPRS-FW,Android,5.1,Chrome Mobile, 44.0.2403,True,f986865e-829f-43ce-b7e8-e3328e57c765,e16edfc7ccd57ea881487fd1f138a2e8c61ab012
1629,83.220.239.163,Russia,Moscow,55.75222,37.61556,83.220.236.0/22,BEE-MSK-GPRS-FW,Android,5.1,Chrome Mobile, 44.0.2403,True,f986865e-829f-43ce-b7e8-e3328e57c765,e16edfc7ccd57ea881487fd1f138a2e8c61ab012
1630,83.220.236.142,Russia,Moscow,55.75222,37.61556,83.220.236.0/22,BEE-MSK-GPRS-FW,Android,5.1,Chrome Mobile, 44.0.2403,True,f986865e-829f-43ce-b7e8-e3328e57c765,e16edfc7ccd57ea881487fd1f138a2e8c61ab012
1631,83.220.237.77,Russia,Moscow,55.75222,37.61556,83.220.236.0/22,BEE-MSK-GPRS-FW,Android,5.1,Chrome Mobile, 44.0.2403,True,f986865e-829f-43ce-b7e8-e3328e57c765,e16edfc7ccd57ea881487fd1f138a2e8c61ab012
1632,83.220.236.185,Russia,Moscow,55.75222,37.61556,83.220.236.0/22,BEE-MSK-GPRS-FW,Android,5.1,Chrome Mobile, 44.0.2403,True,f986865e-829f-43ce-b7e8-e3328e57c765,e16edfc7ccd57ea881487fd1f138a2e8c61ab012
1633,83.220.239.14,Russia,Moscow,55.75222,37.61556,83.220.236.0/22,BEE-MSK-GPRS-FW,Android,5.1,Chrome Mobile, 44.0.2403,True,f986865e-829f-43ce-b7e8-e3328e57c765,e16edfc7ccd57ea881487fd1f138a2e8c61ab012
1634,83.220.238.18,Russia,Moscow,55.75222,37.61556,83.220.236.0/22,BEE-MSK-GPRS-FW,Android,5.1,Chrome Mobile, 44.0.2403,True,f986865e-829f-43ce-b7e8-e3328e57c765,e16edfc7ccd57ea881487fd1f138a2e8c61ab012
1635,83.220.236.31,Russia,Moscow,55.75222,37.61556,83.220.236.0/22,BEE-MSK-GPRS-FW,Android,5.1,Chrome Mobile, 44.0.2403,True,f986865e-829f-43ce-b7e8-e3328e57c765,e16edfc7ccd57ea881487fd1f138a2e8c61ab012
1636,83.220.238.177,Russia,Moscow,55.75222,37.61556,83.220.236.0/22,BEE-MSK-GPRS-FW,Android,5.1,Chrome Mobile, 44.0.2403,True,f986865e-829f-43ce-b7e8-e3328e57c765,e16edfc7ccd57ea881487fd1f138a2e8c61ab012
1637,176.14.153.229,Russia,Tver,56.85836,35.90057,176.14.0.0/16,BEELINE-BROADBAND,Android,5.1,Chrome Mobile, 44.0.2403,True,f986865e-829f-43ce-b7e8-e3328e57c765,e16edfc7ccd57ea881487fd1f138a2e8c61ab012
1639,83.220.237.17,Russia,Moscow,55.75222,37.61556,83.220.236.0/22,BEE-MSK-GPRS-FW,Android,5.1,Chrome Mobile, 44.0.2403,True,f986865e-829f-43ce-b7e8-e3328e57c765,e16edfc7ccd57ea881487fd1f138a2e8c61ab012
1640,83.220.236.216,Russia,Moscow,55.75222,37.61556,83.220.236.0/22,BEE-MSK-GPRS-FW,Android,5.1,Chrome Mobile, 44.0.2403,True,f986865e-829f-43ce-b7e8-e3328e57c765,e16edfc7ccd57ea881487fd1f138a2e8c61ab012
1641,83.220.239.178,Russia,Moscow,55.75222,37.61556,83.220.236.0/22,BEE-MSK-GPRS-FW,Android,5.1,Chrome Mobile, 44.0.2403,True,f986865e-829f-43ce-b7e8-e3328e57c765,e16edfc7ccd57ea881487fd1f138a2e8c61ab012
1642,83.220.239.52,Russia,Moscow,55.75222,37.61556,83.220.236.0/22,BEE-MSK-GPRS-FW,Android,5.1,Chrome Mobile, 44.0.2403,True,f986865e-829f-43ce-b7e8-e3328e57c765,e16edfc7ccd57ea881487fd1f138a2e8c61ab012
1643,83.220.239.19,Russia,Moscow,55.75222,37.61556,83.220.236.0/22,BEE-MSK-GPRS-FW,Android,5.1,Chrome Mobile, 44.0.2403,True,f986865e-829f-43ce-b7e8-e3328e57c765,e16edfc7ccd57ea881487fd1f138a2e8c61ab012
1644,83.220.239.28,Russia,Moscow,55.75222,37.61556,83.220.236.0/22,BEE-MSK-GPRS-FW,Android,5.1,Chrome Mobile, 44.0.2403,True,f986865e-829f-43ce-b7e8-e3328e57c765,e16edfc7ccd57ea881487fd1f138a2e8c61ab012
1645,83.220.239.146,Russia,Moscow,55.75222,37.61556,83.220.236.0/22,BEE-MSK-GPRS-FW,Android,5.1,Chrome Mobile, 44.0.2403,True,f986865e-829f-43ce-b7e8-e3328e57c765,e16edfc7ccd57ea881487fd1f138a2e8c61ab012
1646,83.220.238.194,Russia,Moscow,55.75222,37.61556,83.220.236.0/22,BEE-MSK-GPRS-FW,Android,5.1,Chrome Mobile, 44.0.2403,True,f986865e-829f-43ce-b7e8-e3328e57c765,e16edfc7ccd57ea881487fd1f138a2e8c61ab012
1647,83.220.238.221,Russia,Moscow,55.75222,37.61556,83.220.236.0/22,BEE-MSK-GPRS-FW,Android,5.1,Chrome Mobile, 44.0.2403,True,f986865e-829f-43ce-b7e8-e3328e57c765,e16edfc7ccd57ea881487fd1f138a2e8c61ab012
1648,83.220.239.141,Russia,Moscow,55.75222,37.61556,83.220.236.0/22,BEE-MSK-GPRS-FW,Android,5.1,Chrome Mobile, 44.0.2403,True,f986865e-829f-43ce-b7e8-e3328e57c765,e16edfc7ccd57ea881487fd1f138a2e8c61ab012
1649,83.220.238.139,Russia,Moscow,55.75222,37.61556,83.220.236.0/22,BEE-MSK-GPRS-FW,Android,5.1,Chrome Mobile, 44.0.2403,True,f986865e-829f-43ce-b7e8-e3328e57c765,e16edfc7ccd57ea881487fd1f138a2e8c61ab012
1650,83.220.236.165,Russia,Moscow,55.75222,37.61556,83.220.236.0/22,BEE-MSK-GPRS-FW,Android,5.1,Chrome Mobile, 44.0.2403,True,f986865e-829f-43ce-b7e8-e3328e57c765,e16edfc7ccd57ea881487fd1f138a2e8c61ab012
1651,83.220.236.144,Russia,Moscow,55.75222,37.61556,83.220.236.0/22,BEE-MSK-GPRS-FW,Android,5.1,Chrome Mobile, 44.0.2403,True,f986865e-829f-43ce-b7e8-e3328e57c765,e16edfc7ccd57ea881487fd1f138a2e8c61ab012
1652,83.220.238.212,Russia,Moscow,55.75222,37.61556,83.220.236.0/22,BEE-MSK-GPRS-FW,Android,5.1,Chrome Mobile, 44.0.2403,True,f986865e-829f-43ce-b7e8-e3328e57c765,e16edfc7ccd57ea881487fd1f138a2e8c61ab012
1653,83.220.239.193,Russia,Moscow,55.75222,37.61556,83.220.236.0/22,BEE-MSK-GPRS-FW,Android,5.1,Chrome Mobile, 44.0.2403,True,f986865e-829f-43ce-b7e8-e3328e57c765,e16edfc7ccd57ea881487fd1f138a2e8c61ab012
1654,83.220.236.49,Russia,Moscow,55.75222,37.61556,83.220.236.0/22,BEE-MSK-GPRS-FW,Android,5.1,Chrome Mobile, 44.0.2403,True,f986865e-829f-43ce-b7e8-e3328e57c765,e16edfc7ccd57ea881487fd1f138a2e8c61ab012
1655,95.31.169.84,Russia,Tver,56.85836,35.90057,95.31.160.0/19,BEELINE-BROADBAND,Android,5.1,Chrome Mobile, 44.0.2403,True,f986865e-829f-43ce-b7e8-e3328e57c765,e16edfc7ccd57ea881487fd1f138a2e8c61ab012
1657,92.100.23.164,Russia,Saint Petersburg,59.93863,30.31413,92.100.0.0/17,RU-AVANGARD-DSL,Android,6.0,Chrome Mobile, 44.0.2403,True,69c5d273-55d9-4ae3-96b8-cbaf209ca370,f4aa6fa730b8e81970c83f1cd2024d7104eddfab
1658,188.170.82.15,Russia,Saint Petersburg,59.93863,30.31413,188.170.80.0/20,MF-NW-188-170-80,Android,6.0,Chrome Mobile, 44.0.2403,True,69c5d273-55d9-4ae3-96b8-cbaf209ca370,f4aa6fa730b8e81970c83f1cd2024d7104eddfab
1659,188.170.82.139,Russia,Saint Petersburg,59.93863,30.31413,188.170.80.0/20,MF-NW-188-170-80,Android,6.0,Chrome Mobile, 44.0.2403,True,69c5d273-55d9-4ae3-96b8-cbaf209ca370,f4aa6fa730b8e81970c83f1cd2024d7104eddfab
1660,188.170.81.139,Russia,Saint Petersburg,59.93863,30.31413,188.170.80.0/20,MF-NW-188-170-80,Android,6.0,Chrome Mobile, 44.0.2403,True,69c5d273-55d9-4ae3-96b8-cbaf209ca370,f4aa6fa730b8e81970c83f1cd2024d7104eddfab
1661,188.170.82.46,Russia,Saint Petersburg,59.93863,30.31413,188.170.80.0/20,MF-NW-188-170-80,Android,6.0,Chrome Mobile, 44.0.2403,True,69c5d273-55d9-4ae3-96b8-cbaf209ca370,f4aa6fa730b8e81970c83f1cd2024d7104eddfab
1662,188.170.73.251,Russia,Saint Petersburg,59.93863,30.31413,188.170.64.0/19,MF-NWGSM-188-170-92,Android,6.0,Chrome Mobile, 44.0.2403,True,69c5d273-55d9-4ae3-96b8-cbaf209ca370,f4aa6fa730b8e81970c83f1cd2024d7104eddfab
1663,188.170.74.221,Russia,Saint Petersburg,59.93863,30.31413,188.170.64.0/19,MF-NWGSM-188-170-92,Android,6.0,Chrome Mobile, 44.0.2403,True,69c5d273-55d9-4ae3-96b8-cbaf209ca370,f4aa6fa730b8e81970c83f1cd2024d7104eddfab
1664,178.71.203.11,Russia,Saint Petersburg,59.93863,30.31413,178.71.0.0/16,RU-AVANGARD-DSL,Android,6.0,Chrome Mobile, 44.0.2403,True,69c5d273-55d9-4ae3-96b8-cbaf209ca370,f4aa6fa730b8e81970c83f1cd2024d7104eddfab
1665,178.71.165.88,Russia,Saint Petersburg,59.93863,30.31413,178.71.0.0/16,RU-AVANGARD-DSL,Android,6.0,Chrome Mobile, 44.0.2403,True,69c5d273-55d9-4ae3-96b8-cbaf209ca370,f4aa6fa730b8e81970c83f1cd2024d7104eddfab
1666,178.71.169.4,Russia,Saint Petersburg,59.93863,30.31413,178.71.0.0/16,RU-AVANGARD-DSL,Android,6.0,Chrome Mobile, 44.0.2403,True,69c5d273-55d9-4ae3-96b8-cbaf209ca370,f4aa6fa730b8e81970c83f1cd2024d7104eddfab
1667,92.100.17.238,Russia,Saint Petersburg,59.93863,30.31413,92.100.0.0/17,RU-AVANGARD-DSL,Android,6.0,Chrome Mobile, 44.0.2403,True,69c5d273-55d9-4ae3-96b8-cbaf209ca370,f4aa6fa730b8e81970c83f1cd2024d7104eddfab
1670,178.66.120.129,Russia,Saint Petersburg,59.93863,30.31413,178.66.0.0/16,RU-AVANGARD-DSL,Android,6.0,Chrome Mobile, 44.0.2403,True,9c70817b-8967-48fd-9dc4-660b38a59a8d,f4aa6fa730b8e81970c83f1cd2024d7104eddfab
1672,188.170.75.134,Russia,Saint Petersburg,59.93863,30.31413,188.170.64.0/19,MF-NWGSM-188-170-92,Android,6.0,Chrome Mobile, 44.0.2403,True,9c70817b-8967-48fd-9dc4-660b38a59a8d,f4aa6fa730b8e81970c83f1cd2024d7104eddfab
1673,188.170.72.48,Russia,Saint Petersburg,59.93863,30.31413,188.170.64.0/19,MF-NWGSM-188-170-92,Android,6.0,Chrome Mobile, 44.0.2403,True,9c70817b-8967-48fd-9dc4-660b38a59a8d,f4aa6fa730b8e81970c83f1cd2024d7104eddfab
1674,178.66.122.65,Russia,Saint Petersburg,59.93863,30.31413,178.66.0.0/16,RU-AVANGARD-DSL,Android,6.0,Chrome Mobile, 44.0.2403,True,9c70817b-8967-48fd-9dc4-660b38a59a8d,f4aa6fa730b8e81970c83f1cd2024d7104eddfab
1675,188.170.72.8,Russia,Saint Petersburg,59.93863,30.31413,188.170.64.0/19,MF-NWGSM-188-170-92,Android,6.0,Chrome Mobile, 44.0.2403,True,9c70817b-8967-48fd-9dc4-660b38a59a8d,f4aa6fa730b8e81970c83f1cd2024d7104eddfab
1676,188.170.72.247,Russia,Saint Petersburg,59.93863,30.31413,188.170.64.0/19,MF-NWGSM-188-170-92,Android,6.0,Chrome Mobile, 44.0.2403,True,9c70817b-8967-48fd-9dc4-660b38a59a8d,f4aa6fa730b8e81970c83f1cd2024d7104eddfab
1677,89.232.69.216,Russia,Kazan,55.78874,49.12214,89.232.68.0/22,TATTELECOM,iOS,11.4.1,Mobile Safari UI/WKWebView,,True,bde6410e-e904-4336-a483-ad8421599386,bf07c1d8685590e1e4128d115970ad372febf630
1678,178.204.73.13,Russia,Kazan,55.78874,49.12214,178.204.0.0/15,TATARBROADBANDNETS,iOS,11.4.1,Mobile Safari UI/WKWebView,,True,bde6410e-e904-4336-a483-ad8421599386,bf07c1d8685590e1e4128d115970ad372febf630
1679,91.107.97.62,Russia,Nizhnekamsk,55.63657,51.82447,91.107.96.0/21,RU-TATTELECOM-20120621,iOS,11.4.1,Mobile Safari UI/WKWebView,,True,bde6410e-e904-4336-a483-ad8421599386,bf07c1d8685590e1e4128d115970ad372febf630
1680,178.205.1.255,Russia,Kazan,55.78874,49.12214,178.204.0.0/15,TATARBROADBANDNETS,iOS,11.4.1,Mobile Safari UI/WKWebView,,True,bde6410e-e904-4336-a483-ad8421599386,bf07c1d8685590e1e4128d115970ad372febf630
1681,91.107.97.78,Russia,Nizhnekamsk,55.63657,51.82447,91.107.96.0/21,RU-TATTELECOM-20120621,iOS,11.4.1,Mobile Safari UI/WKWebView,,True,bde6410e-e904-4336-a483-ad8421599386,bf07c1d8685590e1e4128d115970ad372febf630
1682,178.204.160.205,Russia,Kazan,55.78874,49.12214,178.204.0.0/15,TATARBROADBANDNETS,iOS,11.4,Mobile Safari UI/WKWebView,,True,bde6410e-e904-4336-a483-ad8421599386,bf07c1d8685590e1e4128d115970ad372febf630
1683,178.204.135.97,Russia,Kazan,55.78874,49.12214,178.204.0.0/15,TATARBROADBANDNETS,iOS,11.4,Mobile Safari UI/WKWebView,,True,bde6410e-e904-4336-a483-ad8421599386,bf07c1d8685590e1e4128d115970ad372febf630
1684,91.107.98.16,Russia,Nizhnekamsk,55.63657,51.82447,91.107.96.0/21,RU-TATTELECOM-20120621,iOS,11.4,Mobile Safari UI/WKWebView,,True,bde6410e-e904-4336-a483-ad8421599386,bf07c1d8685590e1e4128d115970ad372febf630
1685,178.204.30.70,Russia,Kazan,55.78874,49.12214,178.204.0.0/15,TATARBROADBANDNETS,iOS,11.4,Mobile Safari UI/WKWebView,,True,bde6410e-e904-4336-a483-ad8421599386,bf07c1d8685590e1e4128d115970ad372febf630
1686,178.205.213.210,Russia,Kazan,55.78874,49.12214,178.204.0.0/15,TATARBROADBANDNETS,iOS,11.4,Mobile Safari UI/WKWebView,,True,bde6410e-e904-4336-a483-ad8421599386,bf07c1d8685590e1e4128d115970ad372febf630
1687,178.204.131.157,Russia,Kazan,55.78874,49.12214,178.204.0.0/15,TATARBROADBANDNETS,iOS,11.4,Mobile Safari UI/WKWebView,,True,bde6410e-e904-4336-a483-ad8421599386,bf07c1d8685590e1e4128d115970ad372febf630
1688,178.205.153.94,Russia,Kazan,55.78874,49.12214,178.204.0.0/15,TATARBROADBANDNETS,iOS,11.4,Mobile Safari UI/WKWebView,,True,bde6410e-e904-4336-a483-ad8421599386,bf07c1d8685590e1e4128d115970ad372febf630
1689,178.205.80.1,Russia,Kazan,55.78874,49.12214,178.204.0.0/15,TATARBROADBANDNETS,iOS,11.4,Mobile Safari UI/WKWebView,,True,bde6410e-e904-4336-a483-ad8421599386,bf07c1d8685590e1e4128d115970ad372febf630
1690,178.204.51.163,Russia,Kazan,55.78874,49.12214,178.204.0.0/15,TATARBROADBANDNETS,iOS,11.4,Mobile Safari UI/WKWebView,,True,bde6410e-e904-4336-a483-ad8421599386,bf07c1d8685590e1e4128d115970ad372febf630
1691,178.204.180.145,Russia,Kazan,55.78874,49.12214,178.204.0.0/15,TATARBROADBANDNETS,iOS,11.4,Mobile Safari UI/WKWebView,,True,bde6410e-e904-4336-a483-ad8421599386,bf07c1d8685590e1e4128d115970ad372febf630
1692,91.107.99.171,Russia,Naberezhnye Chelny,55.72545,52.41122,91.107.96.0/21,RU-TATTELECOM-20120621,iOS,11.4,Mobile Safari UI/WKWebView,,True,bde6410e-e904-4336-a483-ad8421599386,bf07c1d8685590e1e4128d115970ad372febf630
1693,89.232.71.201,Russia,Kazan,55.78874,49.12214,89.232.68.0/22,TATTELECOM,iOS,11.4,Mobile Safari UI/WKWebView,,True,bde6410e-e904-4336-a483-ad8421599386,bf07c1d8685590e1e4128d115970ad372febf630
1694,178.204.116.135,Russia,Kazan,55.78874,49.12214,178.204.0.0/15,TATARBROADBANDNETS,iOS,11.4,Mobile Safari UI/WKWebView,,True,bde6410e-e904-4336-a483-ad8421599386,bf07c1d8685590e1e4128d115970ad372febf630
1695,178.204.82.72,Russia,Kazan,55.78874,49.12214,178.204.0.0/15,TATARBROADBANDNETS,iOS,11.2.6,Mobile Safari UI/WKWebView,,True,bde6410e-e904-4336-a483-ad8421599386,bf07c1d8685590e1e4128d115970ad372febf630
1696,89.232.87.94,Russia,Kazan,55.78874,49.12214,89.232.87.0/24,TATTELECOM-PPPOE-CUSTOMERS,iOS,11.2.6,Mobile Safari UI/WKWebView,,True,bde6410e-e904-4336-a483-ad8421599386,bf07c1d8685590e1e4128d115970ad372febf630
1697,91.107.99.94,Russia,Naberezhnye Chelny,55.72545,52.41122,91.107.96.0/21,RU-TATTELECOM-20120621,iOS,11.2.6,Mobile Safari UI/WKWebView,,True,bde6410e-e904-4336-a483-ad8421599386,bf07c1d8685590e1e4128d115970ad372febf630
1698,178.204.123.123,Russia,,60.0,100.0,178.204.0.0/15,TATARBROADBANDNETS,iOS,11.2.6,Mobile Safari UI/WKWebView,,True,bde6410e-e904-4336-a483-ad8421599386,bf07c1d8685590e1e4128d115970ad372febf630
1699,178.204.61.169,Russia,Kazan,55.78874,49.12214,178.204.0.0/15,TATARBROADBANDNETS,iOS,11.2.6,Mobile Safari UI/WKWebView,,True,bde6410e-e904-4336-a483-ad8421599386,bf07c1d8685590e1e4128d115970ad372febf630
1700,178.205.165.115,Russia,Kazan,55.78874,49.12214,178.204.0.0/15,TATARBROADBANDNETS,iOS,11.2.6,Mobile Safari UI/WKWebView,,True,bde6410e-e904-4336-a483-ad8421599386,bf07c1d8685590e1e4128d115970ad372febf630
1701,178.205.39.14,Russia,Kazan,55.78874,49.12214,178.204.0.0/15,TATARBROADBANDNETS,iOS,11.2.6,Mobile Safari UI/WKWebView,,True,bde6410e-e904-4336-a483-ad8421599386,bf07c1d8685590e1e4128d115970ad372febf630
1702,178.205.218.29,Russia,Kazan,55.78874,49.12214,178.204.0.0/15,TATARBROADBANDNETS,iOS,11.2.6,Mobile Safari UI/WKWebView,,True,bde6410e-e904-4336-a483-ad8421599386,bf07c1d8685590e1e4128d115970ad372febf630
1703,178.204.72.141,Russia,Kazan,55.78874,49.12214,178.204.0.0/15,TATARBROADBANDNETS,iOS,11.2.6,Mobile Safari UI/WKWebView,,True,bde6410e-e904-4336-a483-ad8421599386,bf07c1d8685590e1e4128d115970ad372febf630
1704,178.205.38.120,Russia,Kazan,55.78874,49.12214,178.204.0.0/15,TATARBROADBANDNETS,iOS,11.2.6,Mobile Safari UI/WKWebView,,True,bde6410e-e904-4336-a483-ad8421599386,bf07c1d8685590e1e4128d115970ad372febf630
1705,178.204.80.26,Russia,Kazan,55.78874,49.12214,178.204.0.0/15,TATARBROADBANDNETS,iOS,11.2.6,Mobile Safari UI/WKWebView,,True,bde6410e-e904-4336-a483-ad8421599386,bf07c1d8685590e1e4128d115970ad372febf630
1706,188.225.114.52,Russia,Kazan,55.78874,49.12214,188.225.96.0/19,RU-TATTELECOM-20090622,iOS,11.2.6,Mobile Safari UI/WKWebView,,True,bde6410e-e904-4336-a483-ad8421599386,bf07c1d8685590e1e4128d115970ad372febf630
1707,46.191.225.228,Russia,Kazan,55.78874,49.12214,46.191.224.0/22,UBN,Android,6.0,Chrome Mobile, 66.0.3359,True,a93e6131-4840-4a6f-ad35-61f477e42397,bf07c1d8685590e1e4128d115970ad372febf630
1708,178.204.123.143,Russia,Kazan,55.78874,49.12214,178.204.0.0/15,TATARBROADBANDNETS,Android,6.0,Chrome Mobile, 66.0.3359,True,a93e6131-4840-4a6f-ad35-61f477e42397,bf07c1d8685590e1e4128d115970ad372febf630
1709,178.205.89.114,Russia,Kazan,55.78874,49.12214,178.204.0.0/15,TATARBROADBANDNETS,Android,6.0,Chrome Mobile, 66.0.3359,True,a93e6131-4840-4a6f-ad35-61f477e42397,bf07c1d8685590e1e4128d115970ad372febf630
1710,178.204.221.49,Russia,Kazan,55.78874,49.12214,178.204.0.0/15,TATARBROADBANDNETS,Android,6.0,Chrome Mobile, 66.0.3359,True,a93e6131-4840-4a6f-ad35-61f477e42397,bf07c1d8685590e1e4128d115970ad372febf630
1711,178.204.14.130,Russia,Kazan,55.78874,49.12214,178.204.0.0/15,TATARBROADBANDNETS,Android,6.0,Chrome Mobile, 66.0.3359,True,a93e6131-4840-4a6f-ad35-61f477e42397,bf07c1d8685590e1e4128d115970ad372febf630
1712,178.205.23.232,Russia,Kazan,55.78874,49.12214,178.204.0.0/15,TATARBROADBANDNETS,Android,6.0,Chrome Mobile, 66.0.3359,True,a93e6131-4840-4a6f-ad35-61f477e42397,bf07c1d8685590e1e4128d115970ad372febf630
1713,91.107.100.170,Russia,Kazan,55.78874,49.12214,91.107.96.0/21,RU-TATTELECOM-20120621,Android,6.0,Chrome Mobile, 66.0.3359,True,a93e6131-4840-4a6f-ad35-61f477e42397,bf07c1d8685590e1e4128d115970ad372febf630
1714,178.205.212.236,Russia,Kazan,55.78874,49.12214,178.204.0.0/15,TATARBROADBANDNETS,Android,6.0,Chrome Mobile, 66.0.3359,True,a93e6131-4840-4a6f-ad35-61f477e42397,bf07c1d8685590e1e4128d115970ad372febf630
1715,178.204.119.157,Russia,Kazan,55.78874,49.12214,178.204.0.0/15,TATARBROADBANDNETS,Android,6.0,Chrome Mobile, 66.0.3359,True,a93e6131-4840-4a6f-ad35-61f477e42397,bf07c1d8685590e1e4128d115970ad372febf630
1716,178.205.236.135,Russia,Kazan,55.78874,49.12214,178.204.0.0/15,TATARBROADBANDNETS,Android,6.0,Chrome Mobile, 66.0.3359,True,a93e6131-4840-4a6f-ad35-61f477e42397,bf07c1d8685590e1e4128d115970ad372febf630
1717,178.204.3.169,Russia,Kazan,55.78874,49.12214,178.204.0.0/15,TATARBROADBANDNETS,Android,6.0,Chrome Mobile, 66.0.3359,True,a93e6131-4840-4a6f-ad35-61f477e42397,bf07c1d8685590e1e4128d115970ad372febf630
1718,178.204.190.81,Russia,Kazan,55.78874,49.12214,178.204.0.0/15,TATARBROADBANDNETS,Android,6.0,Chrome Mobile, 66.0.3359,True,a93e6131-4840-4a6f-ad35-61f477e42397,bf07c1d8685590e1e4128d115970ad372febf630
1719,178.205.94.167,Russia,,60.0,100.0,178.204.0.0/15,TATARBROADBANDNETS,Android,6.0,Chrome Mobile, 65.0.3325,True,a93e6131-4840-4a6f-ad35-61f477e42397,bf07c1d8685590e1e4128d115970ad372febf630
1720,178.204.230.118,Russia,Kazan,55.78874,49.12214,178.204.0.0/15,TATARBROADBANDNETS,Android,6.0,Chrome Mobile, 65.0.3325,True,a93e6131-4840-4a6f-ad35-61f477e42397,bf07c1d8685590e1e4128d115970ad372febf630
1721,178.204.192.33,Russia,Kazan,55.78874,49.12214,178.204.0.0/15,TATARBROADBANDNETS,Android,6.0,Chrome Mobile, 65.0.3325,True,a93e6131-4840-4a6f-ad35-61f477e42397,bf07c1d8685590e1e4128d115970ad372febf630
1722,178.204.139.80,Russia,Kazan,55.78874,49.12214,178.204.0.0/15,TATARBROADBANDNETS,Android,6.0,Chrome Mobile, 65.0.3325,True,a93e6131-4840-4a6f-ad35-61f477e42397,bf07c1d8685590e1e4128d115970ad372febf630
1723,89.232.85.154,Russia,Kazan,55.78874,49.12214,89.232.85.0/24,TATTELECOM-PPPOE-CUSTOMERS,Android,6.0,Chrome Mobile, 65.0.3325,True,a93e6131-4840-4a6f-ad35-61f477e42397,bf07c1d8685590e1e4128d115970ad372febf630
1724,178.65.40.88,Russia,Syktyvkar,61.67642,50.80994,178.65.0.0/17,RU-AVANGARD-DSL,Android,6.0,Chrome Mobile, 67.0.3396,True,80e1a08e-3ea8-4b4c-80d9-60e6ba593534,f9699f85c166d88f14e9b295d96719ea00976649
1725,176.59.5.12,Russia,Saint Petersburg,59.93863,30.31413,176.59.0.0/19,TELE2RU-SUBSCRIBER-POOL-NET,Android,6.0,Chrome Mobile, 67.0.3396,True,80e1a08e-3ea8-4b4c-80d9-60e6ba593534,f9699f85c166d88f14e9b295d96719ea00976649
1726,176.59.19.126,Russia,Saint Petersburg,59.93863,30.31413,176.59.0.0/19,TELE2RU-SUBSCRIBER-POOL-NET,Android,6.0,Chrome Mobile, 67.0.3396,True,80e1a08e-3ea8-4b4c-80d9-60e6ba593534,f9699f85c166d88f14e9b295d96719ea00976649
1727,176.59.11.23,Russia,Saint Petersburg,59.93863,30.31413,176.59.0.0/19,TELE2RU-SUBSCRIBER-POOL-NET,Android,6.0,Chrome Mobile, 67.0.3396,True,80e1a08e-3ea8-4b4c-80d9-60e6ba593534,f9699f85c166d88f14e9b295d96719ea00976649
1728,5.142.41.28,Russia,,60.0,100.0,5.142.0.0/18,RU-AVANGARD-DSL,Android,6.0,Chrome Mobile, 67.0.3396,True,80e1a08e-3ea8-4b4c-80d9-60e6ba593534,f9699f85c166d88f14e9b295d96719ea00976649
1729,176.59.47.170,Russia,Moscow,55.75222,37.61556,176.59.32.0/19,TELE2RU-SUBSCRIBER-POOL-NET,Android,6.0,Chrome Mobile, 66.0.3359,True,80e1a08e-3ea8-4b4c-80d9-60e6ba593534,f9699f85c166d88f14e9b295d96719ea00976649
1730,95.52.237.240,Russia,Syktyvkar,61.67642,50.80994,95.52.232.0/21,RU-AVANGARD-DSL,Android,6.0,Chrome Mobile, 66.0.3359,True,80e1a08e-3ea8-4b4c-80d9-60e6ba593534,f9699f85c166d88f14e9b295d96719ea00976649
1731,62.165.23.187,Russia,Syktyvkar,61.67642,50.80994,62.165.16.0/20,RU-AVANGARD-DSL,Android,6.0,Chrome Mobile, 66.0.3359,True,80e1a08e-3ea8-4b4c-80d9-60e6ba593534,f9699f85c166d88f14e9b295d96719ea00976649
1732,176.59.12.224,Russia,Saint Petersburg,59.93863,30.31413,176.59.0.0/19,TELE2RU-SUBSCRIBER-POOL-NET,Android,6.0,Chrome Mobile, 66.0.3359,True,80e1a08e-3ea8-4b4c-80d9-60e6ba593534,f9699f85c166d88f14e9b295d96719ea00976649
1733,176.59.21.64,Russia,Saint Petersburg,59.93863,30.31413,176.59.0.0/19,TELE2RU-SUBSCRIBER-POOL-NET,Android,6.0,Chrome Mobile, 66.0.3359,True,80e1a08e-3ea8-4b4c-80d9-60e6ba593534,f9699f85c166d88f14e9b295d96719ea00976649
1734,176.59.0.53,Russia,Saint Petersburg,59.93863,30.31413,176.59.0.0/19,TELE2RU-SUBSCRIBER-POOL-NET,Android,6.0,Chrome Mobile, 66.0.3359,True,80e1a08e-3ea8-4b4c-80d9-60e6ba593534,f9699f85c166d88f14e9b295d96719ea00976649
1735,176.59.20.66,Russia,Saint Petersburg,59.93863,30.31413,176.59.0.0/19,TELE2RU-SUBSCRIBER-POOL-NET,Android,6.0,Chrome Mobile, 66.0.3359,True,80e1a08e-3ea8-4b4c-80d9-60e6ba593534,f9699f85c166d88f14e9b295d96719ea00976649
1736,176.59.14.225,Russia,Saint Petersburg,59.93863,30.31413,176.59.0.0/19,TELE2RU-SUBSCRIBER-POOL-NET,Android,6.0,Chrome Mobile, 66.0.3359,True,80e1a08e-3ea8-4b4c-80d9-60e6ba593534,f9699f85c166d88f14e9b295d96719ea00976649
1737,176.59.7.115,Russia,Saint Petersburg,59.93863,30.31413,176.59.0.0/19,TELE2RU-SUBSCRIBER-POOL-NET,Android,6.0,Chrome Mobile, 66.0.3359,True,80e1a08e-3ea8-4b4c-80d9-60e6ba593534,f9699f85c166d88f14e9b295d96719ea00976649
1738,176.59.21.92,Russia,Saint Petersburg,59.93863,30.31413,176.59.0.0/19,TELE2RU-SUBSCRIBER-POOL-NET,Android,6.0,Chrome Mobile, 66.0.3359,True,80e1a08e-3ea8-4b4c-80d9-60e6ba593534,f9699f85c166d88f14e9b295d96719ea00976649
1739,176.59.18.75,Russia,Saint Petersburg,59.93863,30.31413,176.59.0.0/19,TELE2RU-SUBSCRIBER-POOL-NET,Android,6.0,Chrome Mobile, 66.0.3359,True,80e1a08e-3ea8-4b4c-80d9-60e6ba593534,f9699f85c166d88f14e9b295d96719ea00976649
1740,176.59.17.229,Russia,Saint Petersburg,59.93863,30.31413,176.59.0.0/19,TELE2RU-SUBSCRIBER-POOL-NET,Android,6.0,Chrome Mobile, 66.0.3359,True,80e1a08e-3ea8-4b4c-80d9-60e6ba593534,f9699f85c166d88f14e9b295d96719ea00976649
1741,176.59.18.116,Russia,Saint Petersburg,59.93863,30.31413,176.59.0.0/19,TELE2RU-SUBSCRIBER-POOL-NET,Android,6.0,Chrome Mobile, 66.0.3359,True,80e1a08e-3ea8-4b4c-80d9-60e6ba593534,f9699f85c166d88f14e9b295d96719ea00976649
1742,176.59.19.137,Russia,Saint Petersburg,59.93863,30.31413,176.59.0.0/19,TELE2RU-SUBSCRIBER-POOL-NET,Android,6.0,Chrome Mobile, 66.0.3359,True,80e1a08e-3ea8-4b4c-80d9-60e6ba593534,f9699f85c166d88f14e9b295d96719ea00976649
1743,79.173.87.109,Russia,Gatchina,59.57639,30.12833,79.173.80.0/20,ITREGION-NET,Android,6.0,Chrome Mobile, 66.0.3359,True,80e1a08e-3ea8-4b4c-80d9-60e6ba593534,f9699f85c166d88f14e9b295d96719ea00976649
1744,176.59.3.12,Russia,Saint Petersburg,59.93863,30.31413,176.59.0.0/19,TELE2RU-SUBSCRIBER-POOL-NET,Android,6.0,Chrome Mobile, 66.0.3359,True,80e1a08e-3ea8-4b4c-80d9-60e6ba593534,f9699f85c166d88f14e9b295d96719ea00976649
1745,176.59.19.10,Russia,Saint Petersburg,59.93863,30.31413,176.59.0.0/19,TELE2RU-SUBSCRIBER-POOL-NET,Android,6.0,Chrome Mobile, 66.0.3359,True,80e1a08e-3ea8-4b4c-80d9-60e6ba593534,f9699f85c166d88f14e9b295d96719ea00976649
1746,176.59.21.26,Russia,Saint Petersburg,59.93863,30.31413,176.59.0.0/19,TELE2RU-SUBSCRIBER-POOL-NET,Android,6.0,Chrome Mobile, 66.0.3359,True,80e1a08e-3ea8-4b4c-80d9-60e6ba593534,f9699f85c166d88f14e9b295d96719ea00976649
1747,176.59.10.154,Russia,Saint Petersburg,59.93863,30.31413,176.59.0.0/19,TELE2RU-SUBSCRIBER-POOL-NET,Android,6.0,Chrome Mobile, 65.0.3325,True,80e1a08e-3ea8-4b4c-80d9-60e6ba593534,f9699f85c166d88f14e9b295d96719ea00976649
1748,5.142.23.164,Russia,Syktyvkar,61.67642,50.80994,5.142.0.0/18,RU-AVANGARD-DSL,Android,6.0,Chrome Mobile, 65.0.3325,True,80e1a08e-3ea8-4b4c-80d9-60e6ba593534,f9699f85c166d88f14e9b295d96719ea00976649
1749,91.122.175.130,Russia,Syktyvkar,61.67642,50.80994,91.122.128.0/18,RU-AVANGARD-DSL,Android,6.0,Chrome Mobile, 65.0.3325,True,80e1a08e-3ea8-4b4c-80d9-60e6ba593534,f9699f85c166d88f14e9b295d96719ea00976649
1750,176.59.13.109,Russia,Saint Petersburg,59.93863,30.31413,176.59.0.0/19,TELE2RU-SUBSCRIBER-POOL-NET,Android,6.0,Chrome Mobile, 65.0.3325,True,80e1a08e-3ea8-4b4c-80d9-60e6ba593534,f9699f85c166d88f14e9b295d96719ea00976649
1751,176.59.19.138,Russia,Saint Petersburg,59.93863,30.31413,176.59.0.0/19,TELE2RU-SUBSCRIBER-POOL-NET,Android,6.0,Chrome Mobile, 65.0.3325,True,80e1a08e-3ea8-4b4c-80d9-60e6ba593534,f9699f85c166d88f14e9b295d96719ea00976649
1752,176.59.12.186,Russia,Saint Petersburg,59.93863,30.31413,176.59.0.0/19,TELE2RU-SUBSCRIBER-POOL-NET,Android,6.0,Chrome Mobile, 65.0.3325,True,80e1a08e-3ea8-4b4c-80d9-60e6ba593534,f9699f85c166d88f14e9b295d96719ea00976649
1753,176.59.20.201,Russia,Saint Petersburg,59.93863,30.31413,176.59.0.0/19,TELE2RU-SUBSCRIBER-POOL-NET,Android,6.0,Chrome Mobile, 65.0.3325,True,80e1a08e-3ea8-4b4c-80d9-60e6ba593534,f9699f85c166d88f14e9b295d96719ea00976649
1754,176.59.9.78,Russia,Saint Petersburg,59.93863,30.31413,176.59.0.0/19,TELE2RU-SUBSCRIBER-POOL-NET,Android,6.0,Chrome Mobile, 65.0.3325,True,80e1a08e-3ea8-4b4c-80d9-60e6ba593534,f9699f85c166d88f14e9b295d96719ea00976649
1755,176.59.20.62,Russia,Saint Petersburg,59.93863,30.31413,176.59.0.0/19,TELE2RU-SUBSCRIBER-POOL-NET,Android,6.0,Chrome Mobile, 65.0.3325,True,80e1a08e-3ea8-4b4c-80d9-60e6ba593534,f9699f85c166d88f14e9b295d96719ea00976649
1756,5.142.7.209,Russia,Syktyvkar,61.67642,50.80994,5.142.0.0/18,RU-AVANGARD-DSL,Android,6.0,Chrome Mobile, 65.0.3325,True,80e1a08e-3ea8-4b4c-80d9-60e6ba593534,f9699f85c166d88f14e9b295d96719ea00976649
1757,62.165.22.2,Russia,Syktyvkar,61.67642,50.80994,62.165.16.0/20,RU-AVANGARD-DSL,Android,6.0,Chrome Mobile, 65.0.3325,True,80e1a08e-3ea8-4b4c-80d9-60e6ba593534,f9699f85c166d88f14e9b295d96719ea00976649
1758,178.65.1.95,Russia,Syktyvkar,61.67642,50.80994,178.65.0.0/17,RU-AVANGARD-DSL,Android,6.0,Chrome Mobile, 65.0.3325,True,80e1a08e-3ea8-4b4c-80d9-60e6ba593534,f9699f85c166d88f14e9b295d96719ea00976649
1759,176.59.3.84,Russia,Saint Petersburg,59.93863,30.31413,176.59.0.0/19,TELE2RU-SUBSCRIBER-POOL-NET,Android,6.0,Chrome Mobile, 65.0.3325,True,80e1a08e-3ea8-4b4c-80d9-60e6ba593534,f9699f85c166d88f14e9b295d96719ea00976649
1778,31.173.85.31,Russia,Moscow,55.75222,37.61556,31.173.80.0/21,MF-GNOC-STF-CGN-20150729,Android,5.1,Chrome, 46.0.2490,True,8e746815-9e8d-4394-828d-380f4202eb9e,3193755c48156b1492d31a2be922779ca5cbf01d
1779,217.118.81.219,Russia,Krasnodar,45.04484,38.97603,217.118.80.0/22,BEEWLAN1,iOS,10.3.3,Mobile Safari UI/WKWebView,,True,d7ecc406-c401-43b5-8959-32f6f13018e1,b84cc08d4a580e833544a9fea8f93d56f3b29fd9
1780,217.118.81.227,Russia,Krasnodar,45.04484,38.97603,217.118.80.0/22,BEEWLAN1,iOS,11.2.1,Mobile Safari UI/WKWebView,,True,22aa8cc9-c995-4011-af76-cc4ea769492d,b84cc08d4a580e833544a9fea8f93d56f3b29fd9
1781,217.118.81.196,Russia,Krasnodar,45.04484,38.97603,217.118.80.0/22,BEEWLAN1,iOS,10.3.3,Mobile Safari UI/WKWebView,,True,d7ecc406-c401-43b5-8959-32f6f13018e1,b84cc08d4a580e833544a9fea8f93d56f3b29fd9
1782,217.118.81.28,Russia,Rostov-on-Don,47.23135,39.72328,217.118.80.0/22,BEEWLAN1,iOS,11.2.1,Mobile Safari UI/WKWebView,,True,22aa8cc9-c995-4011-af76-cc4ea769492d,b84cc08d4a580e833544a9fea8f93d56f3b29fd9
1783,217.118.81.197,Russia,Krasnodar,45.04484,38.97603,217.118.80.0/22,BEEWLAN1,iOS,11.2.1,Mobile Safari UI/WKWebView,,True,22aa8cc9-c995-4011-af76-cc4ea769492d,b84cc08d4a580e833544a9fea8f93d56f3b29fd9
1784,81.177.254.235,Russia,Elista,46.30778,44.25583,81.177.254.0/23,UgSelhoz-net,iOS,10.3.3,Mobile Safari UI/WKWebView,,True,d7ecc406-c401-43b5-8959-32f6f13018e1,b84cc08d4a580e833544a9fea8f93d56f3b29fd9
1785,81.177.254.235,Russia,Elista,46.30778,44.25583,81.177.254.0/23,UgSelhoz-net,iOS,11.2.1,Mobile Safari UI/WKWebView,,True,22aa8cc9-c995-4011-af76-cc4ea769492d,b84cc08d4a580e833544a9fea8f93d56f3b29fd9
1786,81.177.254.240,Russia,Elista,46.30778,44.25583,81.177.254.0/23,UgSelhoz-net,iOS,10.3.3,Mobile Safari UI/WKWebView,,True,d7ecc406-c401-43b5-8959-32f6f13018e1,b84cc08d4a580e833544a9fea8f93d56f3b29fd9
1787,217.118.81.22,Russia,,60.0,100.0,217.118.80.0/22,BEEWLAN1,iOS,10.3.3,Mobile Safari UI/WKWebView,,True,d7ecc406-c401-43b5-8959-32f6f13018e1,b84cc08d4a580e833544a9fea8f93d56f3b29fd9
1788,217.118.81.25,Russia,Rostov-on-Don,47.23135,39.72328,217.118.80.0/22,BEEWLAN1,iOS,10.3.3,Mobile Safari UI/WKWebView,,True,d7ecc406-c401-43b5-8959-32f6f13018e1,b84cc08d4a580e833544a9fea8f93d56f3b29fd9
1789,81.177.255.64,Russia,Elista,46.30778,44.25583,81.177.254.0/23,UgSelhoz-net,iOS,10.3.3,Mobile Safari UI/WKWebView,,True,d7ecc406-c401-43b5-8959-32f6f13018e1,b84cc08d4a580e833544a9fea8f93d56f3b29fd9
1790,217.118.81.217,Russia,Krasnodar,45.04484,38.97603,217.118.80.0/22,BEEWLAN1,iOS,10.3.3,Mobile Safari UI/WKWebView,,True,d7ecc406-c401-43b5-8959-32f6f13018e1,b84cc08d4a580e833544a9fea8f93d56f3b29fd9
1791,217.118.81.19,Russia,Rostov-on-Don,47.23135,39.72328,217.118.80.0/22,BEEWLAN1,iOS,10.3.3,Mobile Safari UI/WKWebView,,True,d7ecc406-c401-43b5-8959-32f6f13018e1,b84cc08d4a580e833544a9fea8f93d56f3b29fd9
1792,217.118.81.20,Russia,Krasnodar,45.04484,38.97603,217.118.80.0/22,BEEWLAN1,iOS,11.2.1,Mobile Safari UI/WKWebView,,True,22aa8cc9-c995-4011-af76-cc4ea769492d,b84cc08d4a580e833544a9fea8f93d56f3b29fd9
1793,217.118.81.20,Russia,Krasnodar,45.04484,38.97603,217.118.80.0/22,BEEWLAN1,Android,6.0.1,Chrome Mobile, 67.0.3396,True,51b573a3-1969-4d99-8ddb-a866cf50e88c,094756051b627fa58bd745ee1883a0a017ce623b
1798,83.220.237.22,Russia,Moscow,55.75222,37.61556,83.220.236.0/22,BEE-MSK-GPRS-FW,Android,5.1,Chrome, 67.0.3396,True,de156afc-565e-47b0-a8a1-b9b754b2b981,686e3c09ebab29aa246a9ce6868a0659d8c65055
1799,83.220.237.22,Russia,Moscow,55.75222,37.61556,83.220.236.0/22,BEE-MSK-GPRS-FW,Android,5.1,Chrome, 67.0.3396,True,de156afc-565e-47b0-a8a1-b9b754b2b981,e34cede14d7469957986c632404885265d595d24
1801,80.240.105.237,Russia,Moscow,55.75222,37.61556,80.240.105.0/24,ClientNet,Android,5.1,Chrome, 67.0.3396,True,de156afc-565e-47b0-a8a1-b9b754b2b981,e34cede14d7469957986c632404885265d595d24
1802,80.240.105.237,Russia,Moscow,55.75222,37.61556,80.240.105.0/24,ClientNet,Android,5.1,Chrome, 67.0.3396,True,de156afc-565e-47b0-a8a1-b9b754b2b981,bcde713056d84ad509ce1900f0dfd525892e7a06
1805,83.220.238.107,Russia,Moscow,55.75222,37.61556,83.220.236.0/22,BEE-MSK-GPRS-FW,Android,5.1,Chrome, 67.0.3396,True,de156afc-565e-47b0-a8a1-b9b754b2b981,e34cede14d7469957986c632404885265d595d24
1806,79.111.80.195,Russia,Moscow,55.75222,37.61556,79.111.0.0/17,TI-BB,Android,5.1,Chrome, 67.0.3396,True,de156afc-565e-47b0-a8a1-b9b754b2b981,e34cede14d7469957986c632404885265d595d24
1807,5.16.0.32,Russia,Moscow,55.75222,37.61556,5.16.0.0/21,ENFORTA-MSK,Android,5.1,Chrome, 67.0.3396,True,de156afc-565e-47b0-a8a1-b9b754b2b981,e34cede14d7469957986c632404885265d595d24
1808,83.220.238.28,Russia,Moscow,55.75222,37.61556,83.220.236.0/22,BEE-MSK-GPRS-FW,Android,5.1,Chrome, 67.0.3396,True,de156afc-565e-47b0-a8a1-b9b754b2b981,e34cede14d7469957986c632404885265d595d24
1809,83.220.238.131,Russia,Moscow,55.75222,37.61556,83.220.236.0/22,BEE-MSK-GPRS-FW,Android,5.1,Chrome, 67.0.3396,True,de156afc-565e-47b0-a8a1-b9b754b2b981,bcde713056d84ad509ce1900f0dfd525892e7a06
1810,83.220.238.131,Russia,Moscow,55.75222,37.61556,83.220.236.0/22,BEE-MSK-GPRS-FW,Android,5.1,Chrome, 67.0.3396,True,de156afc-565e-47b0-a8a1-b9b754b2b981,e34cede14d7469957986c632404885265d595d24
1811,83.220.239.23,Russia,Moscow,55.75222,37.61556,83.220.236.0/22,BEE-MSK-GPRS-FW,Android,5.1,Chrome, 67.0.3396,True,de156afc-565e-47b0-a8a1-b9b754b2b981,e34cede14d7469957986c632404885265d595d24
1812,185.79.102.117,Russia,Moscow,55.75222,37.61556,185.79.102.0/24,RU_MAXMNT_NAT_POOL_2,Android,5.1,Chrome, 67.0.3396,True,de156afc-565e-47b0-a8a1-b9b754b2b981,e34cede14d7469957986c632404885265d595d24
1813,83.220.238.233,Russia,Moscow,55.75222,37.61556,83.220.236.0/22,BEE-MSK-GPRS-FW,Android,5.1,Chrome, 67.0.3396,True,de156afc-565e-47b0-a8a1-b9b754b2b981,e34cede14d7469957986c632404885265d595d24
1814,83.220.239.4,Russia,Moscow,55.75222,37.61556,83.220.236.0/22,BEE-MSK-GPRS-FW,Android,5.1,Chrome, 67.0.3396,True,de156afc-565e-47b0-a8a1-b9b754b2b981,e34cede14d7469957986c632404885265d595d24
1815,46.52.179.186,Russia,Moscow,55.75222,37.61556,46.52.176.0/21,ENFORTA-MSK,Android,5.1,Chrome, 67.0.3396,True,de156afc-565e-47b0-a8a1-b9b754b2b981,e34cede14d7469957986c632404885265d595d24
1816,46.52.179.186,Russia,Moscow,55.75222,37.61556,46.52.176.0/21,ENFORTA-MSK,Android,5.1,Chrome, 67.0.3396,True,de156afc-565e-47b0-a8a1-b9b754b2b981,bcde713056d84ad509ce1900f0dfd525892e7a06
1817,185.79.100.118,Russia,Moscow,55.75222,37.61556,185.79.100.0/24,RU_MAXMNT_NAT_POOL_0,Android,5.1,Chrome, 67.0.3396,True,de156afc-565e-47b0-a8a1-b9b754b2b981,e34cede14d7469957986c632404885265d595d24
1818,176.213.134.241,Russia,Moscow,55.75222,37.61556,176.213.132.0/22,ERTH-MOSCOW-IPOE-2-NET,Android,5.1,Chrome, 67.0.3396,True,de156afc-565e-47b0-a8a1-b9b754b2b981,bcde713056d84ad509ce1900f0dfd525892e7a06
1819,176.213.134.241,Russia,Moscow,55.75222,37.61556,176.213.132.0/22,ERTH-MOSCOW-IPOE-2-NET,Android,5.1,Chrome, 67.0.3396,True,de156afc-565e-47b0-a8a1-b9b754b2b981,e34cede14d7469957986c632404885265d595d24
1820,176.213.132.255,Russia,Moscow,55.75222,37.61556,176.213.132.0/22,ERTH-MOSCOW-IPOE-2-NET,Android,5.1,Chrome, 67.0.3396,True,de156afc-565e-47b0-a8a1-b9b754b2b981,bcde713056d84ad509ce1900f0dfd525892e7a06
1821,176.213.132.255,Russia,Moscow,55.75222,37.61556,176.213.132.0/22,ERTH-MOSCOW-IPOE-2-NET,Android,5.1,Chrome, 67.0.3396,True,de156afc-565e-47b0-a8a1-b9b754b2b981,e34cede14d7469957986c632404885265d595d24
1822,185.79.100.93,Russia,Moscow,55.75222,37.61556,185.79.100.0/24,RU_MAXMNT_NAT_POOL_0,Android,5.1,Chrome, 67.0.3396,True,de156afc-565e-47b0-a8a1-b9b754b2b981,e34cede14d7469957986c632404885265d595d24
1823,213.137.237.91,Russia,Vladimir,56.13655,40.39658,213.137.237.0/25,CTTC-Ryazan,Android,5.1,Chrome, 67.0.3396,True,de156afc-565e-47b0-a8a1-b9b754b2b981,bcde713056d84ad509ce1900f0dfd525892e7a06
1824,213.137.237.91,Russia,Vladimir,56.13655,40.39658,213.137.237.0/25,CTTC-Ryazan,Android,5.1,Chrome, 67.0.3396,True,de156afc-565e-47b0-a8a1-b9b754b2b981,e34cede14d7469957986c632404885265d595d24
1827,77.66.162.43,Russia,Taganrog,47.23617,38.89688,77.66.162.0/24,AAA-Azov-NET,Android,6.0.1,Chrome Mobile, 67.0.3396,True,51b573a3-1969-4d99-8ddb-a866cf50e88c,094756051b627fa58bd745ee1883a0a017ce623b
1828,217.118.78.114,Russia,Saint Petersburg,59.93863,30.31413,217.118.78.0/24,BEEGPRSPE-3,Android,6.0.1,Chrome Mobile, 67.0.3396,True,51b573a3-1969-4d99-8ddb-a866cf50e88c,094756051b627fa58bd745ee1883a0a017ce623b
1829,217.118.78.103,Russia,Saint Petersburg,59.93863,30.31413,217.118.78.0/24,BEEGPRSPE-3,Android,6.0.1,Chrome Mobile, 66.0.3359,True,51b573a3-1969-4d99-8ddb-a866cf50e88c,094756051b627fa58bd745ee1883a0a017ce623b
1830,217.118.78.121,Russia,Saint Petersburg,59.93863,30.31413,217.118.78.0/24,BEEGPRSPE-3,Android,6.0.1,Chrome Mobile, 66.0.3359,True,51b573a3-1969-4d99-8ddb-a866cf50e88c,094756051b627fa58bd745ee1883a0a017ce623b
1831,217.118.78.120,Russia,Saint Petersburg,59.93863,30.31413,217.118.78.0/24,BEEGPRSPE-3,Android,6.0.1,Chrome Mobile, 66.0.3359,True,51b573a3-1969-4d99-8ddb-a866cf50e88c,094756051b627fa58bd745ee1883a0a017ce623b
1832,178.66.156.139,Russia,Murmansk,68.97917,33.09251,178.66.0.0/16,RU-AVANGARD-DSL,Android,6.0.1,Chrome Mobile, 66.0.3359,True,51b573a3-1969-4d99-8ddb-a866cf50e88c,094756051b627fa58bd745ee1883a0a017ce623b
1833,95.174.100.72,Russia,Taganrog,47.23617,38.89688,95.174.100.0/24,RND-TAGAN-ML1,Android,6.0.1,Chrome Mobile, 66.0.3359,True,51b573a3-1969-4d99-8ddb-a866cf50e88c,094756051b627fa58bd745ee1883a0a017ce623b
1834,95.174.100.72,Russia,Taganrog,47.23617,38.89688,95.174.100.0/24,RND-TAGAN-ML1,Android,6.0.1,Chrome Mobile, 65.0.3325,True,51b573a3-1969-4d99-8ddb-a866cf50e88c,094756051b627fa58bd745ee1883a0a017ce623b
1835,217.118.81.23,Russia,,60.0,100.0,217.118.80.0/22,BEEWLAN1,Android,6.0.1,Chrome Mobile, 66.0.3359,True,51b573a3-1969-4d99-8ddb-a866cf50e88c,094756051b627fa58bd745ee1883a0a017ce623b
1836,94.77.185.193,Russia,Taganrog,47.23617,38.89688,94.77.128.0/18,RU-MTU-20080814,Android,6.0.1,Chrome Mobile, 65.0.3325,True,51b573a3-1969-4d99-8ddb-a866cf50e88c,094756051b627fa58bd745ee1883a0a017ce623b
1837,95.106.133.71,Russia,Udomlya,57.87944,34.9925,95.106.128.0/21,MACROREGIONAL_CENTER,Android,8.0.0,Chrome Mobile, 68.0.3440,True,cf0a3693-6e46-4a12-986e-213fbcd98d36,4ef7dfd0aa55f412fd235edc2ef39c414430e8ef
1838,176.59.35.177,Russia,Moscow,55.75222,37.61556,176.59.32.0/19,TELE2RU-SUBSCRIBER-POOL-NET,Android,8.0.0,Chrome Mobile, 68.0.3440,True,cf0a3693-6e46-4a12-986e-213fbcd98d36,4ef7dfd0aa55f412fd235edc2ef39c414430e8ef
1839,80.246.94.166,Russia,Tver,56.85836,35.90057,80.246.88.0/21,Tver-TeleNet,Android,8.0.0,Chrome Mobile, 67.0.3396,True,cf0a3693-6e46-4a12-986e-213fbcd98d36,4ef7dfd0aa55f412fd235edc2ef39c414430e8ef
1840,176.59.52.181,Russia,Moscow,55.75222,37.61556,176.59.32.0/19,TELE2RU-SUBSCRIBER-POOL-NET,Android,8.0.0,Chrome Mobile, 67.0.3396,True,cf0a3693-6e46-4a12-986e-213fbcd98d36,4ef7dfd0aa55f412fd235edc2ef39c414430e8ef
1841,80.246.81.109,Russia,Moscow,55.75222,37.61556,80.246.80.0/21,Tver-TeleNet,Android,8.0.0,Chrome Mobile, 67.0.3396,True,cf0a3693-6e46-4a12-986e-213fbcd98d36,4ef7dfd0aa55f412fd235edc2ef39c414430e8ef
1842,80.246.94.46,Russia,Tver,56.85836,35.90057,80.246.88.0/21,Tver-TeleNet,Android,8.0.0,Chrome Mobile, 67.0.3396,True,cf0a3693-6e46-4a12-986e-213fbcd98d36,4ef7dfd0aa55f412fd235edc2ef39c414430e8ef
1843,176.59.35.140,Russia,Moscow,55.75222,37.61556,176.59.32.0/19,TELE2RU-SUBSCRIBER-POOL-NET,Android,8.0.0,Chrome Mobile, 67.0.3396,True,cf0a3693-6e46-4a12-986e-213fbcd98d36,4ef7dfd0aa55f412fd235edc2ef39c414430e8ef
1844,95.106.132.111,Russia,,60.0,100.0,95.106.128.0/21,MACROREGIONAL_CENTER,Android,8.0.0,Chrome Mobile, 67.0.3396,True,cf0a3693-6e46-4a12-986e-213fbcd98d36,4ef7dfd0aa55f412fd235edc2ef39c414430e8ef
1845,82.140.229.43,Russia,Tver,56.85836,35.90057,82.140.224.0/21,TVER-BROADBAND7,Android,8.0.0,Chrome Mobile, 67.0.3396,True,cf0a3693-6e46-4a12-986e-213fbcd98d36,4ef7dfd0aa55f412fd235edc2ef39c414430e8ef
1846,95.106.136.168,Russia,Bezhetsk,57.78506,36.69651,95.106.136.0/21,MACROREGIONAL_CENTER,Android,8.0.0,Chrome Mobile, 67.0.3396,True,cf0a3693-6e46-4a12-986e-213fbcd98d36,4ef7dfd0aa55f412fd235edc2ef39c414430e8ef
1847,95.106.140.2,Russia,Vyshniy Volochk,57.59125,34.56453,95.106.136.0/21,MACROREGIONAL_CENTER,Android,8.0.0,Chrome Mobile, 67.0.3396,True,cf0a3693-6e46-4a12-986e-213fbcd98d36,4ef7dfd0aa55f412fd235edc2ef39c414430e8ef
1848,80.246.94.244,Russia,Tver,56.85836,35.90057,80.246.88.0/21,Tver-TeleNet,Android,8.0.0,Chrome Mobile, 67.0.3396,True,cf0a3693-6e46-4a12-986e-213fbcd98d36,4ef7dfd0aa55f412fd235edc2ef39c414430e8ef
1849,80.246.81.230,Russia,Tver,56.85836,35.90057,80.246.80.0/21,Tver-TeleNet,Android,8.0.0,Chrome Mobile, 67.0.3396,True,cf0a3693-6e46-4a12-986e-213fbcd98d36,4ef7dfd0aa55f412fd235edc2ef39c414430e8ef
1850,80.246.81.110,Russia,Moscow,55.75222,37.61556,80.246.80.0/21,Tver-TeleNet,Android,8.0.0,Chrome Mobile, 67.0.3396,True,cf0a3693-6e46-4a12-986e-213fbcd98d36,4ef7dfd0aa55f412fd235edc2ef39c414430e8ef
1851,5.143.165.195,Russia,Tver,56.85836,35.90057,5.143.160.0/21,MACROREGIONAL_CENTER,Android,8.0.0,Chrome Mobile, 67.0.3396,True,cf0a3693-6e46-4a12-986e-213fbcd98d36,4ef7dfd0aa55f412fd235edc2ef39c414430e8ef
1852,176.59.39.214,Russia,Moscow,55.75222,37.61556,176.59.32.0/19,TELE2RU-SUBSCRIBER-POOL-NET,Android,8.0.0,Chrome Mobile, 67.0.3396,True,cf0a3693-6e46-4a12-986e-213fbcd98d36,4ef7dfd0aa55f412fd235edc2ef39c414430e8ef
1853,176.59.46.7,Russia,Moscow,55.75222,37.61556,176.59.32.0/19,TELE2RU-SUBSCRIBER-POOL-NET,Android,8.0.0,Chrome Mobile, 67.0.3396,True,cf0a3693-6e46-4a12-986e-213fbcd98d36,4ef7dfd0aa55f412fd235edc2ef39c414430e8ef
1854,85.172.106.100,Russia,Krasnodar,45.04484,38.97603,85.172.96.0/20,Macroregional_South,Android,8.0.0,Chrome Mobile, 67.0.3396,True,cf0a3693-6e46-4a12-986e-213fbcd98d36,4ef7dfd0aa55f412fd235edc2ef39c414430e8ef
1855,176.59.45.110,Russia,Moscow,55.75222,37.61556,176.59.32.0/19,TELE2RU-SUBSCRIBER-POOL-NET,Android,8.0.0,Chrome Mobile, 67.0.3396,True,cf0a3693-6e46-4a12-986e-213fbcd98d36,4ef7dfd0aa55f412fd235edc2ef39c414430e8ef
1856,82.140.212.24,Russia,Tver,56.85836,35.90057,82.140.208.0/21,TVER-BROADBAND5,Android,8.0.0,Chrome Mobile, 67.0.3396,True,cf0a3693-6e46-4a12-986e-213fbcd98d36,4ef7dfd0aa55f412fd235edc2ef39c414430e8ef
1857,176.59.44.233,Russia,Moscow,55.75222,37.61556,176.59.32.0/19,TELE2RU-SUBSCRIBER-POOL-NET,Android,8.0.0,Chrome Mobile, 67.0.3396,True,cf0a3693-6e46-4a12-986e-213fbcd98d36,4ef7dfd0aa55f412fd235edc2ef39c414430e8ef
1858,176.59.47.252,Russia,Moscow,55.75222,37.61556,176.59.32.0/19,TELE2RU-SUBSCRIBER-POOL-NET,Android,8.0.0,Chrome Mobile, 67.0.3396,True,cf0a3693-6e46-4a12-986e-213fbcd98d36,4ef7dfd0aa55f412fd235edc2ef39c414430e8ef
1859,176.59.45.107,Russia,Moscow,55.75222,37.61556,176.59.32.0/19,TELE2RU-SUBSCRIBER-POOL-NET,Android,8.0.0,Chrome Mobile, 67.0.3396,True,cf0a3693-6e46-4a12-986e-213fbcd98d36,4ef7dfd0aa55f412fd235edc2ef39c414430e8ef
1860,176.59.53.106,Russia,Moscow,55.75222,37.61556,176.59.32.0/19,TELE2RU-SUBSCRIBER-POOL-NET,Android,8.0.0,Chrome Mobile, 67.0.3396,True,cf0a3693-6e46-4a12-986e-213fbcd98d36,4ef7dfd0aa55f412fd235edc2ef39c414430e8ef
1861,176.59.48.149,Russia,Moscow,55.75222,37.61556,176.59.32.0/19,TELE2RU-SUBSCRIBER-POOL-NET,Android,8.0.0,Chrome Mobile, 67.0.3396,True,cf0a3693-6e46-4a12-986e-213fbcd98d36,4ef7dfd0aa55f412fd235edc2ef39c414430e8ef
1862,176.59.41.43,Russia,Moscow,55.75222,37.61556,176.59.32.0/19,TELE2RU-SUBSCRIBER-POOL-NET,Android,8.0.0,Chrome Mobile, 66.0.3359,True,cf0a3693-6e46-4a12-986e-213fbcd98d36,4ef7dfd0aa55f412fd235edc2ef39c414430e8ef
1863,80.246.94.102,Russia,Tver,56.85836,35.90057,80.246.88.0/21,Tver-TeleNet,Android,8.0.0,Chrome Mobile, 66.0.3359,True,cf0a3693-6e46-4a12-986e-213fbcd98d36,4ef7dfd0aa55f412fd235edc2ef39c414430e8ef
1864,176.59.41.78,Russia,Moscow,55.75222,37.61556,176.59.32.0/19,TELE2RU-SUBSCRIBER-POOL-NET,Android,8.0.0,Chrome Mobile, 66.0.3359,True,cf0a3693-6e46-4a12-986e-213fbcd98d36,4ef7dfd0aa55f412fd235edc2ef39c414430e8ef
1865,82.140.240.21,Russia,Tver,56.85836,35.90057,82.140.240.0/21,TVER-BROADBAND8,Android,8.0.0,Chrome Mobile, 66.0.3359,True,cf0a3693-6e46-4a12-986e-213fbcd98d36,4ef7dfd0aa55f412fd235edc2ef39c414430e8ef
1866,176.59.44.45,Russia,Moscow,55.75222,37.61556,176.59.32.0/19,TELE2RU-SUBSCRIBER-POOL-NET,Android,8.0.0,Chrome Mobile, 66.0.3359,True,cf0a3693-6e46-4a12-986e-213fbcd98d36,4ef7dfd0aa55f412fd235edc2ef39c414430e8ef
1867,176.59.36.161,Russia,Moscow,55.75222,37.61556,176.59.32.0/19,TELE2RU-SUBSCRIBER-POOL-NET,Android,8.0.0,Chrome Mobile, 66.0.3359,True,cf0a3693-6e46-4a12-986e-213fbcd98d36,4ef7dfd0aa55f412fd235edc2ef39c414430e8ef
1868,176.59.45.177,Russia,Moscow,55.75222,37.61556,176.59.32.0/19,TELE2RU-SUBSCRIBER-POOL-NET,Android,8.0.0,Chrome Mobile, 66.0.3359,True,cf0a3693-6e46-4a12-986e-213fbcd98d36,4ef7dfd0aa55f412fd235edc2ef39c414430e8ef
1869,95.106.139.164,Russia,Vyshniy Volochk,57.59125,34.56453,95.106.136.0/21,MACROREGIONAL_CENTER,Android,8.0.0,Chrome Mobile, 66.0.3359,True,cf0a3693-6e46-4a12-986e-213fbcd98d36,4ef7dfd0aa55f412fd235edc2ef39c414430e8ef
1870,176.59.32.194,Russia,Moscow,55.75222,37.61556,176.59.32.0/19,TELE2RU-SUBSCRIBER-POOL-NET,Android,8.0.0,Chrome Mobile, 66.0.3359,True,cf0a3693-6e46-4a12-986e-213fbcd98d36,4ef7dfd0aa55f412fd235edc2ef39c414430e8ef
1871,176.59.46.168,Russia,Moscow,55.75222,37.61556,176.59.32.0/19,TELE2RU-SUBSCRIBER-POOL-NET,Android,8.0.0,Chrome Mobile, 66.0.3359,True,cf0a3693-6e46-4a12-986e-213fbcd98d36,4ef7dfd0aa55f412fd235edc2ef39c414430e8ef
1872,80.246.94.179,Russia,Tver,56.85836,35.90057,80.246.88.0/21,Tver-TeleNet,Android,8.0.0,Chrome Mobile, 66.0.3359,True,cf0a3693-6e46-4a12-986e-213fbcd98d36,4ef7dfd0aa55f412fd235edc2ef39c414430e8ef
1873,176.59.37.37,Russia,Moscow,55.75222,37.61556,176.59.32.0/19,TELE2RU-SUBSCRIBER-POOL-NET,Android,8.0.0,Chrome Mobile, 66.0.3359,True,cf0a3693-6e46-4a12-986e-213fbcd98d36,4ef7dfd0aa55f412fd235edc2ef39c414430e8ef
1874,82.140.253.128,Russia,,60.0,100.0,82.140.248.0/21,TVER-BROADBAND9,Android,8.0.0,Chrome Mobile, 66.0.3359,True,cf0a3693-6e46-4a12-986e-213fbcd98d36,4ef7dfd0aa55f412fd235edc2ef39c414430e8ef
1875,94.241.60.127,Russia,Moscow,55.75222,37.61556,94.241.56.0/21,MACROREGIONAL_CENTER,Android,8.0.0,Chrome Mobile, 66.0.3359,True,cf0a3693-6e46-4a12-986e-213fbcd98d36,4ef7dfd0aa55f412fd235edc2ef39c414430e8ef
1876,5.143.165.36,Russia,Tver,56.85836,35.90057,5.143.160.0/21,MACROREGIONAL_CENTER,Android,8.0.0,Chrome Mobile, 66.0.3359,True,cf0a3693-6e46-4a12-986e-213fbcd98d36,4ef7dfd0aa55f412fd235edc2ef39c414430e8ef
1877,176.59.45.26,Russia,Moscow,55.75222,37.61556,176.59.32.0/19,TELE2RU-SUBSCRIBER-POOL-NET,Android,8.0.0,Chrome Mobile, 66.0.3359,True,cf0a3693-6e46-4a12-986e-213fbcd98d36,4ef7dfd0aa55f412fd235edc2ef39c414430e8ef
1878,176.59.43.106,Russia,Moscow,55.75222,37.61556,176.59.32.0/19,TELE2RU-SUBSCRIBER-POOL-NET,Android,8.0.0,Chrome Mobile, 66.0.3359,True,cf0a3693-6e46-4a12-986e-213fbcd98d36,4ef7dfd0aa55f412fd235edc2ef39c414430e8ef
1879,80.246.94.207,Russia,Tver,56.85836,35.90057,80.246.88.0/21,Tver-TeleNet,Android,8.0.0,Chrome Mobile, 66.0.3359,True,cf0a3693-6e46-4a12-986e-213fbcd98d36,4ef7dfd0aa55f412fd235edc2ef39c414430e8ef
1880,176.59.47.75,Russia,Moscow,55.75222,37.61556,176.59.32.0/19,TELE2RU-SUBSCRIBER-POOL-NET,Android,8.0.0,Chrome Mobile, 66.0.3359,True,cf0a3693-6e46-4a12-986e-213fbcd98d36,4ef7dfd0aa55f412fd235edc2ef39c414430e8ef
1881,188.233.30.172,Russia,Volgograd,48.71939,44.50184,188.233.0.0/18,ERTH-VLG-PPPOE-1-NET,Android,5.0,Chrome Mobile, 67.0.3396,True,29501893-72c0-43e8-826a-9d5673c1aef4,640513b9727703ffdb02f08aa5f4b21457b26b18
1882,95.153.134.2,Russia,Krasnodar,45.04484,38.97603,95.153.128.0/20,RU-KUBGSM-20030923,Android,5.0,Chrome Mobile, 67.0.3396,True,29501893-72c0-43e8-826a-9d5673c1aef4,640513b9727703ffdb02f08aa5f4b21457b26b18
1883,95.153.134.113,Russia,Krasnodar,45.04484,38.97603,95.153.128.0/20,RU-KUBGSM-20030923,Android,5.0,Chrome Mobile, 67.0.3396,True,29501893-72c0-43e8-826a-9d5673c1aef4,640513b9727703ffdb02f08aa5f4b21457b26b18
1884,95.153.132.240,Russia,Krasnodar,45.04484,38.97603,95.153.128.0/20,RU-KUBGSM-20030923,Android,5.0,Chrome Mobile, 67.0.3396,True,29501893-72c0-43e8-826a-9d5673c1aef4,640513b9727703ffdb02f08aa5f4b21457b26b18
1885,95.153.128.10,Russia,Krasnodar,45.04484,38.97603,95.153.128.0/20,RU-KUBGSM-20030923,Android,5.0,Chrome Mobile, 66.0.3359,True,29501893-72c0-43e8-826a-9d5673c1aef4,640513b9727703ffdb02f08aa5f4b21457b26b18
1886,95.153.132.135,Russia,Krasnodar,45.04484,38.97603,95.153.128.0/20,RU-KUBGSM-20030923,Android,5.0,Chrome Mobile, 66.0.3359,True,29501893-72c0-43e8-826a-9d5673c1aef4,640513b9727703ffdb02f08aa5f4b21457b26b18
1887,95.153.131.250,Russia,Krasnodar,45.04484,38.97603,95.153.128.0/20,RU-KUBGSM-20030923,Android,5.0,Chrome Mobile, 66.0.3359,True,29501893-72c0-43e8-826a-9d5673c1aef4,640513b9727703ffdb02f08aa5f4b21457b26b18
1888,95.153.135.40,Russia,Krasnodar,45.04484,38.97603,95.153.128.0/20,RU-KUBGSM-20030923,Android,5.0,Chrome Mobile, 66.0.3359,True,29501893-72c0-43e8-826a-9d5673c1aef4,640513b9727703ffdb02f08aa5f4b21457b26b18
1889,95.153.132.36,Russia,Krasnodar,45.04484,38.97603,95.153.128.0/20,RU-KUBGSM-20030923,Android,5.0,Chrome Mobile, 66.0.3359,True,29501893-72c0-43e8-826a-9d5673c1aef4,640513b9727703ffdb02f08aa5f4b21457b26b18
1890,95.153.130.78,Russia,Krasnodar,45.04484,38.97603,95.153.128.0/20,RU-KUBGSM-20030923,Android,5.0,Chrome Mobile, 66.0.3359,True,29501893-72c0-43e8-826a-9d5673c1aef4,640513b9727703ffdb02f08aa5f4b21457b26b18
1891,94.181.192.27,Russia,Kirov,58.59665,49.66007,94.181.192.0/21,ERTH-KIROV-PPPOE-6-NET,Android,5.0,Chrome Mobile, 66.0.3359,True,29501893-72c0-43e8-826a-9d5673c1aef4,640513b9727703ffdb02f08aa5f4b21457b26b18
1892,85.140.7.34,Russia,Nizhny Novgorod,56.32867,44.00205,85.140.0.0/21,MTSGPRS-7,Android,5.0,Chrome Mobile, 66.0.3359,True,29501893-72c0-43e8-826a-9d5673c1aef4,640513b9727703ffdb02f08aa5f4b21457b26b18
1893,85.140.0.62,Russia,Samara,53.20006,50.15,85.140.0.0/21,MTSGPRS-7,Android,5.0,Chrome Mobile, 66.0.3359,True,29501893-72c0-43e8-826a-9d5673c1aef4,640513b9727703ffdb02f08aa5f4b21457b26b18
1894,95.153.131.197,Russia,Krasnodar,45.04484,38.97603,95.153.128.0/20,RU-KUBGSM-20030923,Android,5.0,Chrome Mobile, 66.0.3359,True,29501893-72c0-43e8-826a-9d5673c1aef4,640513b9727703ffdb02f08aa5f4b21457b26b18
1895,95.153.134.21,Russia,Krasnodar,45.04484,38.97603,95.153.128.0/20,RU-KUBGSM-20030923,Android,5.0,Chrome Mobile, 66.0.3359,True,29501893-72c0-43e8-826a-9d5673c1aef4,640513b9727703ffdb02f08aa5f4b21457b26b18
1896,188.233.42.175,Russia,Volgograd,48.71939,44.50184,188.233.0.0/18,ERTH-VLG-PPPOE-1-NET,Android,5.0,Chrome Mobile, 65.0.3325,True,29501893-72c0-43e8-826a-9d5673c1aef4,640513b9727703ffdb02f08aa5f4b21457b26b18
1897,188.170.75.141,Russia,Saint Petersburg,59.93863,30.31413,188.170.64.0/19,MF-NWGSM-188-170-92,iOS,11.4.1,Mobile Safari UI/WKWebView,,True,b1418ba2-bd30-44c4-ad9e-e4251de42457,d84a2ca6707abfcd1cad5657e5c43ad525ed3a56
1898,188.170.81.78,Russia,Saint Petersburg,59.93863,30.31413,188.170.80.0/20,MF-NW-188-170-80,iOS,11.4.1,Mobile Safari UI/WKWebView,,True,b1418ba2-bd30-44c4-ad9e-e4251de42457,d84a2ca6707abfcd1cad5657e5c43ad525ed3a56
1899,85.142.165.182,Russia,Saint Petersburg,59.93863,30.31413,85.142.164.0/22,COMFORTEL-CLOUD,iOS,11.4.1,Mobile Safari UI/WKWebView,,True,b1418ba2-bd30-44c4-ad9e-e4251de42457,d84a2ca6707abfcd1cad5657e5c43ad525ed3a56
1900,85.142.165.182,Russia,Saint Petersburg,59.93863,30.31413,85.142.164.0/22,COMFORTEL-CLOUD,iOS,11.4,Mobile Safari UI/WKWebView,,True,b1418ba2-bd30-44c4-ad9e-e4251de42457,d84a2ca6707abfcd1cad5657e5c43ad525ed3a56
1901,188.170.82.138,Russia,Saint Petersburg,59.93863,30.31413,188.170.80.0/20,MF-NW-188-170-80,iOS,11.4.1,Mobile Safari UI/WKWebView,,True,b1418ba2-bd30-44c4-ad9e-e4251de42457,d84a2ca6707abfcd1cad5657e5c43ad525ed3a56
1902,188.170.72.105,Russia,Saint Petersburg,59.93863,30.31413,188.170.64.0/19,MF-NWGSM-188-170-92,iOS,11.4,Mobile Safari UI/WKWebView,,True,b1418ba2-bd30-44c4-ad9e-e4251de42457,d84a2ca6707abfcd1cad5657e5c43ad525ed3a56
1903,188.170.72.137,Russia,Saint Petersburg,59.93863,30.31413,188.170.64.0/19,MF-NWGSM-188-170-92,iOS,11.4,Mobile Safari UI/WKWebView,,True,b1418ba2-bd30-44c4-ad9e-e4251de42457,d84a2ca6707abfcd1cad5657e5c43ad525ed3a56
1904,5.19.172.81,Russia,Saint Petersburg,59.93863,30.31413,5.19.0.0/16,INTERZET-NET2,iOS,11.4,Mobile Safari UI/WKWebView,,True,b1418ba2-bd30-44c4-ad9e-e4251de42457,d84a2ca6707abfcd1cad5657e5c43ad525ed3a56
1905,188.170.72.115,Russia,Saint Petersburg,59.93863,30.31413,188.170.64.0/19,MF-NWGSM-188-170-92,iOS,11.4,Mobile Safari UI/WKWebView,,True,b1418ba2-bd30-44c4-ad9e-e4251de42457,d84a2ca6707abfcd1cad5657e5c43ad525ed3a56
1906,85.143.207.182,Russia,Saint Petersburg,59.93863,30.31413,85.143.204.0/22,COMforTEL,iOS,11.4,Mobile Safari UI/WKWebView,,True,b1418ba2-bd30-44c4-ad9e-e4251de42457,d84a2ca6707abfcd1cad5657e5c43ad525ed3a56
1907,85.143.207.182,Russia,Saint Petersburg,59.93863,30.31413,85.143.204.0/22,COMforTEL,iOS,11.4,Mobile Safari UI/WKWebView,,True,000e0ffb-64b9-438e-9c33-5cf4a8b6dd76,d84a2ca6707abfcd1cad5657e5c43ad525ed3a56
1908,85.143.207.182,Russia,Saint Petersburg,59.93863,30.31413,85.143.204.0/22,COMforTEL,iOS,11.3,Mobile Safari UI/WKWebView,,True,000e0ffb-64b9-438e-9c33-5cf4a8b6dd76,d84a2ca6707abfcd1cad5657e5c43ad525ed3a56
1909,188.170.74.197,Russia,Saint Petersburg,59.93863,30.31413,188.170.64.0/19,MF-NWGSM-188-170-92,iOS,11.4,Mobile Safari UI/WKWebView,,True,000e0ffb-64b9-438e-9c33-5cf4a8b6dd76,d84a2ca6707abfcd1cad5657e5c43ad525ed3a56
1910,188.170.81.18,Russia,Saint Petersburg,59.93863,30.31413,188.170.80.0/20,MF-NW-188-170-80,iOS,11.4,Mobile Safari UI/WKWebView,,True,000e0ffb-64b9-438e-9c33-5cf4a8b6dd76,d84a2ca6707abfcd1cad5657e5c43ad525ed3a56
1911,188.170.83.180,Russia,Saint Petersburg,59.93863,30.31413,188.170.80.0/20,MF-NW-188-170-80,iOS,11.4,Mobile Safari UI/WKWebView,,True,000e0ffb-64b9-438e-9c33-5cf4a8b6dd76,d84a2ca6707abfcd1cad5657e5c43ad525ed3a56
1912,188.170.74.150,Russia,Saint Petersburg,59.93863,30.31413,188.170.64.0/19,MF-NWGSM-188-170-92,iOS,11.4,Mobile Safari UI/WKWebView,,True,000e0ffb-64b9-438e-9c33-5cf4a8b6dd76,d84a2ca6707abfcd1cad5657e5c43ad525ed3a56
1913,188.170.80.26,Russia,Saint Petersburg,59.93863,30.31413,188.170.80.0/20,MF-NW-188-170-80,iOS,11.4,Mobile Safari UI/WKWebView,,True,000e0ffb-64b9-438e-9c33-5cf4a8b6dd76,d84a2ca6707abfcd1cad5657e5c43ad525ed3a56
1914,188.170.75.28,Russia,Saint Petersburg,59.93863,30.31413,188.170.64.0/19,MF-NWGSM-188-170-92,iOS,11.4,Mobile Safari UI/WKWebView,,True,000e0ffb-64b9-438e-9c33-5cf4a8b6dd76,d84a2ca6707abfcd1cad5657e5c43ad525ed3a56
1915,188.170.80.158,Russia,Saint Petersburg,59.93863,30.31413,188.170.80.0/20,MF-NW-188-170-80,iOS,11.4,Mobile Safari UI/WKWebView,,True,000e0ffb-64b9-438e-9c33-5cf4a8b6dd76,d84a2ca6707abfcd1cad5657e5c43ad525ed3a56
1916,188.170.81.33,Russia,Saint Petersburg,59.93863,30.31413,188.170.80.0/20,MF-NW-188-170-80,iOS,11.4,Mobile Safari UI/WKWebView,,True,000e0ffb-64b9-438e-9c33-5cf4a8b6dd76,d84a2ca6707abfcd1cad5657e5c43ad525ed3a56
1917,80.64.105.7,Russia,Veliky Novgorod,58.52131,31.27104,80.64.105.0/26,LIFE-LINK,iOS,11.4,Mobile Safari UI/WKWebView,,True,000e0ffb-64b9-438e-9c33-5cf4a8b6dd76,d84a2ca6707abfcd1cad5657e5c43ad525ed3a56
1918,188.170.80.25,Russia,Saint Petersburg,59.93863,30.31413,188.170.80.0/20,MF-NW-188-170-80,iOS,11.4,Mobile Safari UI/WKWebView,,True,000e0ffb-64b9-438e-9c33-5cf4a8b6dd76,d84a2ca6707abfcd1cad5657e5c43ad525ed3a56
1919,188.170.73.225,Russia,Saint Petersburg,59.93863,30.31413,188.170.64.0/19,MF-NWGSM-188-170-92,iOS,11.4,Mobile Safari UI/WKWebView,,True,000e0ffb-64b9-438e-9c33-5cf4a8b6dd76,d84a2ca6707abfcd1cad5657e5c43ad525ed3a56
1920,188.170.83.28,Russia,Saint Petersburg,59.93863,30.31413,188.170.80.0/20,MF-NW-188-170-80,iOS,11.4,Mobile Safari UI/WKWebView,,True,000e0ffb-64b9-438e-9c33-5cf4a8b6dd76,d84a2ca6707abfcd1cad5657e5c43ad525ed3a56
1921,84.242.219.18,Russia,Veliky Novgorod,58.52131,31.27104,84.242.192.0/19,DATACOM-NETWORK,iOS,11.4,Mobile Safari UI/WKWebView,,True,000e0ffb-64b9-438e-9c33-5cf4a8b6dd76,d84a2ca6707abfcd1cad5657e5c43ad525ed3a56
1922,188.170.72.99,Russia,Saint Petersburg,59.93863,30.31413,188.170.64.0/19,MF-NWGSM-188-170-92,iOS,11.4,Mobile Safari UI/WKWebView,,True,000e0ffb-64b9-438e-9c33-5cf4a8b6dd76,d84a2ca6707abfcd1cad5657e5c43ad525ed3a56
1923,188.170.75.253,Russia,Saint Petersburg,59.93863,30.31413,188.170.64.0/19,MF-NWGSM-188-170-92,iOS,11.3,Mobile Safari UI/WKWebView,,True,000e0ffb-64b9-438e-9c33-5cf4a8b6dd76,d84a2ca6707abfcd1cad5657e5c43ad525ed3a56
1924,188.170.80.99,Russia,Saint Petersburg,59.93863,30.31413,188.170.80.0/20,MF-NW-188-170-80,iOS,11.3,Mobile Safari UI/WKWebView,,True,000e0ffb-64b9-438e-9c33-5cf4a8b6dd76,d84a2ca6707abfcd1cad5657e5c43ad525ed3a56
1925,188.170.80.137,Russia,Saint Petersburg,59.93863,30.31413,188.170.80.0/20,MF-NW-188-170-80,iOS,11.3,Mobile Safari UI/WKWebView,,True,000e0ffb-64b9-438e-9c33-5cf4a8b6dd76,d84a2ca6707abfcd1cad5657e5c43ad525ed3a56
1931,31.173.83.133,Russia,Moscow,55.75222,37.61556,31.173.80.0/21,MF-GNOC-STF-CGN-20150729,Android,6.0,Chrome Mobile, 44.0.2403,True,0f1e4bf3-4ab9-42df-8a5f-7fda871500f0,d921cb60144c37be60619639825a01888dff01a4
1932,31.173.83.65,Russia,Moscow,55.75222,37.61556,31.173.80.0/21,MF-GNOC-STF-CGN-20150729,Android,6.0,Chrome Mobile, 44.0.2403,True,0f1e4bf3-4ab9-42df-8a5f-7fda871500f0,d921cb60144c37be60619639825a01888dff01a4
1933,31.173.83.103,Russia,Moscow,55.75222,37.61556,31.173.80.0/21,MF-GNOC-STF-CGN-20150729,Android,6.0,Chrome Mobile, 44.0.2403,True,0f1e4bf3-4ab9-42df-8a5f-7fda871500f0,d921cb60144c37be60619639825a01888dff01a4
1934,31.173.80.161,Russia,Moscow,55.75222,37.61556,31.173.80.0/21,MF-GNOC-STF-CGN-20150729,Android,6.0,Chrome Mobile, 44.0.2403,True,0f1e4bf3-4ab9-42df-8a5f-7fda871500f0,d921cb60144c37be60619639825a01888dff01a4
1935,31.173.80.113,Russia,Moscow,55.75222,37.61556,31.173.80.0/21,MF-GNOC-STF-CGN-20150729,Android,6.0,Chrome Mobile, 44.0.2403,True,0f1e4bf3-4ab9-42df-8a5f-7fda871500f0,d921cb60144c37be60619639825a01888dff01a4
1936,85.140.16.232,Russia,Yekaterinburg,56.8519,60.6122,85.140.0.0/15,RU-MTU-20041213,iOS,10.3.3,Mobile Safari UI/WKWebView,,True,34d173d1-7594-49aa-8a4b-55490acc72be,fcee3d008ce3490f89ca7d5795523c6c88fc770f
1937,85.140.16.168,Russia,Yekaterinburg,56.8519,60.6122,85.140.0.0/15,RU-MTU-20041213,iOS,10.3.3,Mobile Safari UI/WKWebView,,True,34d173d1-7594-49aa-8a4b-55490acc72be,fcee3d008ce3490f89ca7d5795523c6c88fc770f
1938,213.87.249.75,Russia,Perm,58.01046,56.25017,213.87.248.0/22,MTSNET-URAL-NAT,iOS,10.3.3,Mobile Safari UI/WKWebView,,True,34d173d1-7594-49aa-8a4b-55490acc72be,fcee3d008ce3490f89ca7d5795523c6c88fc770f
1939,213.87.249.203,Russia,Perm,58.01046,56.25017,213.87.248.0/22,MTSNET-URAL-NAT,iOS,10.3.3,Mobile Safari UI/WKWebView,,True,34d173d1-7594-49aa-8a4b-55490acc72be,fcee3d008ce3490f89ca7d5795523c6c88fc770f
1940,85.140.18.207,Russia,Yekaterinburg,56.8519,60.6122,85.140.0.0/15,RU-MTU-20041213,iOS,10.3.3,Mobile Safari UI/WKWebView,,True,34d173d1-7594-49aa-8a4b-55490acc72be,fcee3d008ce3490f89ca7d5795523c6c88fc770f
1941,213.87.248.120,Russia,,60.0,100.0,213.87.248.0/22,MTSNET-URAL-NAT,iOS,10.3.3,Mobile Safari UI/WKWebView,,True,34d173d1-7594-49aa-8a4b-55490acc72be,fcee3d008ce3490f89ca7d5795523c6c88fc770f
1942,85.140.22.18,Russia,Yekaterinburg,56.8519,60.6122,85.140.0.0/15,RU-MTU-20041213,iOS,10.3.3,Mobile Safari UI/WKWebView,,True,34d173d1-7594-49aa-8a4b-55490acc72be,fcee3d008ce3490f89ca7d5795523c6c88fc770f
1943,85.140.18.117,Russia,Yekaterinburg,56.8519,60.6122,85.140.0.0/15,RU-MTU-20041213,iOS,10.3.3,Mobile Safari UI/WKWebView,,True,34d173d1-7594-49aa-8a4b-55490acc72be,fcee3d008ce3490f89ca7d5795523c6c88fc770f
1944,213.87.249.43,Russia,Perm,58.01046,56.25017,213.87.248.0/22,MTSNET-URAL-NAT,iOS,10.3.3,Mobile Safari UI/WKWebView,,True,34d173d1-7594-49aa-8a4b-55490acc72be,fcee3d008ce3490f89ca7d5795523c6c88fc770f
1945,85.140.23.241,Russia,Yekaterinburg,56.8519,60.6122,85.140.0.0/15,RU-MTU-20041213,iOS,10.3.3,Mobile Safari UI/WKWebView,,True,34d173d1-7594-49aa-8a4b-55490acc72be,fcee3d008ce3490f89ca7d5795523c6c88fc770f
1946,85.140.17.229,Russia,Yekaterinburg,56.8519,60.6122,85.140.0.0/15,RU-MTU-20041213,iOS,10.3.3,Mobile Safari UI/WKWebView,,True,34d173d1-7594-49aa-8a4b-55490acc72be,fcee3d008ce3490f89ca7d5795523c6c88fc770f
1947,213.87.249.204,Russia,Perm,58.01046,56.25017,213.87.248.0/22,MTSNET-URAL-NAT,iOS,10.3.3,Mobile Safari UI/WKWebView,,True,34d173d1-7594-49aa-8a4b-55490acc72be,fcee3d008ce3490f89ca7d5795523c6c88fc770f
1948,213.87.240.219,Russia,Yekaterinburg,56.8519,60.6122,213.87.240.0/22,MTSGPRS-5,iOS,10.3.3,Mobile Safari UI/WKWebView,,True,34d173d1-7594-49aa-8a4b-55490acc72be,fcee3d008ce3490f89ca7d5795523c6c88fc770f
1949,85.140.18.124,Russia,Yekaterinburg,56.8519,60.6122,85.140.0.0/15,RU-MTU-20041213,iOS,10.3.3,Mobile Safari UI/WKWebView,,True,34d173d1-7594-49aa-8a4b-55490acc72be,fcee3d008ce3490f89ca7d5795523c6c88fc770f
1950,85.140.18.252,Russia,Yekaterinburg,56.8519,60.6122,85.140.0.0/15,RU-MTU-20041213,iOS,10.3.3,Mobile Safari UI/WKWebView,,True,34d173d1-7594-49aa-8a4b-55490acc72be,fcee3d008ce3490f89ca7d5795523c6c88fc770f
1951,85.140.19.188,Russia,Yekaterinburg,56.8519,60.6122,85.140.0.0/15,RU-MTU-20041213,iOS,10.3.3,Mobile Safari UI/WKWebView,,True,34d173d1-7594-49aa-8a4b-55490acc72be,fcee3d008ce3490f89ca7d5795523c6c88fc770f
1952,85.140.76.198,Russia,Yekaterinburg,56.8519,60.6122,85.140.76.0/22,MTSGPRS-8,iOS,10.3.3,Mobile Safari UI/WKWebView,,True,34d173d1-7594-49aa-8a4b-55490acc72be,fcee3d008ce3490f89ca7d5795523c6c88fc770f
1953,85.140.22.68,Russia,Yekaterinburg,56.8519,60.6122,85.140.0.0/15,RU-MTU-20041213,iOS,10.3.3,Mobile Safari UI/WKWebView,,True,34d173d1-7594-49aa-8a4b-55490acc72be,fcee3d008ce3490f89ca7d5795523c6c88fc770f
1954,85.140.23.196,Russia,Yekaterinburg,56.8519,60.6122,85.140.0.0/15,RU-MTU-20041213,iOS,10.3.3,Mobile Safari UI/WKWebView,,True,34d173d1-7594-49aa-8a4b-55490acc72be,fcee3d008ce3490f89ca7d5795523c6c88fc770f
1955,85.140.78.245,Russia,Yekaterinburg,56.8519,60.6122,85.140.76.0/22,MTSGPRS-8,iOS,10.3.3,Mobile Safari UI/WKWebView,,True,34d173d1-7594-49aa-8a4b-55490acc72be,fcee3d008ce3490f89ca7d5795523c6c88fc770f
1956,85.140.22.117,Russia,Yekaterinburg,56.8519,60.6122,85.140.0.0/15,RU-MTU-20041213,iOS,10.3.3,Mobile Safari UI/WKWebView,,True,34d173d1-7594-49aa-8a4b-55490acc72be,fcee3d008ce3490f89ca7d5795523c6c88fc770f
1957,85.140.23.181,Russia,Yekaterinburg,56.8519,60.6122,85.140.0.0/15,RU-MTU-20041213,iOS,10.3.3,Mobile Safari UI/WKWebView,,True,34d173d1-7594-49aa-8a4b-55490acc72be,fcee3d008ce3490f89ca7d5795523c6c88fc770f
1958,94.232.0.97,Russia,Saransk,54.1838,45.1749,94.232.0.0/21,CONTACTTV-NET,iOS,11.4,Mobile Safari UI/WKWebView,,True,8fc022ad-fea8-4165-be49-e0d4b627c6e2,7021ae0d75f17b3655f8ba704151a4db0cbadc9c
1959,85.140.2.46,Russia,Samara,53.20006,50.15,85.140.0.0/21,MTSGPRS-7,iOS,11.4,Mobile Safari UI/WKWebView,,True,8fc022ad-fea8-4165-be49-e0d4b627c6e2,7021ae0d75f17b3655f8ba704151a4db0cbadc9c
1960,85.140.1.244,Russia,Kazan,55.78874,49.12214,85.140.0.0/21,MTSGPRS-7,iOS,11.4,Mobile Safari UI/WKWebView,,True,8fc022ad-fea8-4165-be49-e0d4b627c6e2,7021ae0d75f17b3655f8ba704151a4db0cbadc9c
1961,176.109.25.234,Russia,Saransk,54.1838,45.1749,176.109.16.0/20,CONTACTTV-NET,iOS,11.2.6,Mobile Safari UI/WKWebView,,True,8fc022ad-fea8-4165-be49-e0d4b627c6e2,7021ae0d75f17b3655f8ba704151a4db0cbadc9c
1962,91.216.114.201,Russia,Moscow,55.75222,37.61556,91.216.114.0/24,LEROYMERLIN-NET,iOS,11.2.6,Mobile Safari UI/WKWebView,,True,8fc022ad-fea8-4165-be49-e0d4b627c6e2,7021ae0d75f17b3655f8ba704151a4db0cbadc9c
1963,176.109.26.218,Russia,Saransk,54.1838,45.1749,176.109.16.0/20,CONTACTTV-NET,iOS,11.2.6,Mobile Safari UI/WKWebView,,True,8fc022ad-fea8-4165-be49-e0d4b627c6e2,7021ae0d75f17b3655f8ba704151a4db0cbadc9c
1964,78.106.205.108,Russia,Volgograd,48.71939,44.50184,78.106.0.0/16,BEELINE-BROADBAND,Android,7.1.2,Chrome Mobile, 66.0.3359,True,95d49678-4360-4d5a-ac2b-3a9b893a0906,fc2bebfc6eea7e7d30579bfd5a9b8bbc6c056c61
1965,128.69.86.225,Russia,Volgograd,48.71939,44.50184,128.68.0.0/15,BEELINE-BROADBAND,Android,7.1.2,Chrome Mobile, 66.0.3359,True,95d49678-4360-4d5a-ac2b-3a9b893a0906,fc2bebfc6eea7e7d30579bfd5a9b8bbc6c056c61
1966,2.94.121.130,Russia,Volgograd,48.71939,44.50184,2.94.0.0/15,BEELINE-BROADBAND,Android,7.1.2,Chrome Mobile, 66.0.3359,True,95d49678-4360-4d5a-ac2b-3a9b893a0906,fc2bebfc6eea7e7d30579bfd5a9b8bbc6c056c61
1967,128.73.230.125,Russia,Volgograd,48.71939,44.50184,128.72.0.0/15,BEELINE-BROADBAND,Android,7.1.2,Chrome Mobile, 66.0.3359,True,95d49678-4360-4d5a-ac2b-3a9b893a0906,fc2bebfc6eea7e7d30579bfd5a9b8bbc6c056c61
1968,2.93.223.200,Russia,Volgograd,48.71939,44.50184,2.92.0.0/15,BEELINE-BROADBAND,Android,7.1.2,Chrome Mobile, 65.0.3325,True,95d49678-4360-4d5a-ac2b-3a9b893a0906,fc2bebfc6eea7e7d30579bfd5a9b8bbc6c056c61
1969,31.162.26.242,Russia,Perm,58.01046,56.25017,31.162.0.0/18,USI_ADSL_USERS,iOS,11.4.1,Mobile Safari UI/WKWebView,,True,d45c391f-9f15-4719-98e1-dd88f81bca0a,5990488be330738b5e253883af8922a394c52ca4
1970,85.140.77.199,Russia,Yekaterinburg,56.8519,60.6122,85.140.76.0/22,MTSGPRS-8,iOS,11.4.1,Mobile Safari UI/WKWebView,,True,d45c391f-9f15-4719-98e1-dd88f81bca0a,5990488be330738b5e253883af8922a394c52ca4
1971,46.146.40.87,Russia,Perm,58.01046,56.25017,46.146.0.0/18,ERTH-PERM-PPPOE-2-NET,iOS,11.4.1,Mobile Safari UI/WKWebView,,True,d45c391f-9f15-4719-98e1-dd88f81bca0a,5990488be330738b5e253883af8922a394c52ca4
1972,46.147.12.59,Russia,Perm,58.01046,56.25017,46.147.8.0/21,ERTH-PERM-PPPOE-44-NET,iOS,11.4,Mobile Safari UI/WKWebView,,True,d45c391f-9f15-4719-98e1-dd88f81bca0a,5990488be330738b5e253883af8922a394c52ca4
1973,46.146.4.81,Russia,Perm,58.01046,56.25017,46.146.0.0/18,ERTH-PERM-PPPOE-2-NET,iOS,11.4,Mobile Safari UI/WKWebView,,True,d45c391f-9f15-4719-98e1-dd88f81bca0a,5990488be330738b5e253883af8922a394c52ca4
1974,46.146.0.105,Russia,Perm,58.01046,56.25017,46.146.0.0/18,ERTH-PERM-PPPOE-2-NET,iOS,11.4,Mobile Safari UI/WKWebView,,True,d45c391f-9f15-4719-98e1-dd88f81bca0a,5990488be330738b5e253883af8922a394c52ca4
1975,85.140.16.47,Russia,Yekaterinburg,56.8519,60.6122,85.140.0.0/15,RU-MTU-20041213,iOS,11.4,Mobile Safari UI/WKWebView,,True,d45c391f-9f15-4719-98e1-dd88f81bca0a,5990488be330738b5e253883af8922a394c52ca4
1976,95.153.135.66,Russia,Krasnodar,45.04484,38.97603,95.153.128.0/20,RU-KUBGSM-20030923,iOS,11.4,Mobile Safari UI/WKWebView,,True,d45c391f-9f15-4719-98e1-dd88f81bca0a,5990488be330738b5e253883af8922a394c52ca4
1977,95.153.134.32,Russia,Krasnodar,45.04484,38.97603,95.153.128.0/20,RU-KUBGSM-20030923,iOS,11.4,Mobile Safari UI/WKWebView,,True,d45c391f-9f15-4719-98e1-dd88f81bca0a,5990488be330738b5e253883af8922a394c52ca4
1978,95.153.134.64,Russia,Krasnodar,45.04484,38.97603,95.153.128.0/20,RU-KUBGSM-20030923,iOS,11.4,Mobile Safari UI/WKWebView,,True,d45c391f-9f15-4719-98e1-dd88f81bca0a,5990488be330738b5e253883af8922a394c52ca4
1979,95.153.134.74,Russia,Krasnodar,45.04484,38.97603,95.153.128.0/20,RU-KUBGSM-20030923,iOS,11.4,Mobile Safari UI/WKWebView,,True,d45c391f-9f15-4719-98e1-dd88f81bca0a,5990488be330738b5e253883af8922a394c52ca4
1980,95.153.135.222,Russia,Krasnodar,45.04484,38.97603,95.153.128.0/20,RU-KUBGSM-20030923,iOS,11.4,Mobile Safari UI/WKWebView,,True,d45c391f-9f15-4719-98e1-dd88f81bca0a,5990488be330738b5e253883af8922a394c52ca4
1981,95.153.133.191,Russia,Krasnodar,45.04484,38.97603,95.153.128.0/20,RU-KUBGSM-20030923,iOS,11.4,Mobile Safari UI/WKWebView,,True,d45c391f-9f15-4719-98e1-dd88f81bca0a,5990488be330738b5e253883af8922a394c52ca4
1982,95.153.130.190,Russia,Krasnodar,45.04484,38.97603,95.153.128.0/20,RU-KUBGSM-20030923,iOS,11.4,Mobile Safari UI/WKWebView,,True,d45c391f-9f15-4719-98e1-dd88f81bca0a,5990488be330738b5e253883af8922a394c52ca4
1983,46.146.152.85,Russia,Perm,58.01046,56.25017,46.146.152.0/21,ERTH-PERM-PPPOE-34-NET,iOS,11.4,Mobile Safari UI/WKWebView,,True,d45c391f-9f15-4719-98e1-dd88f81bca0a,5990488be330738b5e253883af8922a394c52ca4
1984,85.140.19.0,Russia,Yekaterinburg,56.8519,60.6122,85.140.0.0/15,RU-MTU-20041213,iOS,11.4,Mobile Safari UI/WKWebView,,True,d45c391f-9f15-4719-98e1-dd88f81bca0a,5990488be330738b5e253883af8922a394c52ca4
1985,37.112.0.25,Russia,Perm,58.01046,56.25017,37.112.0.0/21,ERTH-PERM-PPPOE-66-NET,iOS,11.3,Mobile Safari UI/WKWebView,,True,d45c391f-9f15-4719-98e1-dd88f81bca0a,5990488be330738b5e253883af8922a394c52ca4
1986,46.146.47.165,Russia,Perm,58.01046,56.25017,46.146.0.0/18,ERTH-PERM-PPPOE-2-NET,iOS,11.3,Mobile Safari UI/WKWebView,,True,d45c391f-9f15-4719-98e1-dd88f81bca0a,5990488be330738b5e253883af8922a394c52ca4
1987,85.140.22.4,Russia,Yekaterinburg,56.8519,60.6122,85.140.0.0/15,RU-MTU-20041213,iOS,11.3,Mobile Safari UI/WKWebView,,True,d45c391f-9f15-4719-98e1-dd88f81bca0a,5990488be330738b5e253883af8922a394c52ca4
1988,85.140.23.68,Russia,Yekaterinburg,56.8519,60.6122,85.140.0.0/15,RU-MTU-20041213,iOS,11.3,Mobile Safari UI/WKWebView,,True,d45c391f-9f15-4719-98e1-dd88f81bca0a,5990488be330738b5e253883af8922a394c52ca4
1989,213.87.250.4,Russia,,60.0,100.0,213.87.248.0/22,MTSNET-URAL-NAT,iOS,11.3,Mobile Safari UI/WKWebView,,True,d45c391f-9f15-4719-98e1-dd88f81bca0a,5990488be330738b5e253883af8922a394c52ca4
1990,46.146.17.190,Russia,Perm,58.01046,56.25017,46.146.0.0/18,ERTH-PERM-PPPOE-2-NET,iOS,11.3,Mobile Safari UI/WKWebView,,True,d45c391f-9f15-4719-98e1-dd88f81bca0a,5990488be330738b5e253883af8922a394c52ca4
1991,46.146.74.86,Russia,Perm,58.01046,56.25017,46.146.64.0/19,ERTH-PERM-PPPOE-2-NET,iOS,11.3,Mobile Safari UI/WKWebView,,True,d45c391f-9f15-4719-98e1-dd88f81bca0a,5990488be330738b5e253883af8922a394c52ca4
1992,46.146.121.7,Russia,Perm,58.01046,56.25017,46.146.120.0/21,ERTH-PERM-PPPOE-30-NET,iOS,11.3,Mobile Safari UI/WKWebView,,True,d45c391f-9f15-4719-98e1-dd88f81bca0a,5990488be330738b5e253883af8922a394c52ca4
1993,46.147.25.217,Russia,Perm,58.01046,56.25017,46.147.24.0/21,ERTH-PERM-PPPOE-46-NET,iOS,11.3,Mobile Safari UI/WKWebView,,True,d45c391f-9f15-4719-98e1-dd88f81bca0a,5990488be330738b5e253883af8922a394c52ca4
1994,46.146.24.21,Russia,Perm,58.01046,56.25017,46.146.0.0/18,ERTH-PERM-PPPOE-2-NET,iOS,11.3,Mobile Safari UI/WKWebView,,True,d45c391f-9f15-4719-98e1-dd88f81bca0a,5990488be330738b5e253883af8922a394c52ca4
1995,176.59.199.249,Russia,Yekaterinburg,56.8519,60.6122,176.59.192.0/19,TELE2RU-SUBSCRIBER-POOL-NET,iOS,11.3,Mobile Safari UI/WKWebView,,True,d45c391f-9f15-4719-98e1-dd88f81bca0a,5990488be330738b5e253883af8922a394c52ca4
1996,46.146.10.63,Russia,Perm,58.01046,56.25017,46.146.0.0/18,ERTH-PERM-PPPOE-2-NET,iOS,11.3,Mobile Safari UI/WKWebView,,True,d45c391f-9f15-4719-98e1-dd88f81bca0a,5990488be330738b5e253883af8922a394c52ca4
1997,5.166.175.76,Russia,Perm,58.01046,56.25017,5.166.168.0/21,ERTH-PERM-PPPOE-60-NET,iOS,11.3,Mobile Safari UI/WKWebView,,True,d45c391f-9f15-4719-98e1-dd88f81bca0a,5990488be330738b5e253883af8922a394c52ca4
1998,176.59.212.70,Russia,Yekaterinburg,56.8519,60.6122,176.59.192.0/19,TELE2RU-SUBSCRIBER-POOL-NET,iOS,11.3,Mobile Safari UI/WKWebView,,True,d45c391f-9f15-4719-98e1-dd88f81bca0a,5990488be330738b5e253883af8922a394c52ca4
1999,46.146.142.158,Russia,Perm,58.01046,56.25017,46.146.136.0/21,ERTH-PERM-PPPOE-32-NET,iOS,11.3,Mobile Safari UI/WKWebView,,True,d45c391f-9f15-4719-98e1-dd88f81bca0a,5990488be330738b5e253883af8922a394c52ca4
2000,176.59.198.231,Russia,Yekaterinburg,56.8519,60.6122,176.59.192.0/19,TELE2RU-SUBSCRIBER-POOL-NET,iOS,11.3,Mobile Safari UI/WKWebView,,True,d45c391f-9f15-4719-98e1-dd88f81bca0a,5990488be330738b5e253883af8922a394c52ca4
2001,176.59.200.94,Russia,Yekaterinburg,56.8519,60.6122,176.59.192.0/19,TELE2RU-SUBSCRIBER-POOL-NET,iOS,11.3,Mobile Safari UI/WKWebView,,True,d45c391f-9f15-4719-98e1-dd88f81bca0a,5990488be330738b5e253883af8922a394c52ca4
2002,176.59.202.28,Russia,Yekaterinburg,56.8519,60.6122,176.59.192.0/19,TELE2RU-SUBSCRIBER-POOL-NET,iOS,11.3,Mobile Safari UI/WKWebView,,True,d45c391f-9f15-4719-98e1-dd88f81bca0a,5990488be330738b5e253883af8922a394c52ca4
2003,46.146.21.226,Russia,Perm,58.01046,56.25017,46.146.0.0/18,ERTH-PERM-PPPOE-2-NET,iOS,11.3,Mobile Safari UI/WKWebView,,True,d45c391f-9f15-4719-98e1-dd88f81bca0a,5990488be330738b5e253883af8922a394c52ca4
2004,46.146.140.152,Russia,Perm,58.01046,56.25017,46.146.136.0/21,ERTH-PERM-PPPOE-32-NET,iOS,11.3,Mobile Safari UI/WKWebView,,True,d45c391f-9f15-4719-98e1-dd88f81bca0a,5990488be330738b5e253883af8922a394c52ca4
2005,185.52.141.102,Russia,Kemerovo,55.33333,86.08333,185.52.141.0/24,MTS-KMR-CGN-2,Android,7.1.1,Chrome Mobile, 65.0.3325,True,44cbbf5a-fbe3-4183-8547-02bf5956d90f,7dfb816687985d599b9d19cf5062fbe82226d54a
2006,217.118.79.45,Russia,Novosibirsk,55.0415,82.9346,217.118.79.0/24,BEEGPRSPE-4,Android,7.1.1,Chrome Mobile, 65.0.3325,True,44cbbf5a-fbe3-4183-8547-02bf5956d90f,7dfb816687985d599b9d19cf5062fbe82226d54a
2007,217.118.79.33,Russia,Novosibirsk,55.0415,82.9346,217.118.79.0/24,BEEGPRSPE-4,Android,7.1.1,Chrome Mobile, 65.0.3325,True,44cbbf5a-fbe3-4183-8547-02bf5956d90f,7dfb816687985d599b9d19cf5062fbe82226d54a
2008,185.52.141.104,Russia,Kemerovo,55.33333,86.08333,185.52.141.0/24,MTS-KMR-CGN-2,Android,7.1.1,Chrome Mobile, 65.0.3325,True,44cbbf5a-fbe3-4183-8547-02bf5956d90f,7dfb816687985d599b9d19cf5062fbe82226d54a
2009,217.118.79.46,Russia,Novosibirsk,55.0415,82.9346,217.118.79.0/24,BEEGPRSPE-4,Android,7.1.1,Chrome Mobile, 65.0.3325,True,44cbbf5a-fbe3-4183-8547-02bf5956d90f,7dfb816687985d599b9d19cf5062fbe82226d54a
2010,185.52.141.97,Russia,Kemerovo,55.33333,86.08333,185.52.141.0/24,MTS-KMR-CGN-2,Android,7.1.1,Chrome Mobile, 65.0.3325,True,44cbbf5a-fbe3-4183-8547-02bf5956d90f,7dfb816687985d599b9d19cf5062fbe82226d54a
2011,217.118.79.42,Russia,Novosibirsk,55.0415,82.9346,217.118.79.0/24,BEEGPRSPE-4,Android,7.1.1,Chrome Mobile, 65.0.3325,True,44cbbf5a-fbe3-4183-8547-02bf5956d90f,7dfb816687985d599b9d19cf5062fbe82226d54a
2012,217.118.79.35,Russia,Novosibirsk,55.0415,82.9346,217.118.79.0/24,BEEGPRSPE-4,Android,7.1.1,Chrome Mobile, 65.0.3325,True,44cbbf5a-fbe3-4183-8547-02bf5956d90f,7dfb816687985d599b9d19cf5062fbe82226d54a
2013,217.118.79.34,Russia,Novosibirsk,55.0415,82.9346,217.118.79.0/24,BEEGPRSPE-4,Android,7.1.1,Chrome Mobile, 65.0.3325,True,44cbbf5a-fbe3-4183-8547-02bf5956d90f,7dfb816687985d599b9d19cf5062fbe82226d54a
2014,217.118.79.44,Russia,Novosibirsk,55.0415,82.9346,217.118.79.0/24,BEEGPRSPE-4,Android,7.1.1,Chrome Mobile, 65.0.3325,True,44cbbf5a-fbe3-4183-8547-02bf5956d90f,7dfb816687985d599b9d19cf5062fbe82226d54a
2015,185.52.141.99,Russia,Kemerovo,55.33333,86.08333,185.52.141.0/24,MTS-KMR-CGN-2,Android,7.1.1,Chrome Mobile, 65.0.3325,True,44cbbf5a-fbe3-4183-8547-02bf5956d90f,7dfb816687985d599b9d19cf5062fbe82226d54a
2016,217.118.79.39,Russia,Novosibirsk,55.0415,82.9346,217.118.79.0/24,BEEGPRSPE-4,Android,7.1.1,Chrome Mobile, 65.0.3325,True,44cbbf5a-fbe3-4183-8547-02bf5956d90f,7dfb816687985d599b9d19cf5062fbe82226d54a
2017,217.118.79.37,Russia,Novosibirsk,55.0415,82.9346,217.118.79.0/24,BEEGPRSPE-4,Android,7.1.1,Chrome Mobile, 65.0.3325,True,44cbbf5a-fbe3-4183-8547-02bf5956d90f,7dfb816687985d599b9d19cf5062fbe82226d54a
2018,185.52.141.107,Russia,Kemerovo,55.33333,86.08333,185.52.141.0/24,MTS-KMR-CGN-2,Android,7.1.1,Chrome Mobile, 65.0.3325,True,44cbbf5a-fbe3-4183-8547-02bf5956d90f,7dfb816687985d599b9d19cf5062fbe82226d54a
2029,176.59.136.157,Russia,Novosibirsk,55.0415,82.9346,176.59.128.0/19,TELE2RU-SUBSCRIBER-POOL-NET,Android,8.0.0,Chrome Mobile, 68.0.3440,True,74b9fa0b-ab5b-42d7-ac0f-acde916e6ff5,47da64f751ecf5149767dde87f9e275eca88df92
2030,80.83.235.24,Russia,Irkutsk,52.29778,104.29639,80.83.232.0/22,MTSNET-DV-GPRS-3G,Android,8.0.0,Chrome Mobile, 67.0.3396,True,74b9fa0b-ab5b-42d7-ac0f-acde916e6ff5,47da64f751ecf5149767dde87f9e275eca88df92
2031,80.83.235.60,Russia,Irkutsk,52.29778,104.29639,80.83.232.0/22,MTSNET-DV-GPRS-3G,Android,8.0.0,Chrome Mobile, 67.0.3396,True,74b9fa0b-ab5b-42d7-ac0f-acde916e6ff5,47da64f751ecf5149767dde87f9e275eca88df92
2032,80.83.235.46,Russia,Irkutsk,52.29778,104.29639,80.83.232.0/22,MTSNET-DV-GPRS-3G,Android,8.0.0,Chrome Mobile, 67.0.3396,True,74b9fa0b-ab5b-42d7-ac0f-acde916e6ff5,47da64f751ecf5149767dde87f9e275eca88df92
2033,176.59.148.182,Russia,Novosibirsk,55.0415,82.9346,176.59.128.0/19,TELE2RU-SUBSCRIBER-POOL-NET,Android,8.0.0,Chrome Mobile, 67.0.3396,True,74b9fa0b-ab5b-42d7-ac0f-acde916e6ff5,47da64f751ecf5149767dde87f9e275eca88df92
2034,5.254.240.241,Russia,Irkutsk,52.29778,104.29639,5.254.240.0/21,BTTC-RTL-POOL-7,Android,8.0.0,Chrome Mobile, 67.0.3396,True,74b9fa0b-ab5b-42d7-ac0f-acde916e6ff5,47da64f751ecf5149767dde87f9e275eca88df92
2035,80.83.237.40,Russia,Vladivostok,43.10562,131.87353,80.83.236.0/22,MTSNET-DV-GPRS-3G,Android,8.0.0,Chrome Mobile, 66.0.3359,True,74b9fa0b-ab5b-42d7-ac0f-acde916e6ff5,47da64f751ecf5149767dde87f9e275eca88df92
2036,80.83.237.63,Russia,Vladivostok,43.10562,131.87353,80.83.236.0/22,MTSNET-DV-GPRS-3G,Android,8.0.0,Chrome Mobile, 66.0.3359,True,74b9fa0b-ab5b-42d7-ac0f-acde916e6ff5,47da64f751ecf5149767dde87f9e275eca88df92
2037,80.83.235.22,Russia,Irkutsk,52.29778,104.29639,80.83.232.0/22,MTSNET-DV-GPRS-3G,Android,8.0.0,Chrome Mobile, 66.0.3359,True,74b9fa0b-ab5b-42d7-ac0f-acde916e6ff5,47da64f751ecf5149767dde87f9e275eca88df92
2038,176.59.136.59,Russia,Novosibirsk,55.0415,82.9346,176.59.128.0/19,TELE2RU-SUBSCRIBER-POOL-NET,Android,8.0.0,Chrome Mobile, 66.0.3359,True,74b9fa0b-ab5b-42d7-ac0f-acde916e6ff5,47da64f751ecf5149767dde87f9e275eca88df92
2039,80.83.235.41,Russia,Irkutsk,52.29778,104.29639,80.83.232.0/22,MTSNET-DV-GPRS-3G,Android,8.0.0,Chrome Mobile, 66.0.3359,True,74b9fa0b-ab5b-42d7-ac0f-acde916e6ff5,47da64f751ecf5149767dde87f9e275eca88df92
2040,141.105.40.149,Russia,Angarsk,52.53667,103.88639,141.105.40.0/21,BTTC-RTL-POOL-2,Android,8.0.0,Chrome Mobile, 66.0.3359,True,74b9fa0b-ab5b-42d7-ac0f-acde916e6ff5,47da64f751ecf5149767dde87f9e275eca88df92
2041,80.83.235.48,Russia,Irkutsk,52.29778,104.29639,80.83.232.0/22,MTSNET-DV-GPRS-3G,Android,8.0.0,Chrome Mobile, 66.0.3359,True,74b9fa0b-ab5b-42d7-ac0f-acde916e6ff5,47da64f751ecf5149767dde87f9e275eca88df92
2042,5.254.239.232,Russia,Irkutsk,52.29778,104.29639,5.254.232.0/21,BTTC-RTL-POOL-6,Android,8.0.0,Chrome Mobile, 66.0.3359,True,74b9fa0b-ab5b-42d7-ac0f-acde916e6ff5,47da64f751ecf5149767dde87f9e275eca88df92
2043,80.83.235.55,Russia,Irkutsk,52.29778,104.29639,80.83.232.0/22,MTSNET-DV-GPRS-3G,Android,7.0,Chrome Mobile, 66.0.3359,True,74b9fa0b-ab5b-42d7-ac0f-acde916e6ff5,47da64f751ecf5149767dde87f9e275eca88df92
2044,80.83.235.57,Russia,Irkutsk,52.29778,104.29639,80.83.232.0/22,MTSNET-DV-GPRS-3G,Android,7.0,Chrome Mobile, 65.0.3325,True,74b9fa0b-ab5b-42d7-ac0f-acde916e6ff5,47da64f751ecf5149767dde87f9e275eca88df92
2055,95.27.177.2,Russia,Moscow,55.75222,37.61556,95.24.0.0/14,BEELINE-BROADBAND,iOS,9.3.5,Mobile Safari UI/WKWebView,,True,eea691ff-64f1-44b6-b3e3-0830d7f605b8,8e5192145e047b8dd4082c432188026c4bd2da29
2056,83.220.239.78,Russia,Moscow,55.75222,37.61556,83.220.236.0/22,BEE-MSK-GPRS-FW,iOS,9.3.5,Mobile Safari UI/WKWebView,,True,eea691ff-64f1-44b6-b3e3-0830d7f605b8,8e5192145e047b8dd4082c432188026c4bd2da29
2057,5.227.232.117,Russia,Engel's,51.48389,46.10528,5.227.224.0/19,MTS-SARATOV,iOS,11.4.1,Mobile Safari UI/WKWebView,,True,a9d03ad0-4e75-4bd6-a384-cbfc58bd27cd,4fa7cb9ffa372593adc7b357d339d336570a9282
2058,95.104.138.61,Russia,Saratov,51.54056,46.00861,95.104.128.0/19,COMSTAR-SRTV-18112008,iOS,11.4.1,Mobile Safari UI/WKWebView,,True,a9d03ad0-4e75-4bd6-a384-cbfc58bd27cd,4fa7cb9ffa372593adc7b357d339d336570a9282
2059,95.104.138.61,Russia,Saratov,51.54056,46.00861,95.104.128.0/19,COMSTAR-SRTV-18112008,iOS,11.4,Mobile Safari UI/WKWebView,,True,a9d03ad0-4e75-4bd6-a384-cbfc58bd27cd,4fa7cb9ffa372593adc7b357d339d336570a9282
2060,31.29.225.54,Russia,Saratov,51.54056,46.00861,31.29.224.0/21,COMSTAR-SRTV-07102013,iOS,11.4,Mobile Safari UI/WKWebView,,True,a9d03ad0-4e75-4bd6-a384-cbfc58bd27cd,4fa7cb9ffa372593adc7b357d339d336570a9282
